,title,address,roadAddress,mapx,mapy,category,description,telephone,link
0,<b>스타벅스</b> 더종로R점,서울특별시 종로구 종로2가 6 종로타워,서울특별시 종로구 종로 51,310403,552552,"카페,디저트>카페",,02-722-3507,http://www.istarbucks.co.kr/
1,<b>스타벅스</b> 광화문R점,서울특별시 종로구 세종로 185-2,서울특별시 종로구 세종대로 167,309768,552613,"카페,디저트>카페",,02-758-8036,http://www.istarbucks.co.kr/
2,<b>스타벅스</b> 종로3가점,서울특별시 종로구 종로3가 9-3 1-4층,서울특별시 종로구 종로 113-1,310996,552518,"카페,디저트>카페",,02-758-8339,http://www.istarbucks.co.kr/
3,<b>스타벅스</b> 광화문D타워점,서울특별시 종로구 청진동 249 D타워,,309992,552623,"카페,디저트>카페",,02-758-8954,http://www.istarbucks.co.kr/
4,<b>스타벅스</b> 마로니에공원점,서울특별시 종로구 동숭동 1-115 1-2층,서울특별시 종로구 대학로 116,312081,553726,"카페,디저트>카페",,02-758-8315,http://www.istarbucks.co.kr/
5,<b>스타벅스</b> 종각점,서울특별시 종로구 종로2가 84-10,서울특별시 종로구 종로 64,310494,552453,"카페,디저트>카페",,02-758-8169,http://www.istarbucks.co.kr/
6,<b>스타벅스</b> 정부서울청사R점,서울특별시 종로구 적선동 156 광화문플래티넘,서울특별시 종로구 새문안로5가길 28,309531,552962,"카페,디저트>카페",,02-722-3549,http://www.istarbucks.co.kr/
7,<b>스타벅스</b> 삼청동점,서울특별시 종로구 삼청동 112,서울특별시 종로구 삼청로 111-1,310267,554172,"카페,디저트>카페",,02-758-8771,http://www.istarbucks.co.kr/
8,<b>스타벅스</b> 경복궁역점,서울특별시 종로구 통의동 35-41 1층,서울특별시 종로구 자하문로4길 6,309461,553267,"카페,디저트>카페",,02-758-8359,http://www.istarbucks.co.kr/
9,<b>스타벅스</b> 적선점,서울특별시 종로구 적선동 66 노스게이트빌딩 1층,서울특별시 종로구 새문안로5길 55,309564,553050,"카페,디저트>카페",,02-758-8050,http://www.istarbucks.co.kr/
10,<b>스타벅스</b> 안국점,서울특별시 종로구 재동 109,서울특별시 종로구 북촌로 5-1,310600,553275,"카페,디저트>카페",,02-758-8779,http://www.istarbucks.co.kr/
11,<b>스타벅스</b> 대학로점,서울특별시 종로구 연건동 128-8 홍익대학교 대학로캠퍼스 內,서울특별시 종로구 대학로 57,311996,553168,"카페,디저트>카페",,02-758-8558,http://www.istarbucks.co.kr/
12,<b>스타벅스</b> 성대입구점,서울특별시 종로구 명륜3가 154-3,서울특별시 종로구 창경궁로 235,311734,553880,"카페,디저트>카페",,02-758-8249,http://www.istarbucks.co.kr/
13,<b>스타벅스</b> 이마빌딩점,서울특별시 종로구 수송동 146-1,서울특별시 종로구 종로1길 42,310007,552896,"카페,디저트>카페",,02-758-8405,http://www.istarbucks.co.kr/
14,<b>스타벅스</b> 혜화역점,서울특별시 종로구 동숭동 1-31,서울특별시 종로구 대학로12길 4,312068,553830,"카페,디저트>카페",,02-742-3673,http://www.istarbucks.co.kr/
15,<b>스타벅스</b> 동숭로아트점,서울특별시 종로구 동숭동 30,서울특별시 종로구 동숭길 110,312218,553883,"카페,디저트>카페",,02-758-8430,http://www.istarbucks.co.kr/
16,<b>스타벅스</b> 주얼리시티점,서울특별시 종로구 인의동 48-2 효성주얼리시티,서울특별시 종로구 종로 183,311748,552620,"카페,디저트>카페",,02-6744-4882,http://www.istarbucks.co.kr/
17,<b>스타벅스</b> 광화문우체국점,서울특별시 종로구 서린동 154-1 광화문우체국,서울특별시 종로구 종로 6,309924,552452,"카페,디저트>카페",,02-733-3592,http://www.istarbucks.co.kr/
18,<b>스타벅스</b> 스페이스본점,서울특별시 종로구 사직동 9 광화문 풍림스페이스본,서울특별시 종로구 사직로8길 4,309150,553067,"카페,디저트>카페",,02-758-8235,http://www.istarbucks.co.kr/
19,<b>스타벅스</b> 동묘앞역점,서울특별시 종로구 숭인동 310 대우디오빌,서울특별시 종로구 종로 344,313283,552732,"카페,디저트>카페",,02-2234-4265,http://www.istarbucks.co.kr/
20,<b>스타벅스</b> 종로관철점,서울특별시 종로구 관철동 12-15 2층,서울특별시 종로구 종로12길 21,310624,552356,"카페,디저트>카페",,02-758-8360,http://www.istarbucks.co.kr/
21,<b>스타벅스</b> 새문안로점,서울특별시 종로구 신문로1가 163 광화문오피시아빌딩(광화문오피시아),서울특별시 종로구 새문안로 92,309642,552433,"카페,디저트>카페",,02-758-8788,http://www.istarbucks.co.kr/
22,<b>스타벅스</b> 경복궁사거리점,서울특별시 종로구 중학동 14 트윈트리타워B동 101호,서울특별시 종로구 율곡로 6,310152,553085,"카페,디저트>카페",,02-758-8386,http://www.istarbucks.co.kr/
23,<b>스타벅스</b> 종로수송점,서울특별시 종로구 청진동 19 1~3층,서울특별시 종로구 종로5길 30,310165,552631,"카페,디저트>카페",,02-758-8818,http://www.istarbucks.co.kr/
24,<b>스타벅스</b> 영풍문고점,서울특별시 종로구 서린동 33 영풍빌딩,서울특별시 종로구 청계천로 41,310281,552415,"카페,디저트>카페",,02-758-8083,http://www.istarbucks.co.kr/
25,<b>스타벅스</b> 서울극장점,서울특별시 종로구 관수동 59-7 서울극장,서울특별시 종로구 돈화문로 13,311135,552428,"카페,디저트>카페",,02-758-8269,http://www.istarbucks.co.kr/
26,<b>스타벅스</b> 종로관수점,서울특별시 종로구 관수동 3-5,서울특별시 종로구 삼일대로20길 13,310858,552390,"카페,디저트>카페",,02-758-8560,http://www.istarbucks.co.kr/
27,<b>스타벅스</b> 대명거리점,서울특별시 종로구 명륜4가 7,서울특별시 종로구 대명길 5,311979,553944,"카페,디저트>카페",,02-758-8316,http://www.istarbucks.co.kr/
28,<b>스타벅스</b> 북촌로점,서울특별시 종로구 계동 101-14 1~3층,서울특별시 종로구 북촌로4길 23,310673,553510,"카페,디저트>카페",,02-758-8827,http://www.istarbucks.co.kr/
29,<b>스타벅스</b> 인사점,서울특별시 종로구 인사동 39,서울특별시 종로구 인사동길 14-3,310718,552696,"카페,디저트>카페",,02-758-8022,http://www.istarbucks.co.kr/
30,<b>스타벅스</b> 독립문역점,서울특별시 종로구 교남동 62-1 경희궁자이 상업시설 팰리스애비뉴 4114~4119호,,308441,552643,"카페,디저트>카페",,02-737-3544,http://www.istarbucks.co.kr/
31,<b>스타벅스</b> 광교점,서울특별시 종로구 관철동 43-9,서울특별시 종로구 청계천로 59,310465,552343,"카페,디저트>카페",,02-758-8154,http://www.istarbucks.co.kr/
32,<b>스타벅스</b> 종로평창동점,서울특별시 종로구 평창동 182-11 나라빌딩,서울특별시 종로구 평창12길 3,309008,556491,"카페,디저트>카페",,02-396-3631,http://www.istarbucks.co.kr/
33,<b>스타벅스</b> 종로구청점,서울특별시 종로구 수송동 51-8 G타워,,310197,552761,"카페,디저트>카페",,02-6281-3272,http://www.istarbucks.co.kr/
34,<b>스타벅스</b> 경희궁로점,서울특별시 종로구 당주동 128-27 동원빌딩,서울특별시 종로구 새문안로3길 15,309419,552669,"카페,디저트>카페",,,http://www.istarbucks.co.kr/
35,<b>스타벅스</b> 연합뉴스점,서울특별시 종로구 수송동 110 연합뉴스빌딩,서울특별시 종로구 율곡로2길 25,310139,552946,"카페,디저트>카페",,,http://www.istarbucks.co.kr/
36,<b>스타벅스</b> 소공동점,서울특별시 중구 소공동 87-10,서울특별시 중구 소공로 112,310012,551851,"카페,디저트>카페",,02-758-8140,http://www.istarbucks.co.kr/
37,<b>스타벅스</b> 한국프레스센터점,서울특별시 중구 태평로1가 25 프레스센터,서울특별시 중구 세종대로 124,309901,552178,"카페,디저트>카페",,02-722-3263,http://www.istarbucks.co.kr/
38,<b>스타벅스</b> 무교동점,서울특별시 중구 무교동 45 코오롱빌딩,서울특별시 중구 무교로 21,309979,552225,"카페,디저트>카페",,02-758-8037,http://www.istarbucks.co.kr/
39,<b>스타벅스</b> 시청점,서울특별시 중구 을지로1가 50 삼성화재 삼성빌딩1층,서울특별시 중구 을지로 19,310072,552055,"카페,디저트>카페",,02-758-8504,http://www.istarbucks.co.kr/
40,<b>스타벅스</b> 대한극장점,"서울특별시 중구 필동2가 19-1 대한극장 1,2층",서울특별시 중구 퇴계로 212,311432,551459,"카페,디저트>카페",,02-758-8030,http://www.istarbucks.co.kr/
41,<b>스타벅스</b> 황학캐슬점,서울특별시 중구 황학동 2545 롯데캐슬베네치아,서울특별시 중구 청계천로 400,313885,552564,"카페,디저트>카페",,02-2048-5257,http://www.istarbucks.co.kr/
42,<b>스타벅스</b> 약수역점,서울특별시 중구 신당동 374-27,서울특별시 중구 다산로 129,312791,550821,"카페,디저트>카페",,02-758-8862,http://www.istarbucks.co.kr/
43,<b>스타벅스</b> 명동길점,서울특별시 중구 충무로2가 7-1,서울특별시 중구 명동10길 41,310602,551581,"카페,디저트>카페",,02-758-8849,http://www.istarbucks.co.kr/
44,<b>스타벅스</b> 연세세브란스점,서울특별시 중구 남대문로5가 84-11 연세세브란스빌딩,서울특별시 중구 통일로 10,309507,551053,"카페,디저트>카페",,02-2259-3331,http://www.istarbucks.co.kr/
45,<b>스타벅스</b> 동대문공원점,서울특별시 중구 광희동1가 185-1,서울특별시 중구 장충단로 229,312490,551900,"카페,디저트>카페",,02-2279-3345,http://www.istarbucks.co.kr/
46,<b>스타벅스</b> 대우재단빌딩점,서울특별시 중구 남대문로5가 526 대우재단빌딩,서울특별시 중구 퇴계로 18,309643,551004,"카페,디저트>카페",,02-6366-1381,http://www.istarbucks.co.kr/
47,<b>스타벅스</b> 명동미래점,서울특별시 중구 명동1가 48-2,서울특별시 중구 명동7길 8,310483,551803,"카페,디저트>카페",,02-758-8318,http://www.istarbucks.co.kr/
48,<b>스타벅스</b> 문화일보점,서울특별시 중구 충정로1가 68 문화일보(문화일보사건물),서울특별시 중구 새문안로 22,309089,552158,"카페,디저트>카페",,02-758-8047,http://www.istarbucks.co.kr/
49,<b>스타벅스</b> 신당역점,서울특별시 중구 흥인동 132 1층,서울특별시 중구 퇴계로 385,313141,551937,"카페,디저트>카페",,02-758-8669,http://www.istarbucks.co.kr/
50,<b>스타벅스</b> 숭례문북창점,서울특별시 중구 남대문로4가 17-19,서울특별시 중구 세종대로12길 12,309804,551551,"카페,디저트>카페",,02-3789-3661,http://www.istarbucks.co.kr/
51,<b>스타벅스</b> 회현역점,"서울특별시 중구 회현동1가 206 리더스뷰남산 107,108호",서울특별시 중구 퇴계로 72,310146,551243,"카페,디저트>카페",,02-758-8986,http://www.istarbucks.co.kr/
52,<b>스타벅스</b> 시청플러스점,서울특별시 중구 을지로1가 50 삼성화재 삼성빌딩1층,서울특별시 중구 을지로 19,310094,552060,"카페,디저트>카페",,02-758-8505,http://www.istarbucks.co.kr/
53,<b>스타벅스</b> 충무로역점,서울특별시 중구 필동2가 10 충무빌딩1층,서울특별시 중구 퇴계로 197,311308,551510,"카페,디저트>카페",,02-758-8395,http://www.istarbucks.co.kr/
54,<b>스타벅스</b> 을지로2가점,서울특별시 중구 을지로2가 88-5,,310802,552053,"카페,디저트>카페",,,http://www.istarbucks.co.kr/
55,<b>스타벅스</b> 동대입구역점,서울특별시 중구 장충동1가 62-35 종이나라빌딩,서울특별시 중구 장충단로 166,312391,551287,"카페,디저트>카페",,02-2264-3364,http://www.istarbucks.co.kr/
56,<b>스타벅스</b> 명동입구점,서울특별시 중구 명동2가 85-5,서울특별시 중구 남대문로 68-1,310284,551723,"카페,디저트>카페",,02-758-8506,http://www.istarbucks.co.kr/
57,<b>스타벅스</b> 명동역점,서울특별시 중구 충무로1가 25-52 건물전체,서울특별시 중구 퇴계로 101,310356,551446,"카페,디저트>카페",,02-758-8562,http://www.istarbucks.co.kr/
58,<b>스타벅스</b> 중구저동점,서울특별시 중구 저동2가 24-1,서울특별시 중구 수표로 34,311000,551831,"카페,디저트>카페",,02-758-8857,http://www.istarbucks.co.kr/
59,<b>스타벅스</b> 소공로점,서울특별시 중구 소공동 70 삼영빌딩 1층일부,서울특별시 중구 남대문로7길 19,310154,551769,"카페,디저트>카페",,02-758-8569,http://www.istarbucks.co.kr/
60,<b>스타벅스</b> 퍼시픽타워점,서울특별시 중구 서소문동 135 퍼시픽타워 1층,서울특별시 중구 세종대로9길 41,309467,551510,"카페,디저트>카페",,02-758-8079,http://www.istarbucks.co.kr/
61,<b>스타벅스</b> 순화동에이스점,서울특별시 중구 순화동 1-170 에이스타워빌딩,서울특별시 중구 통일로 92,309118,551771,"카페,디저트>카페",,02-758-8372,http://www.istarbucks.co.kr/
62,<b>스타벅스</b> 신세계본점6F점,서울특별시 중구 충무로1가 52-5 신세계백화점건물,서울특별시 중구 소공로 63,310149,551398,"카페,디저트>카페",,,http://www.istarbucks.co.kr/
63,<b>스타벅스</b> 을지로경기빌딩점,서울특별시 중구 삼각동 115 경기빌딩,서울특별시 중구 남대문로10길 9,310369,552149,"카페,디저트>카페",,02-758-8981,http://www.istarbucks.co.kr/
64,<b>스타벅스</b> 국립중앙의료원점,서울특별시 중구 을지로6가 18-131 을지회관,서울특별시 중구 을지로 251,312407,552055,"카페,디저트>카페",,02-2269-3667,http://www.istarbucks.co.kr/
65,<b>스타벅스</b> 신당역사거리점,서울특별시 중구 흥인동 86 KT 동대문지사,서울특별시 중구 다산로 258,313307,551967,"카페,디저트>카페",,02-2253-3318,http://www.istarbucks.co.kr/
66,<b>스타벅스</b> 대한상공회의소R점,서울특별시 중구 남대문로4가 45 1층,서울특별시 중구 세종대로 39,309526,551467,"카페,디저트>카페",,,http://www.istarbucks.co.kr/
67,<b>스타벅스</b> 서소문점,서울특별시 중구 서소문동 90,서울특별시 중구 서소문로 130,309689,551736,"카페,디저트>카페",,02-758-8181,http://www.istarbucks.co.kr/
68,<b>스타벅스</b> 남산스테이트점,서울특별시 중구 회현동2가 88 스테이트타워 남산 지하1층B107호,서울특별시 중구 퇴계로 100,310328,551377,"카페,디저트>카페",,02-758-8539,http://www.istarbucks.co.kr/
69,<b>스타벅스</b> 명동센트럴점,서울특별시 중구 명동1가 10-1 명동 센트럴빌딩 호텔 스카이파크,서울특별시 중구 명동9길 16,310550,551870,"카페,디저트>카페",,02-3789-3640,http://www.istarbucks.co.kr/
70,<b>스타벅스</b> 동국대점,서울특별시 중구 충무로5가 90,서울특별시 중구 서애로1길 11,311712,551510,"카페,디저트>카페",,02-2269-3296,http://www.istarbucks.co.kr/
71,<b>스타벅스</b> 명동중앙로점,서울특별시 중구 명동2가 2-16,서울특별시 중구 명동길 60,310596,551767,"카페,디저트>카페",,02-758-8903,http://www.istarbucks.co.kr/
72,<b>스타벅스</b> 을지로국제빌딩점,서울특별시 중구 다동 111 국제빌딩,서울특별시 중구 남대문로 109,310286,552126,"카페,디저트>카페",,02-752-3464,http://www.istarbucks.co.kr/
73,<b>스타벅스</b> 서소문로점,서울특별시 중구 서소문동 75 대한빌딩,,309603,551695,"카페,디저트>카페",,02-758-8832,http://www.istarbucks.co.kr/
74,<b>스타벅스</b> 숭례문점,서울특별시 중구 남대문로5가 6-1 와이즈타워 1층,서울특별시 중구 세종대로 17,309470,551224,"카페,디저트>카페",,02-758-8087,http://www.istarbucks.co.kr/
75,<b>스타벅스</b> 을지로한국빌딩점,서울특별시 중구 을지로2가 198 1층,서울특별시 중구 을지로 50,310379,551988,"카페,디저트>카페",,02-758-8385,http://www.istarbucks.co.kr/
76,<b>스타벅스</b> 소공로북창점,서울특별시 중구 소공동 112-4 삼원빌딩,서울특별시 중구 세종대로18길 32,309991,551767,"카페,디저트>카페",,02-758-8843,http://www.istarbucks.co.kr/
77,<b>스타벅스</b> 동대문두타점,서울특별시 중구 을지로6가 18-12 두산타워빌딩,서울특별시 중구 장충단로 275,312635,552320,"카페,디저트>카페",,02-3398-4241,http://www.istarbucks.co.kr/
78,<b>스타벅스</b> 남산단암점,서울특별시 중구 남대문로1가 9,,309679,551198,"카페,디저트>카페",,02-758-8306,http://www.istarbucks.co.kr/
79,<b>스타벅스</b> 신세계본점5F점,서울특별시 중구 충무로1가 52-5 신세계백화점건물,서울특별시 중구 소공로 63,310183,551461,"카페,디저트>카페",,,http://www.istarbucks.co.kr/
80,<b>스타벅스</b> 태평로점,서울특별시 중구 태평로2가 69-7 대영빌딩 1층,서울특별시 중구 세종대로 72,309801,551635,"카페,디저트>카페",,02-758-8039,http://www.istarbucks.co.kr/
81,<b>스타벅스</b> 을지로삼화타워점,서울특별시 중구 을지로2가 15 삼화타워 1층,,310506,552118,"카페,디저트>카페",,02-758-8483,http://www.istarbucks.co.kr/
82,<b>스타벅스</b> 순화동더샵점,서울특별시 중구 순화동 151 1층,서울특별시 중구 칠패로 27,309369,551372,"카페,디저트>카페",,02-758-8209,http://www.istarbucks.co.kr/
83,<b>스타벅스</b> 을지로내외빌딩R점,서울특별시 중구 을지로2가 6 내외빌딩,서울특별시 중구 을지로 51,310413,552072,"카페,디저트>카페",,02-754-3429,http://www.istarbucks.co.kr/
84,<b>스타벅스</b> 명동메트로점,서울특별시 중구 을지로2가 199-33 메트로호텔,서울특별시 중구 명동9가길 14,310413,551921,"카페,디저트>카페",,02-758-8764,http://www.istarbucks.co.kr/
85,<b>스타벅스</b> 서소문배재점,서울특별시 중구 서소문동 57-9,서울특별시 중구 서소문로 99,309393,551680,"카페,디저트>카페",,02-758-8409,http://www.istarbucks.co.kr/
86,<b>스타벅스</b> 서울중앙우체국점,서울특별시 중구 충무로1가 21-1 서울중앙우체국,서울특별시 중구 소공로 70,310271,551541,"카페,디저트>카페",,02-758-8979,http://www.istarbucks.co.kr/
87,<b>스타벅스</b> 용산아이파크몰점,서울특별시 용산구 한강로3가 40-999 현대아이파크몰(용산역민자역사),서울특별시 용산구 한강대로23길 55,308634,547915,"카페,디저트>카페",,02-2012-2907,http://www.istarbucks.co.kr/
88,<b>스타벅스</b> 이태원거리점,"서울특별시 용산구 한남동 737-61 1,2층",서울특별시 용산구 이태원로 213,311603,548564,"카페,디저트>카페",,02-758-8622,http://www.istarbucks.co.kr/
89,<b>스타벅스</b> 서울역동자동점,서울특별시 용산구 동자동 45 센트레빌아스테리움서울 KDB생명타워 D동,서울특별시 용산구 한강대로 372,309426,550448,"카페,디저트>카페",,02-758-8734,http://www.istarbucks.co.kr/
90,<b>스타벅스</b> 한강진역R점,서울특별시 용산구 한남동 683-139,서울특별시 용산구 이태원로 252,311908,548799,"카페,디저트>카페",,02-797-3556,http://www.istarbucks.co.kr/
91,<b>스타벅스</b> 이태원역점,서울특별시 용산구 이태원동 127-6 127-29,서울특별시 용산구 이태원로 188,311358,548487,"카페,디저트>카페",,02-798-9780,http://www.istarbucks.co.kr/
92,<b>스타벅스</b> 숙대점,서울특별시 용산구 청파동3가 111-35,서울특별시 용산구 청파로47길 57,308934,549660,"카페,디저트>카페",,02-758-8191,http://www.istarbucks.co.kr/
93,<b>스타벅스</b> 숙대입구역점,서울특별시 용산구 갈월동 69-5 지하1~3층,서울특별시 용산구 한강대로 291,309346,549602,"카페,디저트>카페",,02-758-8377,http://www.istarbucks.co.kr/
94,<b>스타벅스</b> 신용산역점,서울특별시 용산구 한강로2가 342 래미안용산,서울특별시 중랑구 동일로139나길 17,308873,547896,"카페,디저트>카페",,02-794-3487,http://www.istarbucks.co.kr/
95,<b>스타벅스</b> 동빙고점,서울특별시 용산구 동빙고동 10-8 7-33,서울특별시 용산구 장문로 12,311086,547903,"카페,디저트>카페",,02-798-8262,http://www.istarbucks.co.kr/
96,<b>스타벅스</b> 동부이촌동점,서울특별시 용산구 이촌동 302-60,서울특별시 용산구 이촌로 198,309067,547051,"카페,디저트>카페",,02-758-8368,http://www.istarbucks.co.kr/
97,<b>스타벅스</b> 순천향입구점,서울특별시 용산구 한남동 657-104,서울특별시 용산구 대사관로 67,312315,548379,"카페,디저트>카페",,02-758-8600,http://www.istarbucks.co.kr/
98,<b>스타벅스</b> 이촌점,"서울특별시 용산구 이촌동 300-20 101호, 102호, 201호, 202호",서울특별시 용산구 이촌로 276,309790,546765,"카페,디저트>카페",,02-3785-3518,http://www.istarbucks.co.kr/
99,<b>스타벅스</b> 서울타워점,서울특별시 용산구 용산동2가 산1-3 YTN서울타워,서울특별시 용산구 남산공원길 126,310806,550361,"카페,디저트>카페",,02-319-3246,http://www.istarbucks.co.kr/
100,<b>스타벅스</b> 한남동R점,서울특별시 용산구 한남동 36-7 1층 ~ 2층,서울특별시 용산구 독서당로 94,312784,548536,"카페,디저트>카페",,,http://www.istarbucks.co.kr/
101,<b>스타벅스</b> 남영동점,서울특별시 용산구 갈월동 90-8,서울특별시 용산구 한강대로 275,309375,549459,"카페,디저트>카페",,02-3275-3320,http://www.istarbucks.co.kr/
102,<b>스타벅스</b> 용산파크타워점,서울특별시 용산구 용산동5가 24 파크타워,서울특별시 용산구 서빙고로 67,309188,547350,"카페,디저트>카페",,02-3785-3386,http://www.istarbucks.co.kr/
103,<b>스타벅스</b> 왕십리역점,서울특별시 성동구 도선동 58-1,서울특별시 성동구 왕십리로 326,314847,551612,"카페,디저트>카페",,02-758-8900,http://www.istarbucks.co.kr/
104,<b>스타벅스</b> 엔터식스점,서울특별시 성동구 행당동 168-1 엔터식스몰 B1,,315237,551497,"카페,디저트>카페",,,http://www.istarbucks.co.kr/
105,<b>스타벅스</b> 한양대점,"서울특별시 성동구 행당동 31-4 10,11 경희빌딩 1,2층",서울특별시 성동구 왕십리로 225,315571,550996,"카페,디저트>카페",,02-758-8015,http://www.istarbucks.co.kr/
106,<b>스타벅스</b> 성수역점,서울특별시 성동구 성수동2가 317-20 세림빌딩,서울특별시 성동구 성수이로 94,316861,549420,"카페,디저트>카페",,02-469-3460,http://www.istarbucks.co.kr/
107,<b>스타벅스</b> 황학사거리점,서울특별시 성동구 하왕십리동 700 센트라스,,313951,552164,"카페,디저트>카페",,02-2294-3409,http://www.istarbucks.co.kr/
108,<b>스타벅스</b> 뚝섬역점,서울특별시 성동구 성수동1가 14-33 정명빌딩,서울특별시 성동구 아차산로 42,316166,549787,"카페,디저트>카페",,02-469-3488,http://www.istarbucks.co.kr/
109,<b>스타벅스</b> 상왕십리역점,서울특별시 성동구 하왕십리동 1070-3 서울동인병원,서울특별시 성동구 왕십리로 382,314320,551885,"카페,디저트>카페",,02-2294-3342,http://www.istarbucks.co.kr/
110,<b>스타벅스</b> 엔터식스한양대점,서울특별시 성동구 행당동 155-1,서울특별시 성동구 왕십리로 241,315381,550972,"카페,디저트>카페",,02-758-8846,http://www.istarbucks.co.kr/
111,<b>스타벅스</b> 성수이마트점,서울특별시 성동구 성수동2가 333-16 이마트 성수점,서울특별시 성동구 뚝섬로 377,316509,549036,"카페,디저트>카페",,02-758-8282,http://www.istarbucks.co.kr/
112,<b>스타벅스</b> 건대입구점,서울특별시 광진구 화양동 5-47,서울특별시 광진구 능동로 107,318076,549127,"카페,디저트>카페",,02-758-8305,http://www.istarbucks.co.kr/
113,<b>스타벅스</b> 군자역점,서울특별시 광진구 군자동 478-5 중앙빌딩,서울특별시 광진구 천호대로 548,318817,550900,"카페,디저트>카페",,02-758-8748,http://www.istarbucks.co.kr/
114,<b>스타벅스</b> 강변역점,서울특별시 광진구 구의동 589-10 구의아크로리버(구의대림아크로리버),서울특별시 광진구 구의강변로 64,320047,548608,"카페,디저트>카페",,02-758-8759,http://www.istarbucks.co.kr/
115,<b>스타벅스</b> 건대스타시티점,"서울특별시 광진구 자양동 227-7 1층 19,20,21호",서울특별시 광진구 아차산로 262,318234,548808,"카페,디저트>카페",,02-758-8197,http://www.istarbucks.co.kr/
116,<b>스타벅스</b> 구의DT점,서울특별시 광진구 구의동 67-36,서울특별시 광진구 광나루로 519,319533,549616,"카페,디저트>카페",,02-758-8901,http://www.istarbucks.co.kr/
117,<b>스타벅스</b> 어린이대공원역점,서울특별시 광진구 군자동 236,서울특별시 광진구 능동로 243,318590,550375,"카페,디저트>카페",,02-464-3656,http://www.istarbucks.co.kr/
118,<b>스타벅스</b> 자양점,서울특별시 광진구 자양동 507-6,서울특별시 광진구 능동로 50,317931,548553,"카페,디저트>카페",,02-758-8159,http://www.istarbucks.co.kr/
119,<b>스타벅스</b> 건국클래식점,"서울특별시 광진구 자양동 227-342 더 클래식500 1층 C102,103호",서울특별시 광진구 능동로 92,318072,548874,"카페,디저트>카페",,02-758-8519,http://www.istarbucks.co.kr/
120,<b>스타벅스</b> 구의역점,서울특별시 광진구 구의동 246-15,서울특별시 광진구 아차산로 373,319246,548707,"카페,디저트>카페",,02-758-8476,http://www.istarbucks.co.kr/
121,<b>스타벅스</b> 아차산역점,서울특별시 광진구 구의동 75-19,서울특별시 광진구 천호대로 676,319779,550207,"카페,디저트>카페",,02-455-3637,http://www.istarbucks.co.kr/
122,<b>스타벅스</b> 광나루점,"서울특별시 광진구 광장동 329-1 1,2층",서울특별시 광진구 아차산로 607,321195,549850,"카페,디저트>카페",,02-758-8648,http://www.istarbucks.co.kr/
123,<b>스타벅스</b> 자양사거리점,서울특별시 광진구 자양동 779,서울특별시 광진구 아차산로 355,319120,548723,"카페,디저트>카페",,02-758-8865,http://www.istarbucks.co.kr/
124,<b>스타벅스</b> 올림픽대교북단점,서울특별시 광진구 구의동 200-2,서울특별시 광진구 광나루로 608,320243,549158,"카페,디저트>카페",,02-453-3514,http://www.istarbucks.co.kr/
125,<b>스타벅스</b> 광장점,서울특별시 광진구 광장동 582,서울특별시 광진구 아차산로 537-17,320647,549346,"카페,디저트>카페",,02-758-8508,http://www.istarbucks.co.kr/
126,<b>스타벅스</b> 건국대점,서울특별시 광진구 화양동 5-45,서울특별시 광진구 능동로 117,318112,549226,"카페,디저트>카페",,02-3409-3722,http://www.istarbucks.co.kr/
127,<b>스타벅스</b> 회기역사거리점,서울특별시 동대문구 회기동 346-18,서울특별시 동대문구 이문로 37,316839,554703,"카페,디저트>카페",,02-758-8767,http://www.istarbucks.co.kr/
128,<b>스타벅스</b> 장한평역점,서울특별시 동대문구 장안동 433-7,서울특별시 동대문구 장한로 10,317639,551537,"카페,디저트>카페",,02-758-8475,http://www.istarbucks.co.kr/
129,<b>스타벅스</b> 외대점,서울특별시 동대문구 이문동 305-60,서울특별시 동대문구 휘경로 12-1,317313,555249,"카페,디저트>카페",,02-758-8132,http://www.istarbucks.co.kr/
130,<b>스타벅스</b> 답십리역점,서울특별시 동대문구 답십리동 497-67,서울특별시 동대문구 천호대로 263,316373,552230,"카페,디저트>카페",,02-2245-3417,http://www.istarbucks.co.kr/
131,<b>스타벅스</b> 경희대점,서울특별시 동대문구 회기동 16-41 지하1층~지상3층,서울특별시 동대문구 경희대로 16-1,316551,554938,"카페,디저트>카페",,02-758-8351,http://www.istarbucks.co.kr/
132,<b>스타벅스</b> 경희대삼거리점,서울특별시 동대문구 회기동 60-40,서울특별시 동대문구 회기로 141,316480,554789,"카페,디저트>카페",,02-959-3391,http://www.istarbucks.co.kr/
133,<b>스타벅스</b> 신설동역점,서울특별시 동대문구 신설동 76-10,서울특별시 동대문구 왕산로 19,314125,553170,"카페,디저트>카페",,02-758-8942,http://www.istarbucks.co.kr/
134,<b>스타벅스</b> 외대정문점,서울특별시 동대문구 이문동 329-1,서울특별시 동대문구 이문로 93,317103,555207,"카페,디저트>카페",,02-965-3373,http://www.istarbucks.co.kr/
135,<b>스타벅스</b> 상봉역점,서울특별시 중랑구 상봉동 100-2,서울특별시 중랑구 망우로 307,319528,555354,"카페,디저트>카페",,02-758-8486,http://www.istarbucks.co.kr/
136,<b>스타벅스</b> 사가정역점,서울특별시 중랑구 면목동 617-2,서울특별시 중랑구 면목로 310,319642,553433,"카페,디저트>카페",,02-758-8823,http://www.istarbucks.co.kr/
137,<b>스타벅스</b> 중랑역점,서울특별시 중랑구 상봉동 130-3,서울특별시 중랑구 망우로30길 3,318488,554936,"카페,디저트>카페",,02-758-8935,http://www.istarbucks.co.kr/
138,<b>스타벅스</b> 상봉점,서울특별시 중랑구 상봉동 79 상봉 듀오트리스 주상복합,,320062,555454,"카페,디저트>카페",,02-438-5223,http://www.istarbucks.co.kr/
139,<b>스타벅스</b> 중랑구청점,서울특별시 중랑구 신내동 563-3,서울특별시 중랑구 신내로14길 8,320357,556289,"카페,디저트>카페",,02-758-8887,http://www.istarbucks.co.kr/
140,<b>스타벅스</b> 묵동이마트점,서울특별시 중랑구 묵1동 170-1 묵동이마트 B1층,서울특별시 중랑구 동일로 932,318753,557198,"카페,디저트>카페",,02-758-8370,http://www.istarbucks.co.kr/
141,<b>스타벅스</b> 성신여대점,서울특별시 성북구 동선동1가 92-1,서울특별시 성북구 동소문로24길 12,313511,554998,"카페,디저트>카페",,02-758-8499,http://www.istarbucks.co.kr/
142,<b>스타벅스</b> 성신여대정문점,서울특별시 성북구 동선동2가 134 모아빌딩,서울특별시 성북구 보문로34길 62,313545,554751,"카페,디저트>카페",,02-922-3281,http://www.istarbucks.co.kr/
143,<b>스타벅스</b> 고대점,서울특별시 성북구 안암동5가 104-30,서울특별시 성북구 고려대로24길 51,314503,553970,"카페,디저트>카페",,02-758-8067,http://www.istarbucks.co.kr/
144,<b>스타벅스</b> 안암역점,서울특별시 성북구 안암동5가 92,서울특별시 성북구 고려대로 102-2,314578,554230,"카페,디저트>카페",,02-758-8541,http://www.istarbucks.co.kr/
145,<b>스타벅스</b> 종암점,서울특별시 성북구 종암동 3-686 시원빌딩,서울특별시 성북구 종암로 122,314886,555867,"카페,디저트>카페",,02-758-8980,http://www.istarbucks.co.kr/
146,<b>스타벅스</b> 한성대입구역점,서울특별시 성북구 성북동1가 35-1,서울특별시 성북구 성북로 11,312310,554557,"카페,디저트>카페",,02-758-8455,http://www.istarbucks.co.kr/
147,<b>스타벅스</b> 종암DT점,서울특별시 성북구 종암동 29-10,서울특별시 성북구 종암로 17,315069,554850,"카페,디저트>카페",,02-925-3469,http://www.istarbucks.co.kr/
148,<b>스타벅스</b> 미아점,서울특별시 성북구 하월곡동 89-7 부영빌딩,서울특별시 성북구 동소문로 314,314492,556591,"카페,디저트>카페",,02-913-3364,http://www.istarbucks.co.kr/
149,<b>스타벅스</b> 월곡역점,서울특별시 성북구 하월곡동 46-73 101-1호,서울특별시 성북구 화랑로 76,315469,555930,"카페,디저트>카페",,02-758-8608,http://www.istarbucks.co.kr/
150,<b>스타벅스</b> 삼선교점,서울특별시 성북구 동소문동2가 11 1필지 중 가호 1~2층,서울특별시 성북구 동소문로 10,312529,554515,"카페,디저트>카페",,02-758-8714,http://www.istarbucks.co.kr/
151,<b>스타벅스</b> 현대미아점,서울특별시 성북구 길음동 20-1 현대백화점미아점지하 1층,서울특별시 성북구 동소문로 315,314444,556680,"카페,디저트>카페",,02-758-8203,http://www.istarbucks.co.kr/
152,<b>스타벅스</b> 미아이마트점,서울특별시 성북구 길음동 25-2,서울특별시 성북구 도봉로 17,314550,556934,"카페,디저트>카페",,02-982-3806,http://www.istarbucks.co.kr/
153,<b>스타벅스</b> 수유역점,서울특별시 강북구 번동 418-17,서울특별시 강북구 도봉로 342,314247,559972,"카페,디저트>카페",,02-758-8104,http://www.istarbucks.co.kr/
154,<b>스타벅스</b> 미아사거리역점,서울특별시 강북구 미아동 35-30,서울특별시 강북구 도봉로 32,314620,557059,"카페,디저트>카페",,02-758-8859,http://www.istarbucks.co.kr/
155,<b>스타벅스</b> 강북구청사거리점,서울특별시 강북구 수유동 174-13,서울특별시 강북구 도봉로 365,314359,560195,"카페,디저트>카페",,02-758-8944,http://www.istarbucks.co.kr/
156,<b>스타벅스</b> 미아역점,서울특별시 강북구 미아동 121-19,서울특별시 강북구 도봉로 196,314273,558654,"카페,디저트>카페",,02-758-8500,http://www.istarbucks.co.kr/
157,<b>스타벅스</b> 미아뉴타운점,서울특별시 강북구 미아동 812-2 행전빌딩,서울특별시 강북구 삼양로 161,313778,557790,"카페,디저트>카페",,,http://www.istarbucks.co.kr/
158,<b>스타벅스</b> 쌍문역점,서울특별시 도봉구 창동 659-5,서울특별시 도봉구 도봉로 480,315023,561123,"카페,디저트>카페",,02-758-8691,http://www.istarbucks.co.kr/
159,<b>스타벅스</b> 창동이마트점,서울특별시 도봉구 창동 135-26 창동EMART,서울특별시 도봉구 노해로65길 4,316093,561466,"카페,디저트>카페",,02-903-3791,http://www.istarbucks.co.kr/
160,<b>스타벅스</b> 노원역점,서울특별시 노원구 상계6.7동 712,서울특별시 노원구 동일로 1413,317258,561799,"카페,디저트>카페",,02-758-8584,http://www.istarbucks.co.kr/
161,<b>스타벅스</b> 공릉DT점,"서울특별시 노원구 공릉동 597-34 597-30, 597-31, 597-32",서울특별시 노원구 동일로 1015,318480,558006,"카페,디저트>카페",,02-971-3457,http://www.istarbucks.co.kr/
162,<b>스타벅스</b> 월계트레이더스점,서울특별시 노원구 월계동 333-1,서울특별시 노원구 마들로3길 15,317357,558796,"카페,디저트>카페",,02-971-3748,http://www.istarbucks.co.kr/
163,<b>스타벅스</b> 공릉역점,서울특별시 노원구 공릉동 379-27,서울특별시 노원구 동일로 1081,318305,558634,"카페,디저트>카페",,02-972-3380,http://www.istarbucks.co.kr/
164,<b>스타벅스</b> 노원KT점,서울특별시 노원구 상계동 723 ㈜KT 노원사옥,서울특별시 노원구 노해로 502,317574,561774,"카페,디저트>카페",,02-758-8523,http://www.istarbucks.co.kr/
165,<b>스타벅스</b> 상계초교사거리점,서울특별시 노원구 상계동 372-16,서울특별시 노원구 노원로 449,317826,562018,"카페,디저트>카페",,02-931-3660,http://www.istarbucks.co.kr/
166,<b>스타벅스</b> 중계역점,서울특별시 노원구 상계동 763-3 대한빌딩,서울특별시 노원구 동일로 1339,317446,561066,"카페,디저트>카페",,02-758-8567,http://www.istarbucks.co.kr/
167,<b>스타벅스</b> 은행사거리점,"서울특별시 노원구 중계동 360-6 103,203호",서울특별시 노원구 중계로 217,318661,561311,"카페,디저트>카페",,02-758-8238,http://www.istarbucks.co.kr/
168,<b>스타벅스</b> 노원마들역점,서울특별시 노원구 상계동 694 임광아파트,서울특별시 노원구 노원로 569,317086,562487,"카페,디저트>카페",,02-934-3438,http://www.istarbucks.co.kr/
169,<b>스타벅스</b> 광운대점,서울특별시 노원구 월계동 410-1,서울특별시 노원구 석계로 104,317282,558291,"카페,디저트>카페",,02-758-8485,http://www.istarbucks.co.kr/
170,<b>스타벅스</b> 서울여대점,서울특별시 노원구 공릉동 126 서울여대 50주년 기념관 1층,서울특별시 노원구 화랑로 621,320143,558597,"카페,디저트>카페",,02-758-8647,http://www.istarbucks.co.kr/
171,<b>스타벅스</b> 월계이마트점,서울특별시 노원구 월계동 333-1,서울특별시 노원구 마들로3길 15,317409,558734,"카페,디저트>카페",,02-758-8573,http://www.istarbucks.co.kr/
172,<b>스타벅스</b> 구파발역점,서울특별시 은평구 진관동 100-6,서울특별시 은평구 진관2로 12,304777,559681,"카페,디저트>카페",,02-758-8934,http://www.istarbucks.co.kr/
173,<b>스타벅스</b> 은평구청입구점,서울특별시 은평구 응암동 96-1 외 3필지 (은평로 170),서울특별시 은평구 은평로 170,305432,555964,"카페,디저트>카페",,02-758-8762,http://www.istarbucks.co.kr/
174,<b>스타벅스</b> 불광역점,서울특별시 은평구 대조동 15-9,서울특별시 은평구 통일로 715,305762,556886,"카페,디저트>카페",,02-352-3711,http://www.istarbucks.co.kr/
175,<b>스타벅스</b> 연신내역사거리점,서울특별시 은평구 불광동 308-1 범서빌딩,서울특별시 은평구 통일로 842,305037,557920,"카페,디저트>카페",,02-358-3491,http://www.istarbucks.co.kr/
176,<b>스타벅스</b> 구산역점,서울특별시 은평구 대조동 224-14 2필지,서울특별시 은평구 연서로 146,304642,557161,"카페,디저트>카페",,02-758-8515,http://www.istarbucks.co.kr/
177,<b>스타벅스</b> 연신내점,서울특별시 은평구 갈현동 395-5 서연빌딩,서울특별시 은평구 통일로 869,304850,558121,"카페,디저트>카페",,02-388-3348,http://www.istarbucks.co.kr/
178,<b>스타벅스</b> 구파발사거리점,서울특별시 은평구 진관동 65,서울특별시 은평구 진관3로 21 은평엘크루 101동 105-108호,304777,560253,"카페,디저트>카페",,02-389-3557,http://www.istarbucks.co.kr/
179,<b>스타벅스</b> 은평이마트점,서울특별시 은평구 응암동 90-1,서울특별시 은평구 은평로 111,304856,555897,"카페,디저트>카페",,02-758-8139,http://www.istarbucks.co.kr/
180,<b>스타벅스</b> 신촌점,"서울특별시 서대문구 창천동 18-55 즐거운빌딩 1,2,3층",서울특별시 서대문구 연세로 10-1,306288,551008,"카페,디저트>카페",,02-758-8035,http://www.istarbucks.co.kr/
181,<b>스타벅스</b> 연세종합관점,서울특별시 서대문구 신촌동 134 성산로 250 연세세브란스 종합관,서울특별시 서대문구 연세로 50-1,306680,551591,"카페,디저트>카페",,02-758-8244,http://www.istarbucks.co.kr/
182,<b>스타벅스</b> 이대R점,서울특별시 서대문구 대현동 54-4,서울특별시 서대문구 이화여대길 34,307073,551221,"카페,디저트>카페",,02-758-8001,http://www.istarbucks.co.kr/
183,<b>스타벅스</b> 홍제역점,서울특별시 서대문구 홍제동 301-19 홍제빌딩,서울특별시 서대문구 통일로 451,306925,554572,"카페,디저트>카페",,02-396-3383,http://www.istarbucks.co.kr/
184,<b>스타벅스</b> 경기대점,서울특별시 서대문구 충정로2가 191,서울특별시 서대문구 충정로 53,308726,551780,"카페,디저트>카페",,02-758-8163,http://www.istarbucks.co.kr/
185,<b>스타벅스</b> 동교삼거리점,서울특별시 서대문구 창천동 374 3R U-CITY B303호,서울특별시 서대문구 신촌로 1,305435,551302,"카페,디저트>카페",,02-758-8688,http://www.istarbucks.co.kr/
186,<b>스타벅스</b> 명지대점,서울특별시 서대문구 남가좌동 344-1,서울특별시 서대문구 거북골로 53,305009,553440,"카페,디저트>카페",,02-758-8908,http://www.istarbucks.co.kr/
187,<b>스타벅스</b> 이대ECC점,서울특별시 서대문구 대현동 11-1 이화여자대학교 B415호,서울특별시 서대문구 이화여대길 52,307199,551569,"카페,디저트>카페",,02-758-8240,http://www.istarbucks.co.kr/
188,<b>스타벅스</b> 연세백양로점,서울특별시 서대문구 신촌동 134 연세대학교,서울특별시 서대문구 연세로 50-1,306333,551692,"카페,디저트>카페",,02-758-8977,http://www.istarbucks.co.kr/
189,<b>스타벅스</b> 신촌역점,서울특별시 서대문구 창천동 72-12 거화빌딩,서울특별시 서대문구 신촌로 73,306072,550976,"카페,디저트>카페",,02-336-3529,http://www.istarbucks.co.kr/
190,<b>스타벅스</b> 연대점,서울특별시 서대문구 창천동 33-9,서울특별시 서대문구 연세로 35,306257,551255,"카페,디저트>카페",,02-758-8439,http://www.istarbucks.co.kr/
191,<b>스타벅스</b> 연희DT점,"서울특별시 서대문구 연희동 87-7 ,87-8",서울특별시 서대문구 연희로 144,306028,552535,"카페,디저트>카페",,02-758-8893,http://www.istarbucks.co.kr/
192,<b>스타벅스</b> 신촌명물거리점,서울특별시 서대문구 창천동 13-19 번지 1-5층,서울특별시 서대문구 명물길 24,306376,551153,"카페,디저트>카페",,02-365-8330,http://www.istarbucks.co.kr/
193,<b>스타벅스</b> 충정타워점,서울특별시 서대문구 충정로3가 464 충정타워 1층,서울특별시 서대문구 서소문로 21,308678,551357,"카페,디저트>카페",,02-758-8333,http://www.istarbucks.co.kr/
194,<b>스타벅스</b> 가재울뉴타운점,서울특별시 서대문구 남가좌동 381-6,,304486,553082,"카페,디저트>카페",,02-304-3724,http://www.istarbucks.co.kr/
195,<b>스타벅스</b> 아현역점,서울특별시 서대문구 북아현동 136-21 E편한세상신촌 4단지,서울특별시 성동구 연무장19길 4,307964,551138,"카페,디저트>카페",,02-312-3430,http://www.istarbucks.co.kr/
196,<b>스타벅스</b> 연희동점,서울특별시 서대문구 연희동 188-2 신라빌딩,서울특별시 서대문구 연희로 97,305714,552149,"카페,디저트>카페",,02-326-3372,http://www.istarbucks.co.kr/
197,<b>스타벅스</b> 연대동문점,서울특별시 서대문구 대신동 115,서울특별시 서대문구 성산로 565,307110,552098,"카페,디저트>카페",,02-758-8450,http://www.istarbucks.co.kr/
198,<b>스타벅스</b> 신촌대로점,서울특별시 서대문구 창천동 20-41 지상1층,서울특별시 서대문구 신촌로 121,306479,550980,"카페,디저트>카페",,02-758-8090,http://www.istarbucks.co.kr/
199,<b>스타벅스</b> 신촌아트레온점,서울특별시 서대문구 창천동 20-25,서울특별시 서대문구 신촌로 129,306564,551007,"카페,디저트>카페",,02-758-8401,http://www.istarbucks.co.kr/
200,<b>스타벅스</b> 충정로역점,서울특별시 서대문구 충정로3가 95-1,,308601,551525,"카페,디저트>카페",,02-758-8479,http://www.istarbucks.co.kr/
201,<b>스타벅스</b> 홍대역점,서울특별시 마포구 동교동 159-1 상진빌딩 1층,서울특별시 마포구 양화로 165,305100,551099,"카페,디저트>카페",,02-758-8672,http://www.istarbucks.co.kr/
202,<b>스타벅스</b> 홍대입구역사거리R점,서울특별시 마포구 서교동 353-5 경남관광빌딩,서울특별시 마포구 양화로 125,304805,550820,"카페,디저트>카페",,02-325-3531,http://www.istarbucks.co.kr/
203,<b>스타벅스</b> 홍대삼거리점,서울특별시 마포구 상수동 86-22 번지,서울특별시 마포구 와우산로 64,305049,550332,"카페,디저트>카페",,02-758-8402,http://www.istarbucks.co.kr/
204,<b>스타벅스</b> 홍대갤러리점,서울특별시 마포구 서교동 343-10 정명빌딩,서울특별시 마포구 와우산로 101,305199,550665,"카페,디저트>카페",,02-758-8293,http://www.istarbucks.co.kr/
205,<b>스타벅스</b> 상암DMC점,"서울특별시 마포구 상암동 1654 DMC 이안상암1단지 102호,202호",서울특별시 마포구 월드컵북로 375,302214,553402,"카페,디저트>카페",,02-6393-6219,http://www.istarbucks.co.kr/
206,<b>스타벅스</b> 공덕오거리점,서울특별시 마포구 도화동 22 창강빌딩,서울특별시 마포구 마포대로 86,307460,549439,"카페,디저트>카페",,02-758-8933,http://www.istarbucks.co.kr/
207,<b>스타벅스</b> 상수역점,서울특별시 마포구 상수동 329-1,서울특별시 마포구 독막로 88,305049,550023,"카페,디저트>카페",,02-758-8925,http://www.istarbucks.co.kr/
208,<b>스타벅스</b> 망원역점,서울특별시 마포구 서교동 475-13,서울특별시 마포구 월드컵로 74,303948,550962,"카페,디저트>카페",,02-758-8365,http://www.istarbucks.co.kr/
209,<b>스타벅스</b> 합정메세나몰점,"서울특별시 마포구 서교동 490 메세나폴리스 지하1층 B161,162,163,164,",,304225,550424,"카페,디저트>카페",,02-758-8534,http://www.istarbucks.co.kr/
210,<b>스타벅스</b> 동교점,서울특별시 마포구 동교동 205-6 영준빌딩 1층,서울특별시 마포구 월드컵북로 22,304761,551075,"카페,디저트>카페",,02-758-8637,http://www.istarbucks.co.kr/
211,<b>스타벅스</b> 서강광흥창역점,서울특별시 마포구 창전동 130,서울특별시 마포구 서강로 69,305797,550225,"카페,디저트>카페",,02-325-3351,http://www.istarbucks.co.kr/
212,<b>스타벅스</b> 합정점,"서울특별시 마포구 합정동 472 마포한강푸르지오 110, 111, 112-2",서울특별시 마포구 월드컵로1길 14,304149,550272,"카페,디저트>카페",,02-323-3214,http://www.istarbucks.co.kr/
213,<b>스타벅스</b> 상암MBC점,서울특별시 마포구 상암동 1603 MBC신사옥 C1 경영센터,서울특별시 마포구 성암로 267,302238,553809,"카페,디저트>카페",,02-758-8787,http://www.istarbucks.co.kr/
214,<b>스타벅스</b> 홍대공원점,서울특별시 마포구 서교동 362-1,서울특별시 마포구 와우산로 83,305057,550513,"카페,디저트>카페",,02-758-8786,http://www.istarbucks.co.kr/
215,<b>스타벅스</b> 공덕점,서울특별시 마포구 공덕동 254-8 동방빌딩,서울특별시 마포구 마포대로 130,307675,549819,"카페,디저트>카페",,02-716-3426,http://www.istarbucks.co.kr/
216,<b>스타벅스</b> 마포일진빌딩점,서울특별시 마포구 도화동 50-1 일진빌딩 1층,서울특별시 마포구 마포대로 45,307081,549218,"카페,디저트>카페",,02-758-8265,http://www.istarbucks.co.kr/
217,<b>스타벅스</b> 홍대공항철도역점,서울특별시 마포구 동교동 166-1,서울특별시 마포구 양화로 178,305232,551132,"카페,디저트>카페",,02-332-3516,http://www.istarbucks.co.kr/
218,<b>스타벅스</b> 합정폴리스R점,서울특별시 마포구 서교동 490 메세나폴리스 B189~193,,304186,550413,"카페,디저트>카페",,02-324-3587,http://www.istarbucks.co.kr/
219,<b>스타벅스</b> 서교점,서울특별시 마포구 서교동 395-166 서교빌딩 1층,서울특별시 마포구 양화로 78,304497,550463,"카페,디저트>카페",,02-758-8856,http://www.istarbucks.co.kr/
220,<b>스타벅스</b> 마포아크로점,서울특별시 마포구 도화동 563 마포아크로타워,서울특별시 마포구 마포대로 68,307304,549329,"카페,디저트>카페",,02-758-8217,http://www.istarbucks.co.kr/
221,<b>스타벅스</b> 신촌오거리점,서울특별시 마포구 노고산동 54-1,서울특별시 마포구 신촌로16길 10,306073,550861,"카페,디저트>카페",,02-334-3275,http://www.istarbucks.co.kr/
222,<b>스타벅스</b> 상암사보이시티점,서울특별시 마포구 상암동 1597 사보이시티 DMC,서울특별시 마포구 월드컵북로54길 17,302068,553831,"카페,디저트>카페",,02-373-3225,http://www.istarbucks.co.kr/
223,<b>스타벅스</b> 서강대흥역점,서울특별시 마포구 대흥동 111-1,서울특별시 마포구 백범로 89-5,306672,550082,"카페,디저트>카페",,02-3272-3335,http://www.istarbucks.co.kr/
224,<b>스타벅스</b> 상암디지털큐브점,서울특별시 마포구 상암동 1647,서울특별시 마포구 상암산로 34,302085,553258,"카페,디저트>카페",,02-758-8890,http://www.istarbucks.co.kr/
225,<b>스타벅스</b> 애오개역점,서울특별시 마포구 아현동 738 마포트라팰리스II,서울특별시 마포구 마포대로 201,307909,550513,"카페,디저트>카페",,02-758-8272,http://www.istarbucks.co.kr/
226,<b>스타벅스</b> 마포경찰서후문점,서울특별시 마포구 아현동 618-19 마포 센텀 슬로우스퀘어,서울특별시 마포구 마포대로 173-14,307723,550361,"카페,디저트>카페",,02-392-3555,http://www.istarbucks.co.kr/
227,<b>스타벅스</b> 상암YTN점,서울특별시 마포구 상암동 1607 YTN 뉴스퀘어,서울특별시 마포구 상암산로 76,302360,553573,"카페,디저트>카페",,02-304-3752,http://www.istarbucks.co.kr/
228,<b>스타벅스</b> 마포염리점,서울특별시 마포구 염리동 168-9 국민건강보험공단,서울특별시 마포구 독막로 311,307206,549598,"카페,디저트>카페",,02-3272-3331,http://www.istarbucks.co.kr/
229,<b>스타벅스</b> 서교동사거리점,서울특별시 마포구 서교동 374-20,서울특별시 마포구 양화로 105,304645,550682,"카페,디저트>카페",,02-326-5218,http://www.istarbucks.co.kr/
230,<b>스타벅스</b> 마포이마트점,서울특별시 마포구 신공덕동 173,서울특별시 마포구 백범로 212,307705,549431,"카페,디저트>카페",,02-758-8467,http://www.istarbucks.co.kr/
231,<b>스타벅스</b> 마포용강동점,서울특별시 마포구 용강동 112-2 9필지 근린생활시설,서울특별시 마포구 토정로 295,306719,549305,"카페,디저트>카페",,02-3275-3655,http://www.istarbucks.co.kr/
232,<b>스타벅스</b> 서강대점,서울특별시 마포구 신수동 63-14,서울특별시 마포구 백범로 23,306346,550561,"카페,디저트>카페",,02-758-8783,http://www.istarbucks.co.kr/
233,<b>스타벅스</b> 서강대프라자점,"서울특별시 마포구 신수동 1-1 서강대학교 지하캠퍼스 지하1층 104, 105-1호",서울특별시 마포구 백범로 35,306601,550433,"카페,디저트>카페",,02-702-3804,http://www.istarbucks.co.kr/
234,<b>스타벅스</b> 등촌역점,서울특별시 양천구 목동 602-2,서울특별시 양천구 공항대로 566,300178,550236,"카페,디저트>카페",,02-2645-3631,http://www.istarbucks.co.kr/
235,<b>스타벅스</b> 오목교역점,서울특별시 양천구 목동 404-13,서울특별시 양천구 오목로 354,300891,547420,"카페,디저트>카페",,02-758-8941,http://www.istarbucks.co.kr/
236,<b>스타벅스</b> 신정DT점,서울특별시 양천구 신정동 981-15,서울특별시 양천구 신월로 341,299328,547261,"카페,디저트>카페",,02-2604-3441,http://www.istarbucks.co.kr/
237,<b>스타벅스</b> 목동점,서울특별시 양천구 목동 907-4 우성에펠타운(우성에펠타운빌딩),서울특별시 양천구 목동서로 67,301088,548838,"카페,디저트>카페",,02-758-8099,http://www.istarbucks.co.kr/
238,<b>스타벅스</b> 신월IC DT점,서울특별시 양천구 신월동 205-49,서울특별시 양천구 남부순환로 430,296962,548124,"카페,디저트>카페",,02-758-8930,http://www.istarbucks.co.kr/
239,<b>스타벅스</b> 목동역점,서울특별시 양천구 신정동 900-10,서울특별시 양천구 목동로 203,299787,547777,"카페,디저트>카페",,02-2602-3505,http://www.istarbucks.co.kr/
240,<b>스타벅스</b> 현대목동점,서울특별시 양천구 목1동 916 현대백화점 목동점 지하2층,서울특별시 양천구 목동동로 257,300763,547783,"카페,디저트>카페",,02-2163-1750,http://www.istarbucks.co.kr/
241,<b>스타벅스</b> 목동하이페리온점,서울특별시 양천구 목동 961 현대하이페리온2상가 205동,서울특별시 양천구 오목로 300,300344,547575,"카페,디저트>카페",,02-758-8610,http://www.istarbucks.co.kr/
242,<b>스타벅스</b> 목동5단지점,서울특별시 양천구 목동 908-34 부영그린타운3차 1동 116호,서울특별시 양천구 목동동로 411,301403,548870,"카페,디저트>카페",,02-758-8615,http://www.istarbucks.co.kr/
243,<b>스타벅스</b> 목동7단지점,서울특별시 양천구 목동 923 세신비젼프라자,서울특별시 양천구 목동서로 213,300367,547917,"카페,디저트>카페",,02-758-8842,http://www.istarbucks.co.kr/
244,<b>스타벅스</b> 목동8단지점,서울특별시 양천구 신정동 319-23 토피아빌딩,서울특별시 양천구 목동서로 299,300208,547087,"카페,디저트>카페",,02-2061-3381,http://www.istarbucks.co.kr/
245,<b>스타벅스</b> 목동파라곤점,서울특별시 양천구 목동 917 목동파라곤 1층,서울특별시 양천구 목동서로 155,300764,548074,"카페,디저트>카페",,02-758-8353,http://www.istarbucks.co.kr/
246,<b>스타벅스</b> 목동행복한점,서울특별시 양천구 목동 917-6 행복한세상,서울특별시 양천구 목동동로 309,300861,548037,"카페,디저트>카페",,02-2643-3652,http://www.istarbucks.co.kr/
247,<b>스타벅스</b> 목동오목로점,서울특별시 양천구 목동 406-4 현대프라자,서울특별시 양천구 오목로 279,300179,547687,"카페,디저트>카페",,02-2642-3326,http://www.istarbucks.co.kr/
248,<b>스타벅스</b> 목동파리공원점,서울특별시 양천구 목동 907-18,서울특별시 양천구 목동동로 377,301112,548721,"카페,디저트>카페",,02-2643-3818,http://www.istarbucks.co.kr/
249,<b>스타벅스</b> 발산역점,서울특별시 강서구 등촌동 678-14 그랜드마트,서울특별시 강서구 강서로 388,297649,551537,"카페,디저트>카페",,02-758-8720,http://www.istarbucks.co.kr/
250,<b>스타벅스</b> 마곡나루역점,"서울특별시 강서구 마곡동 759-3 보타닉파크타워Ⅰ105,203,204호",서울특별시 강서구 마곡중앙로 161-17,296499,552417,"카페,디저트>카페",,02-3662-3504,http://www.istarbucks.co.kr/
251,<b>스타벅스</b> 화곡동점,서울특별시 강서구 화곡동 1073-10,서울특별시 강서구 화곡로 142,297442,549340,"카페,디저트>카페",,02-758-8881,http://www.istarbucks.co.kr/
252,<b>스타벅스</b> 가양역점,서울특별시 강서구 등촌동 73-1 금부빌딩,서울특별시 강서구 양천로 476,298892,551668,"카페,디저트>카페",,02-3661-3418,http://www.istarbucks.co.kr/
253,<b>스타벅스</b> 마곡사이언스타워R점,서울특별시 강서구 마곡동 796-3 마곡사이언스타워,서울특별시 강서구 마곡동로 62,297180,551672,"카페,디저트>카페",,02-2659-3585,http://www.istarbucks.co.kr/
254,<b>스타벅스</b> 등촌점,서울특별시 강서구 등촌동 668-9,서울특별시 강서구 공항대로 329,298093,551296,"카페,디저트>카페",,02-758-8883,http://www.istarbucks.co.kr/
255,<b>스타벅스</b> 가양이마트점,서울특별시 강서구 가양3동 449-19 가양이마트1층,서울특별시 강서구 양천로 559,299680,551242,"카페,디저트>카페",,02-758-8070,http://www.istarbucks.co.kr/
256,<b>스타벅스</b> 방화DT점,서울특별시 강서구 방화동 293-4,서울특별시 강서구 방화대로 375,295649,553117,"카페,디저트>카페",,02-2664-3480,http://www.istarbucks.co.kr/
257,<b>스타벅스</b> 까치산역점,서울특별시 강서구 화곡동 343-1,서울특별시 강서구 강서로13길 3,298212,548419,"카페,디저트>카페",,02-758-8538,http://www.istarbucks.co.kr/
258,<b>스타벅스</b> 화곡DT점,서울특별시 강서구 화곡동 772-67,서울특별시 강서구 등촌로 57,299732,548717,"카페,디저트>카페",,02-2648-3257,http://www.istarbucks.co.kr/
259,<b>스타벅스</b> 양천향교역점,서울특별시 강서구 마곡동 776-6 (주)좋은책신사고마곡제2사옥,서울특별시 강서구 강서로 463,297787,552272,"카페,디저트>카페",,02-2658-3312,http://www.istarbucks.co.kr/
260,<b>스타벅스</b> 염창역점,서울특별시 강서구 염창동 282-23,서울특별시 강서구 공항대로 627,300738,550060,"카페,디저트>카페",,02-758-8694,http://www.istarbucks.co.kr/
261,<b>스타벅스</b> 마곡GMG점,서울특별시 강서구 마곡동 773-2 마곡지엠지타워,서울특별시 강서구 마곡중앙6로 16,296800,551565,"카페,디저트>카페",,02-2659-3404,http://www.istarbucks.co.kr/
262,<b>스타벅스</b> 우장산역점,서울특별시 강서구 내발산동 719-6 송화쇼핑센터,서울특별시 강서구 강서로 267,297343,550294,"카페,디저트>카페",,02-2664-2624,http://www.istarbucks.co.kr/
263,<b>스타벅스</b> 발산역사거리점,서울특별시 강서구 마곡동 801-2,서울특별시 강서구 공항대로 248,297272,551363,"카페,디저트>카페",,02-2661-3792,http://www.istarbucks.co.kr/
264,<b>스타벅스</b> 현대디큐브B2점,서울특별시 구로구 신도림동 360-50,,302018,545768,"카페,디저트>카페",,,http://www.istarbucks.co.kr/
265,<b>스타벅스</b> 구로호텔점,서울특별시 구로구 구로동 1128-1 구로호텔 1층,서울특별시 구로구 디지털로32길 72,302813,542906,"카페,디저트>카페",,02-758-8555,http://www.istarbucks.co.kr/
266,<b>스타벅스</b> 현대디큐브2F점,서울특별시 구로구 신도림동 360-50,,301994,545747,"카페,디저트>카페",,,http://www.istarbucks.co.kr/
267,<b>스타벅스</b> 오류동역점,서울특별시 구로구 오류동 55-50,서울특별시 구로구 경인로 216,298055,544416,"카페,디저트>카페",,02-758-8775,http://www.istarbucks.co.kr/
268,<b>스타벅스</b> 신도림점,서울특별시 구로구 신도림동 413-9 코리아빌딩,서울특별시 구로구 경인로 610,301524,545406,"카페,디저트>카페",,02-2635-3516,http://www.istarbucks.co.kr/
269,<b>스타벅스</b> 구로디지털로점,서울특별시 구로구 구로동 191-7 에이스테크노타워8차 1층,서울특별시 구로구 디지털로33길 11,302527,543218,"카페,디저트>카페",,02-758-8655,http://www.istarbucks.co.kr/
270,<b>스타벅스</b> 구로디지털타워점,서울특별시 구로구 구로동 222-7 코오롱디지털타워빌란트 101호,서울특별시 구로구 디지털로32길 30,302603,542942,"카페,디저트>카페",,02-2103-5088,http://www.istarbucks.co.kr/
271,<b>스타벅스</b> 구로에이스점,서울특별시 구로구 구로동 212-1 에이스트윈타워1 103호,서울특별시 구로구 디지털로 285,302429,543061,"카페,디저트>카페",,02-758-8161,http://www.istarbucks.co.kr/
272,<b>스타벅스</b> 신세계아이앤씨점,서울특별시 구로구 구로동 197-12 신세계아이엔씨 디지털센터 101호,서울특별시 구로구 디지털로31길 61,302176,543219,"카페,디저트>카페",,02-758-8092,http://www.istarbucks.co.kr/
273,<b>스타벅스</b> 구로하이엔드점,서울특별시 구로구 구로동 235-2 에이스하이엔드타워 103호,서울특별시 구로구 디지털로26길 5,302305,542744,"카페,디저트>카페",,02-758-8340,http://www.istarbucks.co.kr/
274,<b>스타벅스</b> 가산디지털점,서울특별시 금천구 가산동 371-28,서울특별시 금천구 가산디지털1로 168,301362,542557,"카페,디저트>카페",,02-758-8147,http://www.istarbucks.co.kr/
275,<b>스타벅스</b> 금천독산점,서울특별시 금천구 독산동 291-1,서울특별시 금천구 두산로 70,302475,541357,"카페,디저트>카페",,02-758-8765,http://www.istarbucks.co.kr/
276,<b>스타벅스</b> 금천시흥점,서울특별시 금천구 시흥동 904-22 더플레이스,서울특별시 금천구 시흥대로 164,303151,539072,"카페,디저트>카페",,02-805-3360,http://www.istarbucks.co.kr/
277,<b>스타벅스</b> 독산사거리점,서울특별시 금천구 독산동 159-23 영진빌딩,서울특별시 금천구 시흥대로 426,302790,541617,"카페,디저트>카페",,02-838-3444,http://www.istarbucks.co.kr/
278,<b>스타벅스</b> 가산에스케이점,서울특별시 금천구 가산동 371-41 가산 에스케이 브이원 센터,서울특별시 금천구 가산디지털1로 171,301192,542646,"카페,디저트>카페",,02-6244-8046,http://www.istarbucks.co.kr/
279,<b>스타벅스</b> W-Mall점,서울특별시 금천구 가산동 60-27 W-MALL내 지하1층,서울특별시 금천구 디지털로 188,301817,542271,"카페,디저트>카페",,02-758-8196,http://www.istarbucks.co.kr/
280,<b>스타벅스</b> 가산디지털단지역점,서울특별시 금천구 가산동 50-3 대륭포스트타워6차,서울특별시 금천구 벚꽃로 298,301477,542721,"카페,디저트>카페",,02-2083-8302,http://www.istarbucks.co.kr/
281,<b>스타벅스</b> 마리오아울렛점,서울특별시 금천구 가산동 60-20 ㈜마리오 3관1층,서울특별시 금천구 벚꽃로 266,301588,542429,"카페,디저트>카페",,02-758-8542,http://www.istarbucks.co.kr/
282,<b>스타벅스</b> 가산그레이트점,서울특별시 금천구 가산동 60-5 갑을그레이트벨리 1층,서울특별시 금천구 디지털로9길 32,301801,542509,"카페,디저트>카페",,02-758-8346,http://www.istarbucks.co.kr/
283,<b>스타벅스</b> 가산브이타워점,서울특별시 금천구 가산동 371-37 브이타워 1층,서울특별시 금천구 가산디지털1로 128 STX V-TOWER,301453,542238,"카페,디저트>카페",,02-758-8371,http://www.istarbucks.co.kr/
284,<b>스타벅스</b> 타임스퀘어점,서울특별시 영등포구 영등포동4가 442 타임스퀘어,서울특별시 영등포구 영중로 15,303257,546659,"카페,디저트>카페",,02-758-8303,http://www.istarbucks.co.kr/
285,<b>스타벅스</b> 영등포신길DT점,"서울특별시 영등포구 신길동 252-9 253-331, 253-333, 253-334, 253-335, 253-336",서울특별시 영등포구 신길로 137,303832,545274,"카페,디저트>카페",,02-758-8813,http://www.istarbucks.co.kr/
286,<b>스타벅스</b> 문래동점,서울특별시 영등포구 문래동3가 77-1 대창타운빌 1층,서울특별시 영등포구 선유로 64,302046,546963,"카페,디저트>카페",,02-758-8324,http://www.istarbucks.co.kr/
287,<b>스타벅스</b> 당산역점,"서울특별시 영등포구 당산동6가 304-1 대원빌딩 1,2층",서울특별시 영등포구 당산로 231,303146,548597,"카페,디저트>카페",,02-758-8270,http://www.istarbucks.co.kr/
288,<b>스타벅스</b> 영등포본동점,서울특별시 영등포구 영등포동3가 2-21 2-28 우성타워,서울특별시 영등포구 영등포로 254,303805,546844,"카페,디저트>카페",,02-758-8335,http://www.istarbucks.co.kr/
289,<b>스타벅스</b> 영등포역점,서울특별시 영등포구 영등포동1가 143-3 영등포 J&AMP;S,서울특별시 영등포구 경인로 870,303766,546650,"카페,디저트>카페",,02-2068-3692,http://www.istarbucks.co.kr/
290,<b>스타벅스</b> 문래역점,서울특별시 영등포구 문래동3가 55-5 1~2층,서울특별시 영등포구 당산로 34,302647,546715,"카페,디저트>카페",,02-758-8833,http://www.istarbucks.co.kr/
291,<b>스타벅스</b> 여의도점,서울특별시 영등포구 여의도동 23-9,서울특별시 영등포구 국제금융로2길 28,305134,547420,"카페,디저트>카페",,02-758-8007,http://www.istarbucks.co.kr/
292,<b>스타벅스</b> 여의도IFC(1F)점,서울특별시 영등포구 여의도동 23 및 23-1 국제금융센터 TWO IFC 1층,서울특별시 영등포구 국제금융로 10,305149,547557,"카페,디저트>카페",,02-6137-9955,http://www.istarbucks.co.kr/
293,<b>스타벅스</b> 신세계영등포B점,서울특별시 영등포구 영등포동4가 434-5 신세계백화점 B관 1층,서울특별시 영등포구 영중로 9,303454,546676,"카페,디저트>카페",,02-2639-4058,http://www.istarbucks.co.kr/
294,<b>스타벅스</b> 국회대로점,서울특별시 영등포구 여의도동 14 B&B타워,서울특별시 영등포구 국회대로 786,304703,548116,"카페,디저트>카페",,02-761-3466,http://www.istarbucks.co.kr/
295,<b>스타벅스</b> 여의도IFC몰(L1)R점,서울특별시 영등포구 여의도동 23 서울 국제금융 센터 지하1층 178호,서울특별시 영등포구 국제금융로 10,305223,547540,"카페,디저트>카페",,02-6137-5178,http://www.istarbucks.co.kr/
296,<b>스타벅스</b> 당산점,서울특별시 영등포구 당산동6가 338-1,서울특별시 영등포구 양평로 64,302976,548680,"카페,디저트>카페",,02-758-8713,http://www.istarbucks.co.kr/
297,<b>스타벅스</b> 여의도의사당점,서울특별시 영등포구 여의도동 13-19 남중빌딩 1층,서울특별시 영등포구 국회대로74길 12,304839,548088,"카페,디저트>카페",,02-758-8348,http://www.istarbucks.co.kr/
298,<b>스타벅스</b> 여의도역점,서울특별시 영등포구 여의도동 23-6 한국휴렛팩커드빌딩,서울특별시 영등포구 의사당대로 83,305038,547342,"카페,디저트>카페",,02-761-3236,http://www.istarbucks.co.kr/
299,<b>스타벅스</b> 영등포KT점,서울특별시 영등포구 영등포동8가 35-1,서울특별시 영등포구 영중로 119,303386,547746,"카페,디저트>카페",,02-2671-3369,http://www.istarbucks.co.kr/
300,<b>스타벅스</b> 롯데캐슬여의도점,서울특별시 영등포구 여의도동 36 롯데캐슬앰파이어 1층 104호,서울특별시 영등포구 의사당대로 127,305293,546998,"카페,디저트>카페",,02-758-8127,http://www.istarbucks.co.kr/
301,<b>스타벅스</b> 선유도역점,서울특별시 영등포구 양평동4가 98-5,서울특별시 영등포구 양평로 115,302506,548919,"카페,디저트>카페",,02-2634-3258,http://www.istarbucks.co.kr/
302,<b>스타벅스</b> 샛강역점,서울특별시 영등포구 여의도동 55-2,서울특별시 영등포구 여의대방로 376,305724,546782,"카페,디저트>카페",,,http://www.istarbucks.co.kr/
303,<b>스타벅스</b> 타임스퀘어B2점,서울특별시 영등포구 영등포동4가 442 타임스퀘어 단지 지하2층,서울특별시 영등포구 영중로 15,303257,546659,"카페,디저트>카페",,02-758-8415,http://www.istarbucks.co.kr/
304,<b>스타벅스</b> 여의도화재보험점,서울특별시 영등포구 여의도동 35-4 한국화재보험협회,서울특별시 영등포구 국제금융로6길 38,305262,547120,"카페,디저트>카페",,02-782-3565,http://www.istarbucks.co.kr/
305,<b>스타벅스</b> 선유동이레빌딩점,서울특별시 영등포구 양평동4가 2 이레빌딩,서울특별시 영등포구 선유동2로 57,302707,548566,"카페,디저트>카페",,02-2068-3224,http://www.istarbucks.co.kr/
306,<b>스타벅스</b> 신세계영등포B2점,서울특별시 영등포구 영등포동4가 434-5 신세계백화점 B관 지하2층,서울특별시 영등포구 영중로 9,303454,546676,"카페,디저트>카페",,02-2639-4072,http://www.istarbucks.co.kr/
307,<b>스타벅스</b> 국회의사당역점,서울특별시 영등포구 여의도동 17-3 삼환까뮤빌딩,서울특별시 영등포구 의사당대로 8,304464,547849,"카페,디저트>카페",,,http://www.istarbucks.co.kr/
308,<b>스타벅스</b> 여의도ABL타워점,서울특별시 영등포구 여의도동 45-21 알리안츠타워,서울특별시 영등포구 의사당대로 147,305417,546830,"카페,디저트>카페",,02-758-8834,http://www.istarbucks.co.kr/
309,<b>스타벅스</b> 하이테크시티점,서울특별시 영등포구 문래동3가 55-20 에이스하이테크시티,서울특별시 영등포구 경인로 775,302835,546407,"카페,디저트>카페",,02-758-8210,http://www.istarbucks.co.kr/
310,<b>스타벅스</b> 여의도공원R점,서울특별시 영등포구 여의도동 12 C.C.M.M빌딩,서울특별시 영등포구 여의공원로 101,305172,547996,"카페,디저트>카페",,02-3775-3359,http://www.istarbucks.co.kr/
311,<b>스타벅스</b> 동여의도점,서울특별시 영등포구 여의도동 43-4 롯데캐슬 아이비(롯데캐슬IVY),서울특별시 영등포구 국제금융로 86,305772,546959,"카페,디저트>카페",,02-758-8875,http://www.istarbucks.co.kr/
312,<b>스타벅스</b> 당산대로점,서울특별시 영등포구 당산동6가 217-2,서울특별시 영등포구 양평로 22,303315,548449,"카페,디저트>카페",,02-2631-3397,http://www.istarbucks.co.kr/
313,<b>스타벅스</b> 서여의도점,서울특별시 영등포구 여의도동 14-8 극동 VIP 빌딩 1층,서울특별시 영등포구 국회대로70길 15-1,304766,548040,"카페,디저트>카페",,02-758-8008,http://www.istarbucks.co.kr/
314,<b>스타벅스</b> 여의도KBS R점,서울특별시 영등포구 여의도동 17-9,서울특별시 영등포구 의사당대로 26,304601,547710,"카페,디저트>카페",,02-782-3470,http://www.istarbucks.co.kr/
315,<b>스타벅스</b> 여의도일신점,서울특별시 영등포구 여의도동 15-15 1층 1,서울특별시 영등포구 은행로 11,304749,547864,"카페,디저트>카페",,02-758-8695,http://www.istarbucks.co.kr/
316,<b>스타벅스</b> 여의도미래에셋대우점,서울특별시 영등포구 여의도동 34-3 대우증권빌딩1층,서울특별시 영등포구 국제금융로 56,305585,547218,"카페,디저트>카페",,02-758-8052,http://www.istarbucks.co.kr/
317,<b>스타벅스</b> 여의도호성점,서울특별시 영등포구 여의도동 44-22 호성빌딩1층,서울특별시 영등포구 여의대방로65길 24,305563,546986,"카페,디저트>카페",,02-758-8379,http://www.istarbucks.co.kr/
318,<b>스타벅스</b> 여의도한양증권점,서울특별시 영등포구 여의도동 34-11 한양증권,서울특별시 영등포구 국제금융로6길 7,305536,547236,"카페,디저트>카페",,02-758-8711,http://www.istarbucks.co.kr/
319,<b>스타벅스</b> 사당역점,서울특별시 동작구 사당동 1031-27 양지빌딩 1-3층,서울특별시 동작구 동작대로 21,310103,542309,"카페,디저트>카페",,02-758-8311,http://www.istarbucks.co.kr/
320,<b>스타벅스</b> 숭실대점,서울특별시 동작구 상도동 501-9,서울특별시 동작구 사당로 4,307783,544209,"카페,디저트>카페",,02-758-8153,http://www.istarbucks.co.kr/
321,<b>스타벅스</b> 보라매공원R점,"서울특별시 동작구 신대방동 395-65 파크스퀘어,보라매현대APT",서울특별시 동작구 보라매로5길 35,304990,543895,"카페,디저트>카페",,02-832-3693,http://www.istarbucks.co.kr/
322,<b>스타벅스</b> 노량진역점,서울특별시 동작구 노량진동 62-8 이도타워,서울특별시 동작구 노량진로 134,306567,546222,"카페,디저트>카페",,02-816-3581,http://www.istarbucks.co.kr/
323,<b>스타벅스</b> 숭실대입구역점,서울특별시 동작구 상도동 475-5,서울특별시 동작구 상도로 354,307593,544373,"카페,디저트>카페",,02-815-3205,http://www.istarbucks.co.kr/
324,<b>스타벅스</b> 신대방삼거리역점,서울특별시 동작구 상도동 324-1,서울특별시 동작구 상도로 102,305744,544735,"카페,디저트>카페",,02-813-3501,http://www.istarbucks.co.kr/
325,<b>스타벅스</b> 중앙대점,서울특별시 동작구 흑석동 205-5,서울특별시 동작구 흑석로 75-1,308084,545488,"카페,디저트>카페",,02-812-3250,http://www.istarbucks.co.kr/
326,<b>스타벅스</b> 이수자이점,서울특별시 동작구 사당동 147-29 이수자이,서울특별시 동작구 사당로 300,309995,542968,"카페,디저트>카페",,02-588-3657,http://www.istarbucks.co.kr/
327,<b>스타벅스</b> 남성역점,서울특별시 동작구 사당동 252-15 국민은행남성지점,서울특별시 동작구 사당로 219,309333,542942,"카페,디저트>카페",,02-533-3783,http://www.istarbucks.co.kr/
328,<b>스타벅스</b> 서울대입구역점,서울특별시 관악구 봉천동 869-1,서울특별시 관악구 남부순환로 1812,307451,542637,"카페,디저트>카페",,02-758-8460,http://www.istarbucks.co.kr/
329,<b>스타벅스</b> 사당점,서울특별시 관악구 남현동 1060-10,서울특별시 관악구 남부순환로 2082-25,310069,542034,"카페,디저트>카페",,02-758-8721,http://www.istarbucks.co.kr/
330,<b>스타벅스</b> 관악서울대입구R점,서울특별시 관악구 봉천동 856-6 BS타워,서울특별시 관악구 관악로 158,307577,542431,"카페,디저트>카페",,02-883-3725,http://www.istarbucks.co.kr/
331,<b>스타벅스</b> 신림점,서울특별시 관악구 신림동 1432-71,서울특별시 관악구 신림로 355-1,305496,543204,"카페,디저트>카페",,02-758-8290,http://www.istarbucks.co.kr/
332,<b>스타벅스</b> 낙성대DT점,서울특별시 관악구 봉천동 1657-3,서울특별시 관악구 남부순환로 1948,308654,542067,"카페,디저트>카페",,02-872-3249,http://www.istarbucks.co.kr/
333,<b>스타벅스</b> 신림사거리점,"서울특별시 관악구 신림동 1422-1 35,36,37호",서울특별시 관악구 남부순환로185길 9,305610,543056,"카페,디저트>카페",,02-758-8645,http://www.istarbucks.co.kr/
334,<b>스타벅스</b> 신림역포도몰점,서울특별시 관악구 신림동 1641-2 PODO MALL 1층 101 일부,서울특별시 관악구 신림로 330,305584,542955,"카페,디저트>카페",,02-758-8286,http://www.istarbucks.co.kr/
335,<b>스타벅스</b> 서울대역점,서울특별시 관악구 봉천동 861-6,서울특별시 관악구 남부순환로 1817,307528,542682,"카페,디저트>카페",,02-876-3252,http://www.istarbucks.co.kr/
336,<b>스타벅스</b> 보라매대교점,서울특별시 관악구 보라매동 729-21,서울특별시 관악구 보라매로3길 23,305174,543802,"카페,디저트>카페",,02-758-8629,http://www.istarbucks.co.kr/
337,<b>스타벅스</b> 낙성대역점,서울특별시 관악구 봉천동 1660-1,서울특별시 관악구 남부순환로 1908,308324,542272,"카페,디저트>카페",,02-882-3794,http://www.istarbucks.co.kr/
338,<b>스타벅스</b> 신림DT점,서울특별시 관악구 신림동 564-12,서울특별시 관악구 남부순환로 1419,303654,542653,"카페,디저트>카페",,02-851-3283,http://www.istarbucks.co.kr/
339,<b>스타벅스</b> 파미에파크R점,서울특별시 서초구 반포동 118-3 센트럴시티 파미에파크돔 BP4-9호,서울특별시 서초구 사평대로 205,312167,545013,"카페,디저트>카페",,02-758-8790,http://www.istarbucks.co.kr/
340,<b>스타벅스</b> 강남2점,"서울특별시 서초구 서초동 1307-19 유빌딩 1,2층",서울특별시 서초구 서초대로77길 27,314032,544665,"카페,디저트>카페",,02-758-8081,http://www.istarbucks.co.kr/
341,<b>스타벅스</b> 센트럴시티점,서울특별시 서초구 반포동 19-3,서울특별시 서초구 신반포로 176,312178,545197,"카페,디저트>카페",,02-758-8656,http://www.istarbucks.co.kr/
342,<b>스타벅스</b> 서울고속터미널점,서울특별시 서초구 반포동 19-4 강남고속버스터미널,서울특별시 서초구 신반포로 194,312282,545162,"카페,디저트>카페",,02-592-3432,http://www.istarbucks.co.kr/
343,<b>스타벅스</b> 강남GT타워점,서울특별시 서초구 서초동 1317-23 GT타워,서울특별시 서초구 서초대로 411,314060,544439,"카페,디저트>카페",,02-758-8477,http://www.istarbucks.co.kr/
344,<b>스타벅스</b> 교대역점,서울특별시 서초구 서초동 1693-3 우림빌딩,서울특별시 서초구 서초중앙로 138,313004,544023,"카페,디저트>카페",,02-758-8757,http://www.istarbucks.co.kr/
345,<b>스타벅스</b> 강남삼성타운점,서울특별시 서초구 서초동 1327-5 외 1필지,서울특별시 서초구 서초대로78길 24,314223,544167,"카페,디저트>카페",,02-758-8213,http://www.istarbucks.co.kr/
346,<b>스타벅스</b> 남부터미널점,서울특별시 서초구 서초동 1445-4 래미안 서초유니빌 1층 101호,서울특별시 서초구 서초중앙로 26,313258,542962,"카페,디저트>카페",,02-758-8085,http://www.istarbucks.co.kr/
347,<b>스타벅스</b> 교대점,서울특별시 서초구 서초1동 1657-5,서울특별시 서초구 서초중앙로 118,313026,543818,"카페,디저트>카페",,02-758-8073,http://www.istarbucks.co.kr/
348,<b>스타벅스</b> 양재역점,서울특별시 서초구 양재동 14-4 모산빌딩,서울특별시 서초구 강남대로 202,315008,542652,"카페,디저트>카페",,02-758-8816,http://www.istarbucks.co.kr/
349,<b>스타벅스</b> 강남교보타워R점,서울특별시 서초구 서초동 1303-22 교보타워,서울특별시 서초구 강남대로 465,313911,545077,"카페,디저트>카페",,02-534-3604,http://www.istarbucks.co.kr/
350,<b>스타벅스</b> 이수역점,서울특별시 서초구 방배동 3000-1,서울특별시 서초구 동작대로 112,310235,543193,"카페,디저트>카페",,02-758-8794,http://www.istarbucks.co.kr/
351,<b>스타벅스</b> 서래마을입구점,서울특별시 서초구 반포4동 92-1,서울특별시 서초구 서래로 48,311643,544597,"카페,디저트>카페",,02-3482-8257,http://www.istarbucks.co.kr/
352,<b>스타벅스</b> 신논현역점,서울특별시 서초구 반포동 748-1,서울특별시 서초구 강남대로 483,313874,545244,"카페,디저트>카페",,02-758-8756,http://www.istarbucks.co.kr/
353,<b>스타벅스</b> 몬테소리점,서울특별시 서초구 서초동 1318-8,서울특별시 서초구 강남대로 399,314151,544462,"카페,디저트>카페",,02-758-8225,http://www.istarbucks.co.kr/
354,<b>스타벅스</b> 센트럴F1점,서울특별시 서초구 반포동 19-3 센트럴시티빌딩,서울특별시 서초구 신반포로 176,312172,545246,"카페,디저트>카페",,02-537-3598,http://www.istarbucks.co.kr/
355,<b>스타벅스</b> 방배역점,서울특별시 서초구 방배동 908-10,서울특별시 서초구 방배로 84,311548,542684,"카페,디저트>카페",,02-758-8086,http://www.istarbucks.co.kr/
356,<b>스타벅스</b> 내방역점,서울특별시 서초구 방배동 851-1 대풍빌딩,서울특별시 서초구 방배로 184,311099,543576,"카페,디저트>카페",,02-758-8740,http://www.istarbucks.co.kr/
357,<b>스타벅스</b> 논현역점,서울특별시 서초구 잠원동 37-7 1~2층,서울특별시 서초구 강남대로 557,313611,545902,"카페,디저트>카페",,02-758-8819,http://www.istarbucks.co.kr/
358,<b>스타벅스</b> 서초우성사거리점,서울특별시 서초구 서초동 1329-7 신덕빌딩,서울특별시 서초구 강남대로 343,314373,543935,"카페,디저트>카페",,02-3486-3536,http://www.istarbucks.co.kr/
359,<b>스타벅스</b> 반포역점,서울특별시 서초구 잠원동 58-24 신반포11차상가,서울특별시 서초구 나루터로4길 61,312845,545621,"카페,디저트>카페",,02-758-8141,http://www.istarbucks.co.kr/
360,<b>스타벅스</b> 서초역점,서울특별시 서초구 서초동 1542-14,서울특별시 서초구 반포대로 118,312528,543636,"카페,디저트>카페",,02-758-8289,http://www.istarbucks.co.kr/
361,<b>스타벅스</b> 사당로데오점,서울특별시 서초구 방배동 444-7,서울특별시 서초구 방배천로 5-4,310173,542173,"카페,디저트>카페",,02-758-8953,http://www.istarbucks.co.kr/
362,<b>스타벅스</b> 이수역사거리점,서울특별시 서초구 방배동 3001-2 방배디오슈페리움1,서울특별시 서초구 서초대로 3-4,310260,543124,"카페,디저트>카페",,02-3476-3472,http://www.istarbucks.co.kr/
363,<b>스타벅스</b> 하이브랜드점,서울특별시 서초구 양재2동 215 번지 리빙관 101호,서울특별시 서초구 매헌로 16,314994,540572,"카페,디저트>카페",,02-2155-4117,http://www.istarbucks.co.kr/
364,<b>스타벅스</b> 방배카페거리점,서울특별시 서초구 방배동 777-11,서울특별시 서초구 방배중앙로 162,310579,543967,"카페,디저트>카페",,02-536-3206,http://www.istarbucks.co.kr/
365,<b>스타벅스</b> 남부터미널2점,서울특별시 서초구 서초동 1457-1,서울특별시 서초구 효령로 274,313017,542930,"카페,디저트>카페",,02-758-8229,http://www.istarbucks.co.kr/
366,<b>스타벅스</b> 방배점,서울특별시 서초구 방배동 812-2,서울특별시 서초구 방배로 211,310928,543790,"카페,디저트>카페",,02-536-3204,http://www.istarbucks.co.kr/
367,<b>스타벅스</b> 서울교대점,서울특별시 서초구 서초동 1623-1 1층,서울특별시 서초구 서초중앙로 64,313101,543266,"카페,디저트>카페",,02-758-8332,http://www.istarbucks.co.kr/
368,<b>스타벅스</b> 뉴코아강남점,서울특별시 서초구 잠원동 70-1 킴스클럽,서울특별시 서초구 잠원로 69,312405,545817,"카페,디저트>카페",,02-758-8032,http://www.istarbucks.co.kr/
369,<b>스타벅스</b> 강남대로논현R점,서울특별시 서초구 반포동 736-2 대유빌딩,서울특별시 서초구 강남대로85길 5,313782,545480,"카페,디저트>카페",,02-515-3419,http://www.istarbucks.co.kr/
370,<b>스타벅스</b> 예술의전당점,서울특별시 서초구 서초동 1451-95 1층,서울특별시 서초구 남부순환로323길 1,312947,542574,"카페,디저트>카페",,02-758-8313,http://www.istarbucks.co.kr/
371,<b>스타벅스</b> 강남에비뉴점,서울특별시 서초구 서초동 1303-16 강남역아이파크 B102~B105,서울특별시 서초구 서초대로77길 62,313894,544956,"카페,디저트>카페",,02-758-8587,http://www.istarbucks.co.kr/
372,<b>스타벅스</b> 청계산입구역점,서울특별시 서초구 신원동 205-1,서울특별시 서초구 청계산로 203,316693,538781,"카페,디저트>카페",,02-577-3253,http://www.istarbucks.co.kr/
373,<b>스타벅스</b> 서울아트센터점,서울특별시 서초구 서초동 1464-22 호경빌딩,서울특별시 서초구 남부순환로 2395,312849,542544,"카페,디저트>카페",,02-758-8738,http://www.istarbucks.co.kr/
374,<b>스타벅스</b> 강남대로신사점,서울특별시 서초구 잠원동 21-7 경승빌딩,서울특별시 서초구 강남대로97길 4,313516,546313,"카페,디저트>카페",,02-516-3402,http://www.istarbucks.co.kr/
375,<b>스타벅스</b> 교대법원점,서울특별시 서초구 서초동 1699-3 번지,서울특별시 서초구 서초중앙로 164,312953,544259,"카페,디저트>카페",,02-758-8400,http://www.istarbucks.co.kr/
376,<b>스타벅스</b> 서초파라곤점,서울특별시 서초구 서초동 1327-29 서초파라곤,서울특별시 서초구 서초대로74길 29,314197,544092,"카페,디저트>카페",,02-758-8716,http://www.istarbucks.co.kr/
377,<b>스타벅스</b> 서초법원점,서울특별시 서초구 서초동 1572-4,서울특별시 서초구 서초대로 274,312820,543887,"카페,디저트>카페",,02-523-3294,http://www.istarbucks.co.kr/
378,<b>스타벅스</b> 방배다이치빌딩점,서울특별시 서초구 방배동 907-1 다이치빌딩,서울특별시 서초구 방배로 114,311394,542943,"카페,디저트>카페",,02-3473-3576,http://www.istarbucks.co.kr/
379,<b>스타벅스</b> 서초중앙로점,서울특별시 서초구 반포동 52-6 남도빌딩,서울특별시 서초구 서초중앙로 225,312798,544855,"카페,디저트>카페",,02-758-8715,http://www.istarbucks.co.kr/
380,<b>스타벅스</b> 서초구청점,서울특별시 서초구 서초동 1365-23,서울특별시 서초구 남부순환로 2557,314421,542898,"카페,디저트>카페",,02-3471-3545,http://www.istarbucks.co.kr/
381,<b>스타벅스</b> 영동2교점,서울특별시 서초구 양재동 4-3 대흥빌딩,서울특별시 서초구 논현로 139,315522,542646,"카페,디저트>카페",,02-758-8291,http://www.istarbucks.co.kr/
382,<b>스타벅스</b> 서초동점,서울특별시 서초구 서초동 1439-14 현우빌딩1층,서울특별시 서초구 남부순환로339길 64,313665,543098,"카페,디저트>카페",,02-758-8459,http://www.istarbucks.co.kr/
383,<b>스타벅스</b> 서초역이화빌딩점,서울특별시 서초구 서초동 1538-10 IWHA (이화빌딩),서울특별시 서초구 반포대로21길 3,312571,543331,"카페,디저트>카페",,02-522-3533,http://www.istarbucks.co.kr/
384,<b>스타벅스</b> 강남R점,서울특별시 강남구 역삼동 825 미진프라자 1층 101호,서울특별시 강남구 강남대로 390,314290,544398,"카페,디저트>카페",,02-561-3478,http://www.istarbucks.co.kr/
385,<b>스타벅스</b> 스타필드코엑스몰R점,서울특별시 강남구 삼성동 159 코엑스,서울특별시 강남구 봉은사로 524,317223,545731,"카페,디저트>카페",,02-6002-3467,http://www.istarbucks.co.kr/
386,<b>스타벅스</b> 청담스타R점,서울특별시 강남구 청담동 89-4,서울특별시 강남구 도산대로57길 24,315505,547439,"카페,디저트>카페",,02-514-3364,http://www.istarbucks.co.kr/
387,<b>스타벅스</b> 압구정역점,서울특별시 강남구 신사동 580-2 관영빌딩 1층 지하1층,서울특별시 강남구 압구정로 170,314294,547620,"카페,디저트>카페",,02-758-8013,http://www.istarbucks.co.kr/
388,<b>스타벅스</b> 강남구청역점,서울특별시 강남구 논현동 241-7 웰빙센터 1층,서울특별시 강남구 선릉로 669,315443,546481,"카페,디저트>카페",,02-758-8119,http://www.istarbucks.co.kr/
389,<b>스타벅스</b> 압구정로데오역점,"서울특별시 강남구 청담동 84-3 삼원빌딩 1,2층",서울특별시 강남구 선릉로 836,315383,547588,"카페,디저트>카페",,02-758-8345,http://www.istarbucks.co.kr/
390,<b>스타벅스</b> 코엑스몰점,서울특별시 강남구 삼성1동 159 코엑스(무역센터코엑스(COEX)),서울특별시 강남구 봉은사로 524,317010,545948,"카페,디저트>카페",,02-758-8733,http://www.istarbucks.co.kr/
391,<b>스타벅스</b> 삼성도심공항점,서울특별시 강남구 삼성동 154-10,서울특별시 강남구 테헤란로87길 33,316909,545712,"카페,디저트>카페",,02-758-8635,http://www.istarbucks.co.kr/
392,<b>스타벅스</b> 수서점,서울특별시 강남구 수서동 713 수서현대벤쳐빌 지하2층,서울특별시 강남구 밤고개로1길 10,320762,543257,"카페,디저트>카페",,02-758-8165,http://www.istarbucks.co.kr/
393,<b>스타벅스</b> 가로수길점,서울특별시 강남구 신사동 529-10 1~2층,서울특별시 강남구 논현로175길 94,313717,547229,"카페,디저트>카페",,02-758-8661,http://www.istarbucks.co.kr/
394,<b>스타벅스</b> 청담사거리점,서울특별시 강남구 청담동 6-5 리츠타워,서울특별시 강남구 도산대로 458,315948,547259,"카페,디저트>카페",,02-758-8726,http://www.istarbucks.co.kr/
395,<b>스타벅스</b> 선릉세화빌딩점,서울특별시 강남구 대치4동 889-70 세화빌딩 1층,서울특별시 강남구 테헤란로64길 18,316309,545051,"카페,디저트>카페",,02-758-8028,http://www.istarbucks.co.kr/
396,<b>스타벅스</b> 신사역점,서울특별시 강남구 논현동 1-3 렉스타워,서울특별시 강남구 도산대로 108,313631,546457,"카페,디저트>카페",,02-758-8848,http://www.istarbucks.co.kr/
397,<b>스타벅스</b> 강남대로점,서울특별시 강남구 역삼동 809-10 한석타워 2층 1-2호,서울특별시 강남구 강남대로 456,314040,545003,"카페,디저트>카페",,02-758-8624,http://www.istarbucks.co.kr/
398,<b>스타벅스</b> 수서역R점,서울특별시 강남구 수서동 715 수서빌딩,서울특별시 강남구 광평로 281,320842,543256,"카페,디저트>카페",,02-6181-3688,http://www.istarbucks.co.kr/
399,<b>스타벅스</b> 학동사거리점,서울특별시 강남구 논현2동 93-2 HS빌딩,서울특별시 강남구 도산대로 328,315159,547126,"카페,디저트>카페",,02-758-8971,http://www.istarbucks.co.kr/
400,<b>스타벅스</b> 선릉역점,서울특별시 강남구 역삼동 708-6 LG화재 빌딩,서울특별시 강남구 테헤란로 334,316072,545071,"카페,디저트>카페",,02-758-8108,http://www.istarbucks.co.kr/
401,<b>스타벅스</b> 뱅뱅사거리점,서울특별시 강남구 도곡동 946-14,서울특별시 강남구 강남대로 282,314631,543382,"카페,디저트>카페",,02-758-8325,http://www.istarbucks.co.kr/
402,<b>스타벅스</b> 양재강남빌딩R점,서울특별시 강남구 도곡동 956 LG전자 강남R&D센터,서울특별시 강남구 남부순환로 2621,315005,543001,"카페,디저트>카페",,02-571-3604,http://www.istarbucks.co.kr/
403,<b>스타벅스</b> 한티역점,서울특별시 강남구 대치동 1024 디마크빌딩 101호,서울특별시 강남구 도곡로 408,316642,544273,"카페,디저트>카페",,02-758-8683,http://www.istarbucks.co.kr/
404,<b>스타벅스</b> 역삼역점,서울특별시 강남구 역삼동 646-15 우신빌딩 1층,서울특별시 강남구 테헤란로 145,314887,544735,"카페,디저트>카페",,02-758-8314,http://www.istarbucks.co.kr/
405,<b>스타벅스</b> 강남오거리점,"서울특별시 강남구 역삼동 813-17 1,2,3층",서울특별시 강남구 봉은사로2길 39,314139,544889,"카페,디저트>카페",,02-557-3484,http://www.istarbucks.co.kr/
406,<b>스타벅스</b> 학동역점,서울특별시 강남구 논현동 87,서울특별시 강남구 논현로 704,314512,546276,"카페,디저트>카페",,02-758-8101,http://www.istarbucks.co.kr/
407,<b>스타벅스</b> 선정릉역점,서울특별시 강남구 삼성2동 37-17 에프오빌딩,서울특별시 강남구 봉은사로 407,315730,545831,"카페,디저트>카페",,02-758-8970,http://www.istarbucks.co.kr/
408,<b>스타벅스</b> 역삼초교사거리점,서울특별시 강남구 역삼동 830-71,서울특별시 강남구 역삼로 123,314689,543994,"카페,디저트>카페",,02-758-8739,http://www.istarbucks.co.kr/
409,<b>스타벅스</b> 강남비젼타워점,서울특별시 강남구 역삼동 826-26 1층 101호,서울특별시 강남구 테헤란로2길 27,314399,544258,"카페,디저트>카페",,02-758-8492,http://www.istarbucks.co.kr/
410,<b>스타벅스</b> 대치점,서울특별시 강남구 대치2동 988-17,서울특별시 강남구 도곡로 511,317279,544584,"카페,디저트>카페",,02-758-8063,http://www.istarbucks.co.kr/
411,<b>스타벅스</b> 도산가로수길점,서울특별시 강남구 논현동 5 2층,서울특별시 강남구 도산대로 134,313858,546584,"카페,디저트>카페",,02-758-8429,http://www.istarbucks.co.kr/
412,<b>스타벅스</b> 서울세관사거리점,서울특별시 강남구 논현동 238-5 한국건설기술인협회,서울특별시 강남구 언주로 650,314947,546298,"카페,디저트>카페",,02-758-8798,http://www.istarbucks.co.kr/
413,<b>스타벅스</b> 도곡역점,서울특별시 강남구 대치동 651,서울특별시 강남구 남부순환로 2909,316844,543757,"카페,디저트>카페",,02-758-8809,http://www.istarbucks.co.kr/
414,<b>스타벅스</b> 신사가로수점,서울특별시 강남구 신사동 533-11,서울특별시 강남구 압구정로12길 32,313793,547083,"카페,디저트>카페",,02-3446-3356,http://www.istarbucks.co.kr/
415,<b>스타벅스</b> 압구정로점,서울특별시 강남구 신사동 635-13,서울특별시 강남구 압구정로42길 32,314878,547621,"카페,디저트>카페",,02-758-8231,http://www.istarbucks.co.kr/
416,<b>스타벅스</b> GS타워점,서울특별시 강남구 역삼동 679,서울특별시 강남구 논현로 508-2,315076,544851,"카페,디저트>카페",,02-758-8129,http://www.istarbucks.co.kr/
417,<b>스타벅스</b> 청담공원점,서울특별시 강남구 삼성동 53,서울특별시 강남구 학동로 506,316347,546702,"카페,디저트>카페",,02-758-8394,http://www.istarbucks.co.kr/
418,<b>스타벅스</b> 르네상스사거리점,서울특별시 강남구 역삼동 706-1,서울특별시 강남구 테헤란로 306,315699,544940,"카페,디저트>카페",,02-758-8321,http://www.istarbucks.co.kr/
419,<b>스타벅스</b> 압구정미소점,서울특별시 강남구 신사동 583-3,서울특별시 강남구 논현로 841,314274,547322,"카페,디저트>카페",,02-758-8109,http://www.istarbucks.co.kr/
420,<b>스타벅스</b> 청담영동대로점,서울특별시 강남구 청담동 132-1 삼청빌딩,서울특별시 강남구 영동대로 720,316794,547086,"카페,디저트>카페",,02-3443-3371,http://www.istarbucks.co.kr/
421,<b>스타벅스</b> 압구정점,서울특별시 강남구 신사동 609 이소니프라자,서울특별시 강남구 압구정로30길 17,314422,547568,"카페,디저트>카페",,02-541-3306,http://www.istarbucks.co.kr/
422,<b>스타벅스</b> 포이점,서울특별시 강남구 개포4동 1229-1,서울특별시 강남구 논현로 88,315744,542175,"카페,디저트>카페",,02-758-8122,http://www.istarbucks.co.kr/
423,<b>스타벅스</b> 차병원사거리점,서울특별시 강남구 논현동 235-11 센트럴타워,서울특별시 강남구 봉은사로 213,314915,545537,"카페,디저트>카페",,02-758-8444,http://www.istarbucks.co.kr/
424,<b>스타벅스</b> 신압구정점,서울특별시 강남구 신사동 639-7,서울특별시 강남구 언주로174길 29,315032,547765,"카페,디저트>카페",,02-758-8398,http://www.istarbucks.co.kr/
425,<b>스타벅스</b> 삼성역섬유센터R점,서울특별시 강남구 대치동 944-31 한국섬유산업연합회,서울특별시 강남구 테헤란로 518,317149,545483,"카페,디저트>카페",,02-568-3648,http://www.istarbucks.co.kr/
426,<b>스타벅스</b> 논현역사거리점,서울특별시 강남구 논현동 142-2 정일빌딩,서울특별시 강남구 강남대로 538,313755,545788,"카페,디저트>카페",,02-3442-3672,http://www.istarbucks.co.kr/
427,<b>스타벅스</b> 대치역점,서울특별시 강남구 대치동 507 원플러스상가107호,서울특별시 강남구 남부순환로 2936,317242,543907,"카페,디저트>카페",,02-758-8120,http://www.istarbucks.co.kr/
428,<b>스타벅스</b> 을지병원사거리점,서울특별시 강남구 논현동 59-8 구산빌딩,서울특별시 강남구 논현로 752,314333,546779,"카페,디저트>카페",,02-758-8896,http://www.istarbucks.co.kr/
429,<b>스타벅스</b> 학여울역점,서울특별시 강남구 대치동 994-10,서울특별시 강남구 영동대로 215,317832,544399,"카페,디저트>카페",,02-758-8151,http://www.istarbucks.co.kr/
430,<b>스타벅스</b> 선릉동신빌딩R점,서울특별시 강남구 삼성동 141-28 동신빌딩,서울특별시 강남구 테헤란로 409,316241,545223,"카페,디저트>카페",,02-2051-3562,http://www.istarbucks.co.kr/
431,<b>스타벅스</b> 선릉로점,서울특별시 강남구 역삼동 697-45 대흥빌딩 1층,서울특별시 강남구 선릉로93길 22,315902,545197,"카페,디저트>카페",,02-758-8552,http://www.istarbucks.co.kr/
432,<b>스타벅스</b> 삼성교점,서울특별시 강남구 대치동 1001-8 동남유화빌딩,서울특별시 강남구 영동대로86길 12,317549,545484,"카페,디저트>카페",,02-758-8592,http://www.istarbucks.co.kr/
433,<b>스타벅스</b> 압구정R점,서울특별시 강남구 신사동 621-1,서울특별시 강남구 언주로 861,314732,547685,"카페,디저트>카페",,02-541-3622,http://www.istarbucks.co.kr/
434,<b>스타벅스</b> 청담점,서울특별시 강남구 청담동 52-1 인희빌딩 1층,서울특별시 강남구 도산대로 532,316364,547335,"카페,디저트>카페",,02-758-8659,http://www.istarbucks.co.kr/
435,<b>스타벅스</b> 아크플레이스점,서울특별시 강남구 역삼동 736-1,서울특별시 강남구 테헤란로 142,314864,544615,"카페,디저트>카페",,02-758-8158,http://www.istarbucks.co.kr/
436,<b>스타벅스</b> 아크로힐스논현점,서울특별시 강남구 역삼동 681 금강빌딩 1-2층,서울특별시 강남구 봉은사로 304,315359,545638,"카페,디저트>카페",,02-758-8317,http://www.istarbucks.co.kr/
437,<b>스타벅스</b> 삼성역점,서울특별시 강남구 삼성동 168-26,서울특별시 강남구 테헤란로103길 9,317436,545732,"카페,디저트>카페",,02-758-8585,http://www.istarbucks.co.kr/
438,<b>스타벅스</b> 구역삼사거리점,서울특별시 강남구 역삼동 747-21,서울특별시 강남구 논현로 401,315210,544190,"카페,디저트>카페",,02-758-8247,http://www.istarbucks.co.kr/
439,<b>스타벅스</b> 강남구청정문점,서울특별시 강남구 청담동 44-12 대륭빌딩,서울특별시 강남구 학동로 419,315865,546654,"카페,디저트>카페",,02-514-3397,http://www.istarbucks.co.kr/
440,<b>스타벅스</b> 코엑스사거리점,서울특별시 강남구 삼성동 91-31,서울특별시 강남구 영동대로 616,317110,546327,"카페,디저트>카페",,02-758-8478,http://www.istarbucks.co.kr/
441,<b>스타벅스</b> 역삼럭키점,서울특별시 강남구 역삼동 798-30,서울특별시 강남구 도곡로 183,315252,543778,"카페,디저트>카페",,02-758-8463,http://www.istarbucks.co.kr/
442,<b>스타벅스</b> 포스코사거리점,서울특별시 강남구 삼성동 157-36 화진빌딩,서울특별시 강남구 테헤란로 505,316864,545462,"카페,디저트>카페",,02-554-3235,http://www.istarbucks.co.kr/
443,<b>스타벅스</b> 대치은마사거리점,서울특별시 강남구 대치동 941-19 진흥빌딩,서울특별시 강남구 도곡로 457,317097,544510,"카페,디저트>카페",,02-554-3315,http://www.istarbucks.co.kr/
444,<b>스타벅스</b> 삼성현대힐점,서울특별시 강남구 삼성동 51,서울특별시 강남구 삼성로 605,316454,546133,"카페,디저트>카페",,02-758-8278,http://www.istarbucks.co.kr/
445,<b>스타벅스</b> 대치대원빌딩R점,서울특별시 강남구 대치동 599 대원빌딩,서울특별시 강남구 남부순환로 2947,317306,544030,"카페,디저트>카페",,02-568-3704,http://www.istarbucks.co.kr/
446,<b>스타벅스</b> 봉은사로선정릉점,서울특별시 강남구 삼성동 114-9 올림푸스타워,서울특별시 강남구 봉은사로 446,316071,545888,"카페,디저트>카페",,02-539-3564,http://www.istarbucks.co.kr/
447,<b>스타벅스</b> 포스코점,서울특별시 강남구 대치동 942-5 1층,서울특별시 강남구 삼성로86길 7,316910,545265,"카페,디저트>카페",,02-758-8331,http://www.istarbucks.co.kr/
448,<b>스타벅스</b> SSG마켓도곡R점,서울특별시 강남구 도곡동 467-17 타워팰리스Ⅱ F 지하1층,서울특별시 강남구 언주로30길 57,316621,543552,"카페,디저트>카페",,02-2191-1219,http://www.istarbucks.co.kr/
449,<b>스타벅스</b> 강남우성점,서울특별시 강남구 역삼동 832-3 강남역 쉐르빌,서울특별시 강남구 강남대로 328,314502,543806,"카페,디저트>카페",,02-565-3347,http://www.istarbucks.co.kr/
450,<b>스타벅스</b> 큰길타워점,서울특별시 강남구 역삼동 677-25 큰길타워,서울특별시 강남구 테헤란로 223,315379,544904,"카페,디저트>카페",,02-758-8116,http://www.istarbucks.co.kr/
451,<b>스타벅스</b> 삼성점,서울특별시 강남구 삼성동 144-25 태리타워 1층,서울특별시 강남구 테헤란로 443,316697,545409,"카페,디저트>카페",,02-758-8038,http://www.istarbucks.co.kr/
452,<b>스타벅스</b> 국기원사거리점,서울특별시 강남구 역삼동 648-22 동찬빌딩,서울특별시 강남구 테헤란로 125,314562,544596,"카페,디저트>카페",,02-568-3668,http://www.istarbucks.co.kr/
453,<b>스타벅스</b> 역삼대로점,서울특별시 강남구 역삼동 678-39 한국고등교육재단빌딩1층,서울특별시 강남구 테헤란로 211,315261,544822,"카페,디저트>카페",,02-758-8626,http://www.istarbucks.co.kr/
454,<b>스타벅스</b> 논현힐탑점,서울특별시 강남구 논현동 216-5,서울특별시 강남구 논현로 648,314644,545931,"카페,디저트>카페",,02-758-8426,http://www.istarbucks.co.kr/
455,<b>스타벅스</b> 대치사거리점,서울특별시 강남구 대치동 960-5 티아빌딩,서울특별시 강남구 삼성로 402,316982,544995,"카페,디저트>카페",,02-561-3287,http://www.istarbucks.co.kr/
456,<b>스타벅스</b> 역삼아레나빌딩점,서울특별시 강남구 역삼동 721-13 아레나빌딩,서울특별시 강남구 언주로 425,315587,544760,"카페,디저트>카페",,02-568-3762,http://www.istarbucks.co.kr/
457,<b>스타벅스</b> 도곡공원점,서울특별시 강남구 역삼동 788-10,서울특별시 강남구 도곡로 205,315422,543842,"카페,디저트>카페",,02-565-3496,http://www.istarbucks.co.kr/
458,<b>스타벅스</b> 기술센터점,서울특별시 강남구 역삼동 701-7 한국기술센터 1층,서울특별시 강남구 테헤란로 305,315640,545004,"카페,디저트>카페",,02-6009-3410,http://www.istarbucks.co.kr/
459,<b>스타벅스</b> 역삼포스코점,서울특별시 강남구 역삼동 735-3 P&S TOWER,서울특별시 강남구 테헤란로 134,314747,544617,"카페,디저트>카페",,02-758-8631,http://www.istarbucks.co.kr/
460,<b>스타벅스</b>,서울특별시 강남구 역삼동 816-7,서울특별시 강남구 강남대로 422,314165,544697,"카페,디저트>카페",,02-758-8512,
461,<b>스타벅스</b> 잠실역점,서울특별시 송파구 신천동 7-17,"서울특별시 송파구 송파대로 562 한빛프라자,삼성웰리스아파트",320561,546282,"카페,디저트>카페",,02-758-8077,http://www.istarbucks.co.kr/
462,<b>스타벅스</b> 석촌호수점,서울특별시 송파구 송파동 7-4 7-5 (석촌호수로 262) 1~3층,서울특별시 송파구 석촌호수로 262,321071,545648,"카페,디저트>카페",,02-758-8693,http://www.istarbucks.co.kr/
463,<b>스타벅스</b> 잠실새내역점,서울특별시 송파구 잠실동 181 3필지,서울특별시 송파구 올림픽로 96,318958,545902,"카페,디저트>카페",,02-758-8643,http://www.istarbucks.co.kr/
464,<b>스타벅스</b> 잠실시그마타워점,서울특별시 송파구 신천동 7-19 잠실시그마타워,서울특별시 송파구 올림픽로 289,320856,546204,"카페,디저트>카페",,02-417-3614,http://www.istarbucks.co.kr/
465,<b>스타벅스</b> 송파나루역DT점,서울특별시 송파구 송파동 59-9 송봉주유소,서울특별시 송파구 오금로 142,321539,545779,"카페,디저트>카페",,02-421-3622,http://www.istarbucks.co.kr/
466,<b>스타벅스</b> 송파개롱역점,서울특별시 송파구 가락동 174-14 한라산업개발빌딩,서울특별시 송파구 오금로 420,323846,544221,"카페,디저트>카페",,,http://www.istarbucks.co.kr/
467,<b>스타벅스</b> 갤러리아팰리스점,서울특별시 송파구 잠실동 40 갤러리아 팰리스,서울특별시 송파구 올림픽로 212,320084,545825,"카페,디저트>카페",,02-758-8118,http://www.istarbucks.co.kr/
468,<b>스타벅스</b> 석촌서호점,서울특별시 송파구 삼전동 130-2,서울특별시 송파구 석촌호수로 176,320314,545302,"카페,디저트>카페",,02-758-8874,http://www.istarbucks.co.kr/
469,<b>스타벅스</b> 방이역점,서울특별시 송파구 오금동 17-8 1~2층,서울특별시 송파구 마천로 53,322978,545529,"카페,디저트>카페",,02-758-8698,http://www.istarbucks.co.kr/
470,<b>스타벅스</b> 가락시장역점,서울특별시 송파구 가락동 79 롯데캐슬 파인힐 1층,서울특별시 송파구 중대로 121,322502,543939,"카페,디저트>카페",,02-758-8469,http://www.istarbucks.co.kr/
471,<b>스타벅스</b> 석촌역점,서울특별시 송파구 석촌동 286-9 1층,서울특별시 송파구 백제고분로 358,321164,545057,"카페,디저트>카페",,02-758-8350,http://www.istarbucks.co.kr/
472,<b>스타벅스</b> 올림픽평화의문점,서울특별시 송파구 방이동 180-8 해태그린피아빌라트,서울특별시 송파구 위례성대로 38,322094,546312,"카페,디저트>카페",,02-758-8983,http://www.istarbucks.co.kr/
473,<b>스타벅스</b> 송파사거리점,서울특별시 송파구 송파동 96-7,서울특별시 송파구 송파대로 386,321541,544833,"카페,디저트>카페",,02-758-8931,http://www.istarbucks.co.kr/
474,<b>스타벅스</b> 아시아선수촌점,서울특별시 송파구 잠실동 175,서울특별시 송파구 백제고분로 69,318779,545776,"카페,디저트>카페",,02-758-8124,http://www.istarbucks.co.kr/
475,<b>스타벅스</b> 문정역점,"서울특별시 송파구 문정동 651 테라타워 B동 137호~139호,204호",서울특별시 송파구 송파대로 167,322570,542885,"카페,디저트>카페",,02-2054-3836,http://www.istarbucks.co.kr/
476,<b>스타벅스</b> 올림픽공원남문점,서울특별시 송파구 방이동 181 외 2필지,서울특별시 송파구 위례성대로 102,322677,546046,"카페,디저트>카페",,02-758-8769,http://www.istarbucks.co.kr/
477,<b>스타벅스</b> 잠실푸르지오월드점,서울특별시 송파구 신천동 11-4 잠실푸르지오월드마크 1층,서울특별시 송파구 올림픽로35가길 9,320941,546545,"카페,디저트>카페",,02-758-8652,http://www.istarbucks.co.kr/
478,<b>스타벅스</b> 가락본동점,서울특별시 송파구 가락동 97-7,서울특별시 송파구 송파대로30길 13,322276,544007,"카페,디저트>카페",,02-758-8495,http://www.istarbucks.co.kr/
479,<b>스타벅스</b> 가든파이브점,서울특별시 송파구 문정동 292 가든파이브툴 지하1층,서울특별시 강북구 인수봉로55길 39-25,322310,542157,"카페,디저트>카페",,02-758-8406,http://www.istarbucks.co.kr/
480,<b>스타벅스</b> 송파위례점,"서울특별시 송파구 장지동 884 위례2차아이파크 제상가 3동 1층 C-104, 105, 106, 107호",서울특별시 송파구 위례광장로 230,324494,542141,"카페,디저트>카페",,02-3012-3457,http://www.istarbucks.co.kr/
481,<b>스타벅스</b> 송파구청점,서울특별시 송파구 방이동 22-5 잠실리시온 1층,서울특별시 송파구 오금로 87,321290,546200,"카페,디저트>카페",,02-2145-0300,http://www.istarbucks.co.kr/
482,<b>스타벅스</b> 송파아이파크점,서울특별시 송파구 문정동 624 송파아이파크 C-301호,서울특별시 송파구 법원로 55,322578,542339,"카페,디저트>카페",,02-409-3245,http://www.istarbucks.co.kr/
483,<b>스타벅스</b> 송파방이DT점,서울특별시 송파구 방이동 226-10,서울특별시 송파구 오금로 241,322439,545301,"카페,디저트>카페",,02-414-3269,http://www.istarbucks.co.kr/
484,<b>스타벅스</b> 문정하비오점,서울특별시 송파구 문정동 618 파크하비오 204동 104호~107호,서울특별시 송파구 송파대로 111,322674,542564,"카페,디저트>카페",,,http://www.istarbucks.co.kr/
485,<b>스타벅스</b> 잠실대교남단R점,서울특별시 송파구 신천동 7-30 타워730 1층,서울특별시 송파구 송파대로 570,320548,546312,"카페,디저트>카페",,02-416-0020,http://www.istarbucks.co.kr/
486,<b>스타벅스</b> 문정로데오점,서울특별시 송파구 가락동 125-6,서울특별시 송파구 동남로 141,322934,543669,"카페,디저트>카페",,02-758-8860,http://www.istarbucks.co.kr/
487,<b>스타벅스</b> 올림픽아파트점,서울특별시 송파구 방이동 89-12,서울특별시 송파구 양재대로 1220,323574,546261,"카페,디저트>카페",,02-758-8580,http://www.istarbucks.co.kr/
488,<b>스타벅스</b> 문정법원로R점,서울특별시 송파구 문정동 642 송파 테라타워2,서울특별시 송파구 송파대로 201,322301,543180,"카페,디저트>카페",,02-881-5012,http://www.istarbucks.co.kr/
489,<b>스타벅스</b> 올림픽훼미리점,서울특별시 송파구 문정동 150-26 훼미리샤르망 101~104호,서울특별시 송파구 중대로 68,322053,543646,"카페,디저트>카페",,02-758-8793,http://www.istarbucks.co.kr/
490,<b>스타벅스</b> 천호로데오점,서울특별시 강동구 천호3동 453-14,서울특별시 강동구 천호대로 1037,323074,548762,"카페,디저트>카페",,02-758-8923,http://www.istarbucks.co.kr/
491,<b>스타벅스</b> 명일역점,서울특별시 강동구 명일동 312-28,서울특별시 강동구 양재대로 1647,324546,550389,"카페,디저트>카페",,02-427-3681,http://www.istarbucks.co.kr/
492,<b>스타벅스</b> 명일이마트점,서울특별시 강동구 명일동 47-7 명일이마트별관주차장,서울특별시 강동구 동남로75길 5,325624,550535,"카페,디저트>카페",,02-758-8752,http://www.istarbucks.co.kr/
493,<b>스타벅스</b> 천호역점,서울특별시 강동구 성내동 62-4 태승빌딩,서울특별시 강동구 천호대로 1012,322832,548781,"카페,디저트>카페",,02-758-8296,http://www.istarbucks.co.kr/
494,<b>스타벅스</b> 천호이마트점,서울특별시 강동구 천호동 455-4 이마트별관,서울특별시 강동구 천호대로 1015-14,322889,548889,"카페,디저트>카페",,02-758-8732,http://www.istarbucks.co.kr/
495,<b>스타벅스</b> 길동역점,서울특별시 강동구 길동 378-3,서울특별시 강동구 양재대로 1487,324195,548856,"카페,디저트>카페",,02-758-8776,http://www.istarbucks.co.kr/
496,<b>스타벅스</b> 강동구청DT점,서울특별시 강동구 성내동 550,서울특별시 강동구 성내로 32,322758,547836,"카페,디저트>카페",,02-489-3652,http://www.istarbucks.co.kr/
497,<b>스타벅스</b> 길동사거리점,서울특별시 강동구 길동 459-4 1층,서울특별시 강동구 양재대로 1441,324050,548403,"카페,디저트>카페",,02-758-8342,http://www.istarbucks.co.kr/
498,<b>스타벅스</b> 강동암사DT점,서울특별시 강동구 암사동 441-12,서울특별시 강동구 고덕로 43,323335,550674,"카페,디저트>카페",,02-426-3583,http://www.istarbucks.co.kr/
499,<b>스타벅스</b> 강동역점,서울특별시 강동구 천호동 447-17 강동 헤르셔,서울특별시 강동구 천호대로 1089,323582,548562,"카페,디저트>카페",,02-477-3319,http://www.istarbucks.co.kr/
500,<b>스타벅스</b> 상일동점,서울특별시 강동구 상일동 373-1 1~2층,,327235,550086,"카페,디저트>카페",,02-758-8670,http://www.istarbucks.co.kr/
501,<b>스타벅스</b> 둔촌동점,서울특별시 강동구 성내동 441-2 평원빌딩,서울특별시 강동구 양재대로 1303,323644,547083,"카페,디저트>카페",,02-478-3240,http://www.istarbucks.co.kr/
502,<b>스타벅스</b> 올림픽공원북문점,서울특별시 강동구 성내동 468,서울특별시 강동구 강동대로 171,322939,547387,"카페,디저트>카페",,02-758-8761,http://www.istarbucks.co.kr/
