,title,address,roadAddress,mapx,mapy,category,description,telephone,link
0,중앙<b>고등학교</b>,서울특별시 종로구 계동 1,서울특별시 종로구 창덕궁길 164 중앙고등학교,310717,554027,"교육,학문>고등학교",,02-742-1321,http://www.choongang.hs.kr/
1,동성<b>고등학교</b>,서울특별시 종로구 혜화동 90-7,서울특별시 종로구 대학로 156 동성중고교,312148,554117,"교육,학문>고등학교",,02-3671-9100,http://www.dongsung.hs.kr/
2,대신<b>고등학교</b>,서울특별시 종로구 행촌동 171-1,서울특별시 종로구 사직로 9 대신중고등학교,308508,552872,"교육,학문>고등학교",,02-736-0317,http://www.dae-shin.hs.kr/
3,경신<b>고등학교</b>,서울특별시 종로구 혜화동 5-119,서울특별시 종로구 혜화로 74 경신중고등학교,311898,554912,"교육,학문>고등학교",,02-762-0394,http://kyungshin.hs.kr/
4,경복<b>고등학교</b>,서울특별시 종로구 청운동 89-9,서울특별시 종로구 자하문로28가길 9 경복고등학교,309382,554438,"교육,학문>고등학교",,02-397-5301,http://www.kyungbock.hs.kr/
5,대동세무<b>고등학교</b>,서울특별시 종로구 계동 35 대동세무고등학교,서울특별시 종로구 계동길 84-10 대동세무고등학교,310808,553779,"교육,학문>고등학교",,02-763-1630,http://www.daedong.kr/
6,경기상업<b>고등학교</b>,서울특별시 종로구 청운동 89-3,서울특별시 종로구 자하문로 136,309217,554560,"교육,학문>고등학교",,02-737-6490,http://www.ggc.hs.kr/
7,덕성여자<b>고등학교</b>,서울특별시 종로구 안국동 37-1,서울특별시 종로구 율곡로3길 50 덕성여자고등학교,310367,553315,"교육,학문>고등학교",,02-734-6871,http://www.duksung.hs.kr/
8,상명대<b>학교</b> 사범대학 부속여자<b>고등학교</b>,서울특별시 종로구 홍지동 7-1,서울특별시 종로구 홍지문2길 20 상명대학교,307826,556191,"교육,학문>고등학교",,02-396-6303,http://sangmyung-agh.sen.hs.kr/
9,서일국제경영<b>고등학교</b>,서울특별시 종로구 창신동 13-80,서울특별시 종로구 지봉로17길 49,313007,553475,"교육,학문>고등학교",,02-763-5863,http://seoil.sen.hs.kr/
10,배화여자<b>고등학교</b>,서울특별시 종로구 필운동 12,서울특별시 종로구 필운대로1길 34 배화여자대학,308935,553424,"교육,학문>고등학교",,02-724-0300,http://www.paiwha.hs.kr/
11,경복<b>고등학교</b>부설 방송통신<b>고등학교</b>,서울특별시 종로구 청운동 89-9,서울특별시 종로구 자하문로28가길 9 경복고등학교,309443,554402,"교육,학문>고등학교",,02-735-3083,
12,서울과학<b>고등학교</b>,서울특별시 종로구 혜화동 1-1,서울특별시 종로구 혜화로 63 서울과학고등학교,311751,554841,"교육,학문>고등학교",,,http://www.sshs.hs.kr/
13,서울예술<b>고등학교</b>,서울특별시 종로구 평창동 217,서울특별시 종로구 평창문화로 70 서울예술고등학교,309159,556420,"교육,학문>고등학교",,02-2287-0505,http://www.yego.or.kr/
14,서울국제<b>고등학교</b>,서울특별시 종로구 명륜1가 1-27 서울국제고등학교,서울특별시 종로구 성균관로13길 40 서울국제고등학교,311538,554849,"교육,학문>고등학교",,02-3019-8238,http://www.sghs.kr/
15,환일<b>고등학교</b>,서울특별시 중구 만리동2가 218-2,서울특별시 중구 환일길 47,308472,550694,"교육,학문>고등학교",,,http://www.hwanil.hs.kr/
16,한양공업<b>고등학교</b>,서울특별시 중구 신당동 224-2,서울특별시 중구 을지로 299 한양공업고등학교,312866,551977,"교육,학문>고등학교",,02-2238-5181,http://www.hanyang.hs.kr/
17,성동공업<b>고등학교</b>,서울특별시 중구 흥인동 1-1,서울특별시 중구 다산로 290 성동기계공업고등학교,313381,552312,"교육,학문>고등학교",,,http://www.sdth.hs.kr/
18,리라아트<b>고등학교</b>,서울특별시 중구 예장동 8-40,서울특별시 중구 소파로2길 24,310807,551030,"교육,학문>고등학교",,02-775-6541,http://www.lila.hs.kr/
19,이화여자<b>고등학교</b>,서울특별시 중구 정동 32-1,서울특별시 중구 정동길 26 심슨기념관,309320,552012,"교육,학문>고등학교",,02-752-3353,http://www.ewha.hs.kr/
20,성동글로벌경영<b>고등학교</b>,서울특별시 중구 신당동 250-3,서울특별시 중구 퇴계로 375 성동글로벌경영고등학교,312993,551976,"교육,학문>고등학교",,02-2252-9567,http://www.sdglobal.hs.kr/
21,성동<b>고등학교</b>,서울특별시 중구 신당5동 161,서울특별시 중구 퇴계로90길 17 성동고등학교,313857,551785,"교육,학문>고등학교",,02-2237-2412,http://www.sungdong.hs.kr/
22,장충<b>고등학교</b>,서울특별시 중구 신당동 432-460,서울특별시 중구 동호로15길 93 장충고등학교 도서관 3동,312375,550520,"교육,학문>고등학교",,02-2231-6905,http://www.jangchung.hs.kr/
23,대경상업<b>고등학교</b>,서울특별시 중구 신당동 333-579,서울특별시 중구 매봉18길 111,313360,550946,"교육,학문>고등학교",,02-2234-0798,http://www.daekyeong.hs.kr/
24,경기여자상업<b>고등학교</b>,서울특별시 중구 만리동1가 54-7,서울특별시 중구 만리재로37길 30 경기여자상업고등학교,308929,551045,"교육,학문>고등학교",,02-392-6666,http://www.gggc.hs.kr/
25,이화여자외국어<b>고등학교</b>,서울특별시 중구 순화동 1-1,서울특별시 중구 통일로4길 30 도서관,309115,552004,"교육,학문>고등학교",,02-2176-1992,http://www.ewha-gfh.hs.kr/
26,서울실용음악<b>고등학교</b>,서울특별시 중구 신당5동 67-24,서울특별시 중구 퇴계로88가길 8,313672,551694,"교육,학문>고등학교",,02-2231-5210,http://www.seoulmusic.hs.kr/
27,선린인터넷<b>고등학교</b>,서울특별시 용산구 청파동3가 131-2,서울특별시 용산구 원효로97길 33-4 선린인터넷고등학교,308917,549462,"교육,학문>고등학교",<b>서울특별시 용산구</b> 청파동 위치.,02-713-6211,http://www.sunrint.hs.kr/
28,용산<b>고등학교</b>,서울특별시 용산구 용산동2가 1,서울특별시 용산구 두텁바위로 60 용산고등학교,310047,549765,"교육,학문>고등학교",,02-3706-6700,http://www.yongsan.hs.kr/
29,오산<b>고등학교</b>,서울특별시 용산구 보광동 168-73,서울특별시 용산구 보광로7길 17 오산고등학교,311771,547289,"교육,학문>고등학교",,02-799-9500,http://www.osan.hs.kr/
30,중경<b>고등학교</b>,서울특별시 용산구 이촌동 300-302,서울특별시 용산구 이촌로84길 34 중경고등학교,309618,546691,"교육,학문>고등학교",,02-793-2540,http://jungkyung.sen.hs.kr/
31,보성여자<b>고등학교</b>,서울특별시 용산구 용산동2가 1-1123,서울특별시 용산구 신흥로3가길 66 보성여자고등학교,310437,549479,"교육,학문>고등학교",,,http://www.bosung.hs.kr/
32,서울디지텍<b>고등학교</b>,서울특별시 용산구 이태원동 214-4,서울특별시 용산구 회나무로12길 27 서울디지텍고등학교,310997,549013,"교육,학문>고등학교",,02-798-3641,http://www.sdh.hs.kr/
33,배문<b>고등학교</b>,서울특별시 용산구 서계동 259-3,서울특별시 용산구 효창원로 258 배문중고등학교,308720,550267,"교육,학문>고등학교",,,http://www.baemoon.hs.kr/
34,성심여자<b>고등학교</b>,서울특별시 용산구 원효로4가 1-1,서울특별시 용산구 원효로19길 49,307729,548537,"교육,학문>고등학교",,02-702-5501,http://sacredheart.sen.hs.kr/
35,용산공업<b>고등학교</b>,서울특별시 용산구 한강로3가 65-209,서울특별시 용산구 서빙고로 24 용산공업고등학교,308880,547395,"교육,학문>고등학교",,02-6905-7777,http://www.yongsan-th.hs.kr/
36,서울자동차<b>고등학교</b>,서울특별시 용산구 효창동 5-198,서울특별시 용산구 백범로45길 15 서울자동차고등학교,308155,549328,"교육,학문>고등학교",,02-717-8304,http://www.seoulauto.hs.kr/
37,신광여자<b>고등학교</b>,서울특별시 용산구 청파동3가 100,서울특별시 용산구 청파로 263 학교법인신광학원,309144,549464,"교육,학문>고등학교",,,http://www.shinkwang.hs.kr/
38,한양대<b>학교</b>사범대학부속<b>고등학교</b>,서울특별시 성동구 사근동 223,서울특별시 성동구 마조로 42,315593,551508,"교육,학문>고등학교",,,http://www.hanyang-u.hs.kr/
39,덕수<b>고등학교</b>,서울특별시 성동구 행당동 70-28,서울특별시 성동구 왕십리로 199 덕수정보산업고등학교,315574,550822,"교육,학문>고등학교",,02-2292-5707,http://www.duksoo.hs.kr/
40,무학여자<b>고등학교</b>,서울특별시 성동구 행당동 322-1,서울특별시 성동구 고산자로 197 무학여자고등학교,314792,551003,"교육,학문>고등학교",,,http://www.muhak.hs.kr/
41,경일<b>고등학교</b>,서울특별시 성동구 성수동1가 22-27,서울특별시 성동구 성수일로 27 경일 중.고등학교,316025,549509,"교육,학문>고등학교",,,http://www.seoulkyungil.hs.kr/
42,성수<b>고등학교</b>,서울특별시 성동구 성수동1가 685-143,서울특별시 성동구 서울숲길 18,315193,549928,"교육,학문>고등학교",,02-461-2276,http://www.seoulseongsu.hs.kr/
43,서울방송<b>고등학교</b>,서울특별시 성동구 옥수동 556-1,서울특별시 성동구 동호로5길 131 서울방송고등학교,312779,549958,"교육,학문>고등학교",,02-2281-0094,http://www.seb.hs.kr/
44,도선<b>고등학교</b>,서울특별시 성동구 하왕십리동 1070-4,서울특별시 성동구 마장로 156 도선고등학교,314249,552049,"교육,학문>고등학교",,02-2292-8175,http://dosun.hs.kr
45,성수공업<b>고등학교</b>,서울특별시 성동구 성수동2가 333-128,서울특별시 성동구 뚝섬로 365 성수공업고등학교,316363,549169,"교육,학문>고등학교",,02-469-4525,http://sungsu.sen.hs.kr/
46,금호<b>고등학교</b>,서울특별시 성동구 금호동1가 1822,서울특별시 성동구 금호로 118,313938,550596,"교육,학문>고등학교",,02-2022-0800,http://geumho.hs.kr/
47,동국대<b>학교</b> 사범대학 부속여자<b>고등학교</b>,서울특별시 광진구 구의동 238-1,서울특별시 광진구 광나루로36길 47 동국대학교사범대학부속여자중고등학교,319514,549404,"교육,학문>고등학교",,02-2049-1577,http://www.donggukgirls.hs.kr/
48,광남<b>고등학교</b>,서울특별시 광진구 광장동 554-11,서울특별시 광진구 아차산로70길 17-16 광남고등학교,320791,549191,"교육,학문>고등학교",,02-2204-8705,http://www.gwang-nam.hs.kr/
49,대원<b>고등학교</b>,서울특별시 광진구 중곡동 176-124,서울특별시 광진구 용마산로22길 26 대원여자고등학교,319764,551625,"교육,학문>고등학교",,02-2204-1555,http://www.daewon-seoul.hs.kr/
50,자양<b>고등학교</b>,서울특별시 광진구 자양동 524-11,서울특별시 광진구 뚝섬로37길 28 자양고등학교,318267,548582,"교육,학문>고등학교",,02-2049-4100,http://www.jayang.hs.kr/
51,건국대<b>학교</b> 사범대학 부속<b>고등학교</b>,서울특별시 광진구 화양동 1,서울특별시 광진구 능동로 120,318935,549069,"교육,학문>고등학교",,,http://www.konkuk.hs.kr/
52,광양<b>고등학교</b>,서울특별시 광진구 자양동 668,서울특별시 광진구 자양로3가길 31 광양고등학교,319347,547872,"교육,학문>고등학교",,02-446-1435,http://gwangyang.sen.hs.kr/
53,대원여자<b>고등학교</b>,서울특별시 광진구 중곡동 176-124,서울특별시 광진구 용마산로22길 26 대원여자고등학교,319750,551533,"교육,학문>고등학교",,02-2204-1622,http://www.dwg.hs.kr/
54,대원외국어<b>고등학교</b>,서울특별시 광진구 중곡동 176-124,서울특별시 광진구 용마산로22길 26 대원여자고등학교,319730,551658,"교육,학문>고등학교",,02-2204-1530,http://www.dwfl.hs.kr/
55,선화예술<b>고등학교</b>,서울특별시 광진구 능동 25,서울특별시 광진구 천호대로 664 선화예술중고등학교,319585,550159,"교육,학문>고등학교",,02-2204-1018,http://www.sunhwa.org/
56,동국대<b>학교</b> 사범대학 부속<b>고등학교</b>,서울특별시 동대문구 장안동 328,서울특별시 동대문구 장안벚꽃로 201,318446,553211,"교육,학문>고등학교",,02-6913-1500,http://www.ddbk.hs.kr/
57,해성국제컨벤션<b>고등학교</b>,서울특별시 동대문구 전농동 90-3,서울특별시 동대문구 전농로20길 31 해성국제컨벤션고등학교,316933,553703,"교육,학문>고등학교",,,http://www.haesung.hs.kr/
58,대광<b>고등학교</b>,서울특별시 동대문구 신설동 53-3,서울특별시 동대문구 안암로 6 대광고등학교,314027,553271,"교육,학문>고등학교",,,http://www.dgh.hs.kr/
59,경희<b>고등학교</b>,서울특별시 동대문구 회기동 1-5,서울특별시 동대문구 경희대로 26,316737,555171,"교육,학문>고등학교",,02-966-3782,http://www.kyungheeboy.hs.kr/
60,휘경여자<b>고등학교</b>,서울특별시 동대문구 휘경동 43-7,서울특별시 동대문구 한천로 247 휘경여자중고등학교,317730,553894,"교육,학문>고등학교",,02-2245-2307,http://hwikyung.sen.hs.kr/
61,해성여자<b>고등학교</b>,서울특별시 동대문구 전농동 90-3,서울특별시 동대문구 전농로20길 31 해성국제컨벤션고등학교,316913,553591,"교육,학문>고등학교",,,http://www.haesung-g.hs.kr
62,청량<b>고등학교</b>,서울특별시 동대문구 청량리동 7,서울특별시 동대문구 왕산로 303 청량고등학교,316384,554487,"교육,학문>고등학교",,02-959-4362,http://www.chungryang.hs.kr/
63,정암미용<b>고등학교</b>,서울특별시 동대문구 청량리동 235-4 미주A상가 4층,서울특별시 동대문구 왕산로 225,316089,553781,"교육,학문>고등학교",,02-962-9124,http://www.jeongarm.hs.kr/
64,휘경공업<b>고등학교</b>,서울특별시 동대문구 휘경동 49-327,서울특별시 동대문구 겸재로 21 휘경공업고등학교,318020,554079,"교육,학문>고등학교",,02-2216-3643,http://www.hgt.hs.kr/
65,휘봉<b>고등학교</b>,서울특별시 동대문구 휘경동 43-277,서울특별시 동대문구 한천로 290,317974,554217,"교육,학문>고등학교",,02-2116-7211,http://hwibong.hs.kr/
66,정화여자상업<b>고등학교</b>,서울특별시 동대문구 제기동 293,서울특별시 동대문구 홍릉로15길 50 정화여자중학교,315481,554187,"교육,학문>고등학교",,02-967-0178,http://www.jeonghwa.hs.kr/
67,경희여자<b>고등학교</b>,서울특별시 동대문구 회기동 1-5,서울특별시 동대문구 경희대로 26,316398,555183,"교육,학문>고등학교",,02-966-4560,http://www.kyunghee.hs.kr/
68,청량정보<b>고등학교</b>,서울특별시 동대문구 전농동 678-3,서울특별시 동대문구 답십리로15길 32 청량정보고등학교,316079,553260,"교육,학문>고등학교",,02-2212-3166,http://www.dreamschool.hs.kr/
69,이화여대병설미디어<b>고등학교</b>,서울특별시 중랑구 망우동 220,서울특별시 중랑구 망우로73길 56,321177,556060,"교육,학문>고등학교",,02-2209-0146,http://www.ewhamedia.hs.kr/
70,면목<b>고등학교</b>,서울특별시 중랑구 면목동 77,서울특별시 중랑구 용마산로72길 36-14 면목고등학교,320402,553994,"교육,학문>고등학교",,02-435-0003,http://www.mmhs.hs.kr/
71,송곡여자<b>고등학교</b>,서울특별시 중랑구 망우동 252-1,서울특별시 중랑구 양원역로 67,321188,556447,"교육,학문>고등학교",,02-434-4317,http://www.songgok.hs.kr/
72,송곡<b>고등학교</b>,서울특별시 중랑구 망우본동 239-1,서울특별시 중랑구 양원역로 50 송곡고등학교,321336,556321,"교육,학문>고등학교",,02-435-0660,http://www.sg.hs.kr/
73,송곡관광<b>고등학교</b>,서울특별시 중랑구 망우동 252-1,서울특별시 중랑구 양원역로 67,321209,556406,"교육,학문>고등학교",,02-432-1837,http://sgi.hs.kr/
74,태릉<b>고등학교</b>,서울특별시 중랑구 묵동 6,서울특별시 중랑구 신내로23길 36 태릉고등학교,319492,557805,"교육,학문>고등학교",,02-974-6252,http://www.taereung.hs.kr/
75,신현<b>고등학교</b>,서울특별시 중랑구 상봉1동 482,서울특별시 중랑구 봉화산로 174 신현고등학교,320110,556285,"교육,학문>고등학교",,02-3422-2713,http://www.shinhyeon.hs.kr/
76,원묵<b>고등학교</b>,서울특별시 중랑구 묵동 23,서울특별시 중랑구 숙선옹주로 82 원묵고등학교,319503,557438,"교육,학문>고등학교",,02-3422-3573,http://www.wonmook.hs.kr/
77,중화<b>고등학교</b>,서울특별시 중랑구 중화1동 21-4,서울특별시 중랑구 봉화산로27길 62 중화고등학교,319258,556189,"교육,학문>고등학교",,02-491-6806,http://www.jung-hwa.hs.kr/
78,혜원여자<b>고등학교</b>,서울특별시 중랑구 망우동 519,서울특별시 중랑구 봉우재로58길 39 혜원여자중고등학교,320441,554924,"교육,학문>고등학교",,02-434-5946,http://hyewon.sen.hs.kr/
79,송곡여자하키부<b>고등학교</b>기숙사,서울특별시 중랑구 망우동 252-1,서울특별시 중랑구 양원역로 67 송곡여자중고등학교,321185,556403,"교육,학문>고등학교",,02-494-9886,
80,서울대<b>학교</b>사범대학부설<b>고등학교</b>,서울특별시 성북구 종암동 7-10,서울특별시 성북구 월곡로 6,315220,554944,"교육,학문>고등학교",,02-913-7306,http://www.snu.hs.kr/
81,홍익대<b>학교</b>사범대학부속<b>고등학교</b>,서울특별시 성북구 성북동 151,서울특별시 성북구 성북로14가길 23 홍익대학교부속중고등학교,312229,555144,"교육,학문>고등학교",,02-762-0826,http://www.hongik.hs.kr/
82,한성여자<b>고등학교</b>,서울특별시 성북구 삼선동2가 392-2,서울특별시 성북구 삼선교로16길 117 한성여자고등학교,312911,553891,"교육,학문>고등학교",,02-742-2845,http://www.hansung-g.hs.kr/
83,고려대<b>학교</b> 사범대학 부속<b>고등학교</b>,서울특별시 성북구 정릉동 660,서울특별시 성북구 정릉로 161,312034,556865,"교육,학문>고등학교",,02-914-7483,http://koreahi.sen.hs.kr/
84,계성<b>고등학교</b>,서울특별시 성북구 길음동 1284-15,서울특별시 성북구 길음로 63 계성고등학교,313702,556596,"교육,학문>고등학교",,02-728-6100,http://www.gyeseong.hs.kr/
85,서울도시과학기술<b>고등학교</b>,서울특별시 성북구 하월곡동 90-1,서울특별시 성북구 종암로 196,314821,556547,"교육,학문>고등학교",,,http://sust.hs.kr/
86,석관<b>고등학교</b>,서울특별시 성북구 석관동 77-1,서울특별시 성북구 한천로70길 30 석관고등학교,317783,556808,"교육,학문>고등학교",,02-958-1160,http://www.seokgwan.hs.kr
87,동구마케팅<b>고등학교</b>,서울특별시 성북구 성북동 168-275,서울특별시 성북구 성북로8길 71 동구여자상업고등학교,312483,555008,"교육,학문>고등학교",,,http://www.donggoo.hs.kr/
88,용문<b>고등학교</b>,서울특별시 성북구 안암동2가 96-1,서울특별시 성북구 고려대로17가길 46 용문중고등학교,314107,554414,"교육,학문>고등학교",,02-928-3871,http://www.ymoon.hs.kr/
89,고명경영<b>고등학교</b>,서울특별시 성북구 돈암동 45-88,서울특별시 성북구 북악산로 870,313655,555476,"교육,학문>고등학교",,02-928-8366,http://komyung.sen.hs.kr/
90,경동<b>고등학교</b>,서울특별시 성북구 삼선동3가 43-1,서울특별시 성북구 보문로29길 49 경동고등학교,313197,554252,"교육,학문>고등학교",,02-928-2353,http://www.kyungdong.hs.kr/
91,성신여자<b>고등학교</b>,서울특별시 성북구 돈암동 산11-269,서울특별시 성북구 동소문로26가길 80,313870,555122,"교육,학문>고등학교",,,http://sungshin.sen.hs.kr/
92,경동<b>고등학교</b>부설 방송통신<b>고등학교</b>,서울특별시 성북구 삼선동3가 55,서울특별시 성북구 보문로29길 103 경동고등학교부설방송통신고등학교,313184,554277,"교육,학문>고등학교","<b>서울특별시 성북구</b> 삼선동3가 위치, <b>학교</b> 소개, 학습자료, 생활정보, 행사일정 등 안내.",02-928-2077,
93,대일외국어<b>고등학교</b>,서울특별시 성북구 정릉동 산16-36,서울특별시 성북구 서경로 116 대일외국어고등학교,313100,557256,"교육,학문>고등학교",,,http://daeil.e-wut.co.kr/
94,신일<b>고등학교</b>,서울특별시 강북구 미아동 193-1,서울특별시 강북구 솔매로49길 20 신일중고등학교,314376,558901,"교육,학문>고등학교",,02-944-9900,http://www.shin-il.hs.kr/
95,성암국제무역<b>고등학교</b>,서울특별시 강북구 미아동 320-1,서울특별시 강북구 도봉로29길 52 학교법인성암학원,314090,558075,"교육,학문>고등학교",,02-2179-1888,http://www.seongam.hs.kr/
96,영훈<b>고등학교</b>,서울특별시 강북구 미아동 471-2,서울특별시 강북구 도봉로13가길 19 영훈학교,314361,557257,"교육,학문>고등학교",,02-986-2500,http://www.younghoon.hs.kr/
97,미양<b>고등학교</b>,서울특별시 강북구 미아동 837-734,서울특별시 강북구 인수봉로 39 미양중.고등학교,312996,558442,"교육,학문>고등학교",,02-982-6105,http://www.mi-yang.hs.kr/
98,창문여자<b>고등학교</b>,서울특별시 강북구 미아동 8-6,서울특별시 강북구 월계로 61,315123,557240,"교육,학문>고등학교",,02-986-1701,http://www.changmun.hs.kr/
99,삼각산<b>고등학교</b>,서울특별시 강북구 미아동 812-4,서울특별시 강북구 삼양로19길 40 삼각산고등학교,313697,557530,"교육,학문>고등학교",,,http://www.samgaksan.hs.kr/
100,혜화여자<b>고등학교</b>,서울특별시 강북구 수유동 468-43,서울특별시 강북구 인수봉로 127,313084,559232,"교육,학문>고등학교",,02-985-8415,http://www.hyehwa-h.hs.kr/
101,창동<b>고등학교</b>,서울특별시 도봉구 창동 694-10,서울특별시 도봉구 노해로62길 7 창동고등학교,315357,561418,"교육,학문>고등학교",,,http://www.changdong.hs.kr/
102,선덕<b>고등학교</b>,서울특별시 도봉구 쌍문동 263,서울특별시 도봉구 시루봉로 53 학교법인세그루학원,314310,561800,"교육,학문>고등학교",,02-997-4111,http://www.sunduck.hs.kr/
103,서울문화<b>고등학교</b>,서울특별시 도봉구 방학동 723-17,서울특별시 도봉구 마들로 598 서울문화고등학교,316172,562835,"교육,학문>고등학교",,02-955-9100,http://www.seoulculture.hs.kr/
104,자운<b>고등학교</b>,서울특별시 도봉구 창동 1,서울특별시 도봉구 노해로69길 150 자운고등학교,316441,562285,"교육,학문>고등학교",,02-998-3365,http://www.jawoon.hs.kr/
105,세그루패션디자인<b>고등학교</b>,서울특별시 도봉구 쌍문동 263,서울특별시 도봉구 시루봉로 53 학교법인세그루학원,314314,561923,"교육,학문>고등학교",,02-993-0211,http://sfd.sen.hs.kr/
106,정의여자<b>고등학교</b>,서울특별시 도봉구 쌍문동 150-1,서울특별시 도봉구 노해로49길 69 정의학교,314697,561615,"교육,학문>고등학교",,02-992-5104,http://www.jeongeui.hs.kr/
107,도봉<b>고등학교</b>,서울특별시 도봉구 도봉동 556,서울특별시 도봉구 도봉산길 27 도봉고등학교,315745,565359,"교육,학문>고등학교",,02-3491-4285,http://www.db2004.hs.kr/
108,누원<b>고등학교</b>,서울특별시 도봉구 도봉동 646,서울특별시 도봉구 마들로 849 누원고등학교,316444,565193,"교육,학문>고등학교",,02-3492-7595,http://www.noowon.hs.kr/
109,효문<b>고등학교</b>,서울특별시 도봉구 쌍문동 468,서울특별시 도봉구 우이천로 432 효문중.고등학교,313552,561648,"교육,학문>고등학교",,02-992-0778,http://www.hyomun.hs.kr/
110,서울외국어<b>고등학교</b>,서울특별시 도봉구 창동 35,서울특별시 도봉구 덕릉로66길 22 서울외국어고등학교,316580,560801,"교육,학문>고등학교",,,http://www.sfl.hs.kr/
111,대진<b>고등학교</b>,서울특별시 노원구 하계동 55-5,서울특별시 노원구 공릉로62가길 47 대진고등학교,318543,559928,"교육,학문>고등학교",,02-976-0067,http://www.dae-jin.hs.kr/
112,혜성여자<b>고등학교</b>,서울특별시 노원구 하계동 산16-38,서울특별시 노원구 노원로16길 2 혜성여자고등학교,318384,560295,"교육,학문>고등학교",,02-972-4040,http://www.hyesung.hs.kr/
113,서라벌<b>고등학교</b>,서울특별시 노원구 중계동 313,서울특별시 노원구 한글비석로5길 18 서라벌고등학교,318642,560729,"교육,학문>고등학교",,02-2092-2200,http://www.sorabol.hs.kr/
114,재현<b>고등학교</b>,서울특별시 노원구 중계동 175,서울특별시 노원구 덕릉로82길 64 재현중/고등학교,318995,562391,"교육,학문>고등학교",,02-932-4811,http://www.jaehyun.hs.kr/
115,경기기계공업<b>고등학교</b>,서울특별시 노원구 하계동 78,서울특별시 노원구 공릉로 264 경기기계공업고등학교,318538,559253,"교육,학문>고등학교",,02-2289-1600,http://www.ggmt.hs.kr/
116,대진여자<b>고등학교</b>,서울특별시 노원구 중계동 514-2,서울특별시 노원구 공릉로 438 대진여자고등학교,317886,560838,"교육,학문>고등학교",,02-979-2327,http://www.daejinw.hs.kr/
117,영신여자<b>고등학교</b>,서울특별시 노원구 중계동 118,서울특별시 노원구 중계로16나길 13 영신여자고등학교/영신여자실업고등학교,319308,561508,"교육,학문>고등학교",,,http://www.ys.hs.kr/
118,광운전자공업<b>고등학교</b>,서울특별시 노원구 월계동 500,서울특별시 노원구 광운로1길 24,316889,558030,"교육,학문>고등학교",,02-918-7761,http://www.kwangwoon.hs.kr/
119,동산정보산업<b>고등학교</b>,서울특별시 노원구 공릉동 481-3,서울특별시 노원구 공릉로 257 동산정보산업고등학교,318557,559061,"교육,학문>고등학교",,02-971-0903,http://www.seouldongsan.hs.kr/
120,용화여자<b>고등학교</b>,서울특별시 노원구 상계동 696,서울특별시 노원구 동일로 1461 용화여자고등학교,317109,562289,"교육,학문>고등학교",,,http://www.yonghwa.hs.kr/
121,상명<b>고등학교</b>,서울특별시 노원구 중계동 515,서울특별시 노원구 덕릉로 553 상명고등학교,317975,561240,"교육,학문>고등학교",,02-971-6211,http://www.sangmyung.hs.kr/
122,서울아이티<b>고등학교</b>,서울특별시 노원구 중계동 504,서울특별시 노원구 섬밭로 299 서울아이티고등학교,317404,560419,"교육,학문>고등학교",,02-948-1901,http://www.seoulit.hs.kr/
123,청원<b>고등학교</b>,서울특별시 노원구 상계동 641,서울특별시 노원구 한글비석로 506 청원초/중/고등학교,317541,563124,"교육,학문>고등학교",,02-3399-7771,http://www.cheongwon.hs.kr/
124,불암<b>고등학교</b>,서울특별시 노원구 중계동 364-10,서울특별시 노원구 중계로 155 불암고등학교,319031,561119,"교육,학문>고등학교",,02-936-7500,http://www.buram.hs.kr/
125,미래산업과학<b>고등학교</b>,서울특별시 노원구 중계동 369-3,서울특별시 노원구 덕릉로82길 54,318962,562277,"교육,학문>고등학교",,02-933-7671,http://www.mist.hs.kr/
126,인덕공업<b>고등학교</b>,서울특별시 노원구 월계동 648,서울특별시 노원구 초안산로 12 인덕대학/인덕공업고등학교,316858,559271,"교육,학문>고등학교",,02-902-2060,http://www.induk.hs.kr/
127,영신간호비즈니스<b>고등학교</b>,서울특별시 노원구 중계본동 118,서울특별시 노원구 중계로16나길 13 영신여자고등학교/영신여자실업고등학교,319301,561556,"교육,학문>고등학교",,02-951-5772,http://www.youngshin.hs.kr/
128,상계<b>고등학교</b>,서울특별시 노원구 상계동 738,서울특별시 노원구 노해로 432 상계고등학교,316887,561591,"교육,학문>고등학교",,,http://www.sanggye.hs.kr/
129,한국삼육<b>고등학교</b>,서울특별시 노원구 공릉동 26-38,서울특별시 노원구 화랑로 815 삼육대학교,321514,560179,"교육,학문>고등학교",,02-6395-3636,http://www.sahmyook.hs.kr/
130,염광여자메디텍<b>고등학교</b>,서울특별시 노원구 월계동 820,서울특별시 노원구 월계로45가길 9,316304,558887,"교육,학문>고등학교",,02-994-3104,http://ykm.sen.hs.kr/
131,청원여자<b>고등학교</b>,서울특별시 노원구 상계동 641 청원여고,서울특별시 노원구 한글비석로 506,317389,563069,"교육,학문>고등학교",,02-3399-7811,http://www.cheongwon-gh.hs.kr/
132,청암<b>고등학교</b>,서울특별시 노원구 중계동 411-1,서울특별시 노원구 중계로 244,318519,561423,"교육,학문>고등학교",,,http://www.ca.hs.kr/
133,염광<b>고등학교</b>,서울특별시 노원구 월계동 820,서울특별시 노원구 월계로45가길 9,316304,558887,"교육,학문>고등학교",,02-905-4221,http://yumkwang.sen.hs.kr/
134,노원<b>고등학교</b>,서울특별시 노원구 상계동 664,서울특별시 노원구 노원로 586 노원고등학교,316672,562698,"교육,학문>고등학교",,02-937-0079,http://www.nowon.hs.kr/
135,수락<b>고등학교</b>,서울특별시 노원구 상계동 1253,서울특별시 노원구 동일로245길 143 수락고등학교,316673,564951,"교육,학문>고등학교",,,http://www.surak.hs.kr/
136,월계<b>고등학교</b>,서울특별시 노원구 월계동 778,서울특별시 노원구 초안산로5길 66 월계고등학교,316254,559266,"교육,학문>고등학교",,02-908-0062,http://www.wg.hs.kr/
137,하나<b>고등학교</b>,서울특별시 은평구 진관동 97,서울특별시 은평구 연서로 535,306379,560455,"교육,학문>고등학교",,02-6913-1111,http://www.hana.hs.kr/
138,대성<b>고등학교</b>,서울특별시 은평구 갈현동 267-17,서울특별시 은평구 갈현로29길 51-24,303962,558436,"교육,학문>고등학교",,02-6252-1000,http://www.dae-sung.hs.kr/
139,세명컴퓨터<b>고등학교</b>,서울특별시 은평구 불광동 445-35,서울특별시 은평구 통일로92가길 33 세명컴퓨터고등학교,305166,558932,"교육,학문>고등학교",,02-354-1323,http://www.smc.hs.kr/
140,충암<b>고등학교</b>,서울특별시 은평구 응암동 272-113,서울특별시 은평구 가좌로5길 5,304922,554172,"교육,학문>고등학교",,02-309-0236,http://www.cham.hs.kr/
141,신진과학기술<b>고등학교</b>,서울특별시 은평구 응암동 114-1,서울특별시 은평구 은평로6길 16,304659,555713,"교육,학문>고등학교",,02-385-3451,http://www.shinjin.hs.kr/
142,선일여자<b>고등학교</b>,서울특별시 은평구 갈현동 240-1,서울특별시 은평구 갈현로29길 27,304237,557989,"교육,학문>고등학교",,02-355-9994,http://www.sunil.hs.kr/
143,선정<b>고등학교</b>,서울특별시 은평구 갈현동 227-5,서울특별시 은평구 서오릉로20길 19 선정중.고등학교,303893,557942,"교육,학문>고등학교",,02-3156-1500,http://www.sunjung.hs.kr/
144,숭실<b>고등학교</b>,서울특별시 은평구 신사2동 300-88,서울특별시 은평구 은평터널로7길 6,303409,555135,"교육,학문>고등학교",,02-373-5910,http://www.soongsil.net/
145,예일디자인<b>고등학교</b>,서울특별시 은평구 구산동 8-3,서울특별시 은평구 연서로 117,304480,556905,"교육,학문>고등학교",,,http://www.yale-dh.hs.kr/
146,선일이비즈니스<b>고등학교</b>,서울특별시 은평구 갈현동 240-1,서울특별시 은평구 갈현로29길 27,304162,558120,"교육,학문>고등학교",,02-355-5648,http://www.ebiz.hs.kr/
147,신도<b>고등학교</b>,서울특별시 은평구 진관동 243-1,서울특별시 은평구 통일로 961,304748,559142,"교육,학문>고등학교",,02-3157-0021,http://www.sindo.hs.kr/
148,진관<b>고등학교</b>,서울특별시 은평구 진관동 17,서울특별시 은평구 진관4로 26 진관고등학교,305281,560670,"교육,학문>고등학교",,02-358-0783,http://www.jingwan.hs.kr/
149,예일여자<b>고등학교</b>,서울특별시 은평구 구산동 8-3,서울특별시 은평구 연서로 117,304435,557060,"교육,학문>고등학교",,,http://www.yale.hs.kr/
150,동명여자<b>고등학교</b>,서울특별시 은평구 대조동 91-20,서울특별시 은평구 통일로 793,305294,557459,"교육,학문>고등학교",,02-385-0652,http://dongmyung.sen.hs.kr/
151,선정국제관광<b>고등학교</b>,서울특별시 은평구 갈현동 227-5,서울특별시 은평구 서오릉로20길 19 선정중.고등학교,303834,557960,"교육,학문>고등학교",,02-3156-1600,http://www.sjt.hs.kr/
152,은평메디텍<b>고등학교</b>,서울특별시 은평구 진관동 86,서울특별시 은평구 진관2로 57-57 은평메디텍고등학교,305699,559742,"교육,학문>고등학교",,,http://www.eunpyeong.hs.kr/
153,은평<b>고등학교</b>,서울특별시 은평구 구산동 산41-1,서울특별시 은평구 갈현로15길 51 구현초등학교,303584,556876,"교육,학문>고등학교",,02-383-0872,http://www.ep.hs.kr/
154,동명여자정보산업<b>고등학교</b>,서울특별시 은평구 대조동 91-20,서울특별시 은평구 통일로 793 동명여자정보산업고등학교,305112,557441,"교육,학문>고등학교",,02-383-2628,http://www.dmgii.hs.kr/
155,이화여자대<b>학교</b>사범대학부속 이화금란<b>고등학교</b>,서울특별시 서대문구 대신동 47,서울특별시 서대문구 성산로 560 이대부속고등학교,307208,552073,"교육,학문>고등학교",,02-361-6200,http://www.edaebugo.hs.kr/
156,인창<b>고등학교</b>,서울특별시 서대문구 충정로2가 70,서울특별시 서대문구 경기대로 65 인창중·고등학교,308627,551975,"교육,학문>고등학교",,,http://www.inchang.ne.kr/
157,명지<b>고등학교</b>,서울특별시 서대문구 홍은동 361-30,서울특별시 서대문구 명지2길 56 명지중·고등학교,305479,554098,"교육,학문>고등학교",,02-305-5951,http://www.myongjigo.net/
158,서울중앙여자<b>고등학교</b>,서울특별시 서대문구 북아현동 190-1,서울특별시 서대문구 북아현로11가길 7,307676,551690,"교육,학문>고등학교",,02-393-5126,http://www.jungang-girls.hs.kr/
159,한성<b>고등학교</b>,서울특별시 서대문구 북아현동 170-1,서울특별시 서대문구 북아현로1길 24 한성중·고등학교,307821,551344,"교육,학문>고등학교",,02-363-4943,http://www.hanseong.hs.kr/
160,가재울<b>고등학교</b>,서울특별시 서대문구 북가좌동 476,서울특별시 서대문구 수색로 100-35 가재울고등학교,303874,553031,"교육,학문>고등학교",,02-6351-0500,http://www.gajaeul.hs.kr/
161,한성화교<b>고등학교</b>,서울특별시 서대문구 연희동 89-3,,306274,552725,"교육,학문>고등학교",,,
162,한성과학<b>고등학교</b>,서울특별시 서대문구 현저동 산5-47,서울특별시 서대문구 통일로 279-79 한성과학고등학교,307673,553167,"교육,학문>고등학교",,02-6917-0000,http://hansung-sh.hs.kr
163,숭문<b>고등학교</b>,서울특별시 마포구 대흥동 28-14,서울특별시 마포구 숭문길 99 숭문중고등학교,307045,550378,"교육,학문>고등학교",,02-716-2980,http://soongmoon.sen.hs.kr/
164,서울디자인<b>고등학교</b>,서울특별시 마포구 염리동 150,서울특별시 마포구 백범로 139 동도중.서울디자인고등학교,307241,549938,"교육,학문>고등학교",,02-715-2261,http://www.seodi.hs.kr/
165,상암<b>고등학교</b>,서울특별시 마포구 상암동 1659,서울특별시 마포구 월드컵북로 445 상암고등학교,301568,553805,"교육,학문>고등학교",,02-373-0041,http://www.sangam.hs.kr/
166,광성<b>고등학교</b>,서울특별시 마포구 신수동 91-20,서울특별시 마포구 신수로8길 20 광성중고등학교,306242,550156,"교육,학문>고등학교",,02-703-3452,http://www.kwangsung.hs.kr/
167,경성<b>고등학교</b>,서울특별시 마포구 연남동 369-1,서울특별시 마포구 성미산로 111,304698,551802,"교육,학문>고등학교",,,http://www.gyeongseong.hs.kr/
168,서울여자<b>고등학교</b>,서울특별시 마포구 염리동 128-2,서울특별시 마포구 백범로25길 34 서울여자중고등학교,307256,550064,"교육,학문>고등학교",,02-703-2211,http://www.seoulgs.hs.kr/
169,홍익디자인<b>고등학교</b>,서울특별시 마포구 연남동 369-1,서울특별시 마포구 성미산로 111 경성중고등학교,304754,551714,"교육,학문>고등학교",,,http://www.hid.hs.kr/
170,홍익대<b>학교</b>사범대학부속여자<b>고등학교</b>,서울특별시 마포구 성산동 산11-31,서울특별시 마포구 성미산로 51,304127,551453,"교육,학문>고등학교",,02-331-7584,http://hongik68.hs.kr/
171,한세사이버보안<b>고등학교</b>,서울특별시 마포구 아현동 771,서울특별시 마포구 마포대로11길 44-80 한세사이버보안고등학교,307607,550477,"교육,학문>고등학교",,02-362-0130,http://www.hansei.org/
172,양정<b>고등학교</b>,서울특별시 양천구 목동 911-2,서울특별시 양천구 안양천로 1039 양정중학교.양정고등학교,301830,548660,"교육,학문>고등학교",,02-2649-7072,http://www.yangchung.hs.kr/
173,진명여자<b>고등학교</b>,서울특별시 양천구 목동 927-6,서울특별시 양천구 목동로 170 진명여고,299974,547463,"교육,학문>고등학교",,02-2643-1711,http://www.jm.hs.kr/
174,강서<b>고등학교</b>,서울특별시 양천구 목동 735,서울특별시 양천구 목동중앙남로 27,300008,548894,"교육,학문>고등학교",,02-2643-0723,http://www.gangseo.hs.kr/
175,목동<b>고등학교</b>,서울특별시 양천구 신정7동 325-8,서울특별시 양천구 목동동로2길 68 목동고등학교,299461,545841,"교육,학문>고등학교",,02-2652-1701,http://www.mokdong.hs.kr/
176,한가람<b>고등학교</b>,서울특별시 양천구 목동 909-12,서울특별시 양천구 목동서로 15 한가람고등학교,301564,548964,"교육,학문>고등학교",,02-2642-3862,http://www.hangaram.hs.kr/
177,백암<b>고등학교</b>,서울특별시 양천구 신정3동 733,서울특별시 양천구 신정로13길 16 백암고등학교,298077,546159,"교육,학문>고등학교",,02-2696-0110,http://baegam.sen.hs.kr/
178,서울금융<b>고등학교</b>,서울특별시 양천구 신월동 43-8,서울특별시 양천구 가로공원로61길 19 서울금융고등학교,296425,549010,"교육,학문>고등학교",,02-2694-3710,http://www.seoulfc.hs.kr/
179,서울영상<b>고등학교</b>,서울특별시 양천구 신정4동 984,서울특별시 양천구 목동로11길 46 서울영상고등학교,299446,547410,"교육,학문>고등학교",,02-2602-7121,http://www.youngsang.hs.kr/
180,금옥여자<b>고등학교</b>,서울특별시 양천구 신정동 729,서울특별시 양천구 신정로 213,298044,546053,"교육,학문>고등학교",,02-2086-7502,http://www.geumok.hs.kr/
181,광영여자<b>고등학교</b>,서울특별시 양천구 신월동 43-3,서울특별시 양천구 남부순환로30길 17 광영고등학교.광영여자고등학교.광영유치원,296352,549052,"교육,학문>고등학교",,02-2697-5553,http://www.kyg.hs.kr/
182,광영<b>고등학교</b>,서울특별시 양천구 신월동 43-3,서울특별시 양천구 남부순환로30길 17 광영고등학교.광영여자고등학교.광영유치원,296203,549027,"교육,학문>고등학교",,,http://www.ky.hs.kr/
183,양천<b>고등학교</b>,서울특별시 양천구 신정동 산109-1,서울특별시 양천구 신정로14길 13,298143,545846,"교육,학문>고등학교",,02-2605-5997,http://www.yangcheoncschool.net/
184,신목<b>고등학교</b>,서울특별시 양천구 신정동 330-3,서울특별시 양천구 안양천로 739 신목고등학교,300608,546203,"교육,학문>고등학교",,,http://www.shinmok.hs.kr/
185,대일관광<b>고등학교</b>,서울특별시 양천구 신정동 1318-3,서울특별시 양천구 신정이펜1로 11,297204,546114,"교육,학문>고등학교",,,http://www.daeil-tour.hs.kr
186,신서<b>고등학교</b>,서울특별시 양천구 신정4동 984-1,서울특별시 양천구 은행정로 42 신서고등학교,299452,547492,"교육,학문>고등학교",,,http://www.sinseo.hs.kr/
187,대일<b>고등학교</b>,서울특별시 강서구 등촌동 563-2,서울특별시 강서구 등촌로 105,299682,549122,"교육,학문>고등학교",,,http://www.daeil.hs.kr/
188,명덕<b>고등학교</b>,서울특별시 강서구 내발산동 169-1,서울특별시 강서구 강서로47길 34-10 명덕여자고등학교,297327,550788,"교육,학문>고등학교",,02-2664-8818,http://www.myungduk.hs.kr/
189,경복비즈니스<b>고등학교</b>,서울특별시 강서구 등촌동 131,서울특별시 강서구 화곡로 379,298827,551276,"교육,학문>고등학교",,02-3661-3425,http://www.kbb.hs.kr/
190,서울항공비즈니스<b>고등학교</b>,서울특별시 강서구 마곡동 731-253,서울특별시 강서구 방화대로34길 13,295747,552654,"교육,학문>고등학교",,02-2662-0066,http://www.sab.hs.kr/
191,성지중<b>고등학교</b>,서울특별시 강서구 화곡동 140-35,서울특별시 강서구 화곡로 182 성지고등학교,297855,549504,"교육,학문>고등학교",,02-2657-6240,http://www.sjschool.hs.kr/
192,서울신정<b>고등학교</b>,서울특별시 강서구 화곡동 477-1,서울특별시 강서구 등촌로13아길 20 신정여자중학교. 신정여자상업고등학교,299187,549079,"교육,학문>고등학교",,02-2644-3543,http://www.shinjung.hs.kr/
193,영일<b>고등학교</b>,서울특별시 강서구 등촌동 525,서울특별시 강서구 등촌로51가길 26 영일고등학교,299607,550061,"교육,학문>고등학교",,02-2653-8134,http://www.youngil.hs.kr/
194,마포<b>고등학교</b>,서울특별시 강서구 등촌동 82-1,서울특별시 강서구 화곡로 403 마포고등학교,298884,551467,"교육,학문>고등학교",,02-3663-2583,http://www.mapo.hs.kr/
195,공항<b>고등학교</b>,서울특별시 강서구 마곡동 733-3,서울특별시 강서구 방화대로34길 43 공항고등학교,295852,552673,"교육,학문>고등학교",,02-2664-6874,http://www.konghang.hs.kr/
196,화곡보건경영<b>고등학교</b>,서울특별시 강서구 내발산동 715,서울특별시 강서구 강서로45길 70 화곡중학교. 화곡보건경영고등학교,297052,550298,"교육,학문>고등학교",,,http://www.hwagok-gii.hs.kr/
197,한광<b>고등학교</b>,서울특별시 강서구 화곡동 488-2,서울특별시 강서구 등촌로13길 110,299270,549135,"교육,학문>고등학교",,02-2644-7073,http://www.hankwang.hs.kr/
198,동양<b>고등학교</b>,서울특별시 강서구 가양동 1464,서울특별시 강서구 허준로 50,298345,552475,"교육,학문>고등학교",,02-2657-0800,http://www.dongyang.hs.kr/
199,영등포공업<b>고등학교</b>,서울특별시 강서구 가양동 1468,서울특별시 강서구 허준로5길 15 영등포공업고등학교,298641,552485,"교육,학문>고등학교",,02-2659-2981,http://www.younggong.hs.kr/
200,명덕여자<b>고등학교</b>,서울특별시 강서구 내발산동 169-1 명덕여자고등학교,서울특별시 강서구 강서로47길 34-10 명덕여자고등학교,297197,550847,"교육,학문>고등학교",,02-2664-8814,http://www.mdgh.hs.kr/
201,강서공업<b>고등학교</b>,서울특별시 강서구 방화동 834,서울특별시 강서구 방화대로47길 9 강서공업고등학교,295594,553275,"교육,학문>고등학교",,02-2666-2106,http://www.gangseo-th.hs.kr/
202,세현<b>고등학교</b>,서울특별시 강서구 가양동 1491,서울특별시 강서구 허준로 227 세현고등학교,299794,551525,"교육,학문>고등학교",,02-3663-1495,http://www.sehyun.hs.kr/
203,경복여자<b>고등학교</b>,서울특별시 강서구 등촌동 131,서울특별시 강서구 화곡로63길 40 경복여자고등학교,298667,551325,"교육,학문>고등학교",,02-3662-2894,http://www.kb.hs.kr/
204,덕원여자<b>고등학교</b>,서울특별시 강서구 내발산동 산59-2,서울특별시 강서구 강서로45길 91-44 덕원여자고등학교,296702,550241,"교육,학문>고등학교",,,http://www.deokwon.hs.kr/
205,한서<b>고등학교</b>,서울특별시 강서구 방화동 478-34,서울특별시 강서구 양천로11길 47,294910,553173,"교육,학문>고등학교",,02-2662-0021,http://www.hanseo.hs.kr/
206,수명<b>고등학교</b>,서울특별시 강서구 내발산동 758,서울특별시 강서구 수명로2길 15 수명고등학교,296313,550381,"교육,학문>고등학교",,,http://www.sumyeong.hs.kr/
207,등촌<b>고등학교</b>,서울특별시 강서구 등촌동 691-2,서울특별시 강서구 공항대로39길 115 등촌고등학교,298164,551832,"교육,학문>고등학교",,02-3665-6045,http://www.dch.hs.kr/
208,화곡<b>고등학교</b>,서울특별시 강서구 내발산동 산48-3,서울특별시 강서구 강서로45길 69 화곡고등학교,296946,550171,"교육,학문>고등학교",,,http://www.hwagok.hs.kr/
209,덕원예술<b>고등학교</b>,서울특별시 강서구 내발산동 산59-2,서울특별시 강서구 강서로45길 91-44 덕원여자고등학교,296677,550348,"교육,학문>고등학교",,,http://dwarts.sen.hs.kr/
210,명덕외국어<b>고등학교</b>,서울특별시 강서구 내발산동 169-1,서울특별시 강서구 강서로47길 34-10,297119,550861,"교육,학문>고등학교",,02-2665-8818,http://www.mdfh.or.kr/
211,서서울생활과학<b>고등학교</b>,서울특별시 구로구 궁동 35,서울특별시 구로구 오리로 1355-10 서서울생활과학고등학교,296584,545276,"교육,학문>고등학교",,02-2613-5273,http://www.ssls.hs.kr/
212,우신<b>고등학교</b>,서울특별시 구로구 궁동 230,서울특별시 구로구 부일로 917 우신고등학교.우신중학교,296443,544340,"교육,학문>고등학교",,,http://www.wooshin.hs.kr/
213,고척<b>고등학교</b>,서울특별시 구로구 고척동 232,서울특별시 구로구 중앙로15길 162 고척고등학교,298595,545790,"교육,학문>고등학교",,02-2684-1593,http://www.gocheok.hs.kr/
214,구로<b>고등학교</b>,서울특별시 구로구 구로동 105-1,서울특별시 구로구 가마산로27길 45 구로고등학교,302052,544650,"교육,학문>고등학교",,02-851-2065,http://guro.hs.kr/
215,서울연희미용<b>고등학교</b>,서울특별시 구로구 가리봉동 137-21,서울특별시 구로구 남부순환로107길 22 연희교육센터,302429,542511,"교육,학문>고등학교",,02-855-0736,
216,예림디자인<b>고등학교</b>,서울특별시 구로구 궁동 110-1,서울특별시 구로구 오리로21길 2 오류고등학교.예림디자인고등학교,296518,544859,"교육,학문>고등학교",,02-2688-3515,http://yerim.hs.kr/
217,구일<b>고등학교</b>,서울특별시 구로구 구로동 685-194,서울특별시 구로구 구일로 90-51 구일고등학교,300625,544168,"교육,학문>고등학교",,02-858-2547,http://www.guil.hs.kr/
218,구현<b>고등학교</b>,서울특별시 구로구 구로동 620-30,서울특별시 구로구 경인로53가길 17 구현고등학교,300640,545071,"교육,학문>고등학교",,02-2628-8916,http://www.guhyun.hs.kr/
219,경인<b>고등학교</b>,서울특별시 구로구 고척동 66-28,서울특별시 구로구 경인로46길 31 경인고등학교,299897,544455,"교육,학문>고등학교",,02-2618-6446,http://www.kyeongin.hs.kr/
220,덕일전자공업<b>고등학교</b>,서울특별시 구로구 오류동 199-1,서울특별시 구로구 서해안로21길 5-12 덕일전자공업고등학교,297355,543794,"교육,학문>고등학교",,02-2613-2761,http://www.deogil.hs.kr/
221,오류<b>고등학교</b>,서울특별시 구로구 궁동 110-1,서울특별시 구로구 오리로21길 2,296587,544881,"교육,학문>고등학교",,02-2685-5920,http://www.oryu.hs.kr/
222,신도림<b>고등학교</b>,서울특별시 구로구 신도림동 270-2,서울특별시 구로구 경인로67길 159 신도림고등학교,301373,546360,"교육,학문>고등학교",,02-2068-7979,http://www.shindorim.hs.kr/
223,유한공업<b>고등학교</b>,서울특별시 구로구 항동 1-7,서울특별시 구로구 경인로 8,296063,543548,"교육,학문>고등학교",,,http://www.yuhan.hs.kr/
224,세종과학<b>고등학교</b>,서울특별시 구로구 궁동 232,서울특별시 구로구 오리로21길 79 세종과학고등학교,296513,544569,"교육,학문>고등학교",,,http://www.sjsh.hs.kr/
225,서울공연예술<b>고등학교</b>,서울특별시 구로구 궁동 147-1,서울특별시 구로구 오리로22나길 16-26 서울공연예술고등학교,296942,544862,"교육,학문>고등학교",,02-3281-9760,http://www.sopa.hs.kr/
226,국립전통예술<b>고등학교</b>,서울특별시 금천구 시흥동 산24-17,서울특별시 금천구 시흥대로38길 62,303439,538819,"교육,학문>고등학교",,02-896-1094,http://www.kugak-am.hs.kr/
227,금천<b>고등학교</b>,서울특별시 금천구 시흥동 산24-4,서울특별시 금천구 시흥대로38길 26 금천고등학교,303331,538683,"교육,학문>고등학교",,02-896-3181,http://www.keumcheon.hs.kr/
228,독산<b>고등학교</b>,서울특별시 금천구 독산동 907-34 독산고등학교,서울특별시 금천구 문성로 64 독산고등학교,303878,542128,"교육,학문>고등학교",,02-857-6248,http://www.doksan.hs.kr/
229,동일여자상업<b>고등학교</b>,서울특별시 금천구 시흥2동 산100-4,서울특별시 금천구 탑골로10길 45 동일유치원,304425,539380,"교육,학문>고등학교",,02-807-6333,http://dongil.sen.hs.kr/
230,문일<b>고등학교</b>,서울특별시 금천구 시흥동 559-1,서울특별시 금천구 시흥대로47길 45 문일중.고등학교,302786,539135,"교육,학문>고등학교",,02-803-5163,http://www.moonil.hs.kr/
231,동일여자<b>고등학교</b>,서울특별시 금천구 시흥2동 산100-4,서울특별시 금천구 탑골로10길 45 동일유치원,304322,539352,"교육,학문>고등학교",,02-803-9806,http://www.dongilg.hs.kr/
232,동일여자상업<b>고등학교</b> 행정실,서울특별시 금천구 시흥동 산100-4,서울특별시 금천구 탑골로10길 45,304425,539380,"교육,학문>고등학교",,,
233,서울경일중 경영정보<b>고등학교</b>,서울특별시 금천구 시흥1동 990-65,서울특별시 금천구 시흥대로47길 28-5 경일경영정보고등학교,302900,539239,"교육,학문>고등학교",,02-807-9222,http://www.kyungilmh.net/
234,장훈<b>고등학교</b>,서울특별시 영등포구 신길동 188-478,서울특별시 영등포구 영등포로64길 26 장훈고등학교,304283,546218,"교육,학문>고등학교",,02-842-6921,http://www.janghoon.hs.kr/
235,한강미디어<b>고등학교</b>,서울특별시 영등포구 양평동4가 315-1,서울특별시 영등포구 선유로55길 22 한강미디어고등학교,302756,549148,"교육,학문>고등학교",,02-2671-1448,http://www.hangang-ech.hs.kr/
236,여의도<b>고등학교</b>,서울특별시 영등포구 여의도동 30-1,서울특별시 영등포구 국제금융로7길 37 여의도고등학교,305971,547547,"교육,학문>고등학교",,02-782-0802,http://yeouido.sen.hs.kr/
237,대영<b>고등학교</b>,서울특별시 영등포구 신길동 336-2,서울특별시 영등포구 도림로86길 16 대영고등학교,303464,545193,"교육,학문>고등학교",,02-847-2019,http://www.dy.hs.kr/
238,선유<b>고등학교</b>,서울특별시 영등포구 양평동4가 10,서울특별시 영등포구 선유로 227 선유고등학교,302533,548551,"교육,학문>고등학교",,02-2069-0039,http://www.seonyoo.hs.kr/
239,관악<b>고등학교</b>,서울특별시 영등포구 양평동2가 23-2,서울특별시 영등포구 영등포로6길 26 관악고등학교,301454,547211,"교육,학문>고등학교",,02-2633-5954,http://www.kwan-ak.hs.kr/
240,영신<b>고등학교</b>,서울특별시 영등포구 신길동 4656-2,서울특별시 영등포구 대방천로14길 18,303773,544541,"교육,학문>고등학교",,02-834-6051,http://www.ysh.or.kr/
241,영등포여자<b>고등학교</b>,서울특별시 영등포구 신길동 184-3,서울특별시 영등포구 영등포로62길 13 영등포여자고등학교,304336,546464,"교육,학문>고등학교",,02-843-0479,http://www.ydpg.hs.kr/
242,여의도여자<b>고등학교</b>,서울특별시 영등포구 여의도동 40-2,서울특별시 영등포구 국제금융로7가길 13 여의도여자고등학교,306039,547282,"교육,학문>고등학교",,,http://yeouido-gh.sen.hs.kr
243,성남<b>고등학교</b>,서울특별시 동작구 대방동 375-1,서울특별시 동작구 대방동길 74 성남고등학교,305270,545324,"교육,학문>고등학교",,02-815-3645,http://www.sungnam.hs.kr/
244,서울공업<b>고등학교</b>,서울특별시 동작구 대방동 390-5,서울특별시 동작구 대방동1길 46 서울공업고등학교,304906,544932,"교육,학문>고등학교",,02-2082-1810,http://www.seoul-th.hs.kr/
245,숭의여자<b>고등학교</b>,서울특별시 동작구 대방동 20-114,서울특별시 동작구 여의대방로36길 79 숭의여자중고등학교,305499,545622,"교육,학문>고등학교",,,http://www.soongeui.hs.kr/
246,경문<b>고등학교</b>,서울특별시 동작구 동작동 산4-2,서울특별시 동작구 동작대로 171 경문고등학교,310140,543851,"교육,학문>고등학교",,02-535-1301,http://www.kyungmoon.hs.kr/
247,동작<b>고등학교</b>,서울특별시 동작구 사당동 236-5,서울특별시 동작구 솔밭로 51 동작고등학교(복합정보센타),308666,542749,"교육,학문>고등학교",,02-588-4196,http://www.dongjak.hs.kr/
248,수도여자<b>고등학교</b>,서울특별시 동작구 신대방동 470-13,서울특별시 동작구 여의대방로10길 73 수도여자고등학교,304290,544030,"교육,학문>고등학교","<b>서울특별시 동작구</b> 신대방동 위치, <b>학교</b>소개, 학생활동, 사이버학습, 입시정보 등 안내.",02-2102-3509,http://www.sudo-gh.hs.kr/
249,영등포<b>고등학교</b>,서울특별시 동작구 대방동 13-2,서울특별시 동작구 등용로8길 5 영등포중학교,305963,545684,"교육,학문>고등학교",,02-816-8323,http://www.ydp.hs.kr/
250,영등포<b>고등학교</b>부설 방송통신<b>고등학교</b>,서울특별시 동작구 대방동 13-2,서울특별시 동작구 등용로8길 5 영등포중학교,305963,545684,"교육,학문>고등학교","<b>서울특별시 동작구</b> 대방동 위치, <b>학교</b>소개, 학습자료, 생활정보, 행사일정 등 안내.",02-816-8325,
251,신동신정보산업<b>고등학교</b>,서울특별시 동작구 사당동 105-9,서울특별시 동작구 동작대로33마길 27-1,309829,543665,"교육,학문>고등학교",,02-599-5586,http://www.dongshinv.hs.kr/
252,수도여자<b>고등학교</b>부설방송통신<b>고등학교</b>,서울특별시 동작구 신대방동 470-13,서울특별시 동작구 여의대방로10길 73,304331,544005,"교육,학문>고등학교",,,
253,인헌<b>고등학교</b>,서울특별시 관악구 봉천동 174-5,서울특별시 관악구 인헌9길 74 인헌고등학교,309101,541548,"교육,학문>고등학교",,02-886-6253,http://www.inhun.hs.kr/
254,서울관광<b>고등학교</b>,서울특별시 관악구 봉천동 622-59,서울특별시 관악구 은천로15길 25 서울관광고등학교,306779,543408,"교육,학문>고등학교",,02-884-9117,http://www.seoul-tour.hs.kr/
255,삼성<b>고등학교</b>,서울특별시 관악구 신림동 222,서울특별시 관악구 신림로 41,306768,541320,"교육,학문>고등학교",,02-871-7582,http://samsung.sen.hs.kr/
256,서울미술<b>고등학교</b>,서울특별시 관악구 행운동 1690-133,서울특별시 관악구 남부순환로247길 26 서울미술고등학교,308835,542132,"교육,학문>고등학교",,02-872-2111,http://www.seoul-art.or.kr/
257,남강<b>고등학교</b>,서울특별시 관악구 난곡동 627-1,서울특별시 관악구 난곡로34길 80 남강중고등학교,305168,541692,"교육,학문>고등학교",,02-839-1701,http://www.namkang.hs.kr/
258,광신<b>고등학교</b>,서울특별시 관악구 신림동 산87-6,서울특별시 관악구 광신길 141 광신중고등학교,305165,540828,"교육,학문>고등학교",,02-881-8532,http://www.kwangshin.hs.kr/
259,구암<b>고등학교</b>,서울특별시 관악구 봉천동 1712-25,서울특별시 관악구 성현로 57 서울구암고등학교,307343,543891,"교육,학문>고등학교",,02-879-9813,http://www.guahm.hs.kr/
260,서울여자상업<b>고등학교</b>,서울특별시 관악구 봉천동 1695,서울특별시 관악구 관악로 85,307375,541661,"교육,학문>고등학교",,02-873-3613,http://www.sys.hs.kr/
261,당곡<b>고등학교</b>,서울특별시 관악구 봉천동 677,서울특별시 관악구 봉천로21길 108 당곡고등학교,305992,543801,"교육,학문>고등학교",,02-6717-5200,http://www.danggok.hs.kr/
262,미림여자정보과학<b>고등학교</b>,서울특별시 관악구 신림동 1557-1,서울특별시 관악구 호암로 546 미림여자고등학교,305787,541018,"교육,학문>고등학교",,02-872-4071,http://www.e-mirim.hs.kr/
263,광신정보산업<b>고등학교</b>,서울특별시 관악구 신림동 329,서울특별시 관악구 광신길 141 광신중고등학교,305081,540952,"교육,학문>고등학교",,02-881-8510,http://ksmedia.sen.hs.kr/
264,미림여자<b>고등학교</b>,서울특별시 관악구 신림동 1557-1,서울특별시 관악구 호암로 546 미림여자고등학교,305779,541131,"교육,학문>고등학교",,02-886-1812,http://www.mirim.hs.kr/
265,문영여자<b>고등학교</b>,서울특별시 관악구 봉천동 1695,서울특별시 관악구 관악로 85,307420,541782,"교육,학문>고등학교",,02-873-3624,http://www.moonyoung.seoul.kr/
266,성보<b>고등학교</b>,서울특별시 관악구 신림동 1690,서울특별시 관악구 남부순환로156길 39 성보고등학교,304664,542523,"교육,학문>고등학교",,02-862-8410,http://www.sungbo.hs.kr/
267,영락<b>고등학교</b>,서울특별시 관악구 봉천동 1558-1,"서울특별시 관악구 청룡16길 25 영락여자상업고등학교, 영락고등학교",306815,542103,"교육,학문>고등학교",,02-884-1006,http://www.yrgo.kr/
268,신림<b>고등학교</b>,서울특별시 관악구 미성동 산197-1,서울특별시 관악구 문성로 119 신림고등학교,304408,542392,"교육,학문>고등학교",,02-6219-8300,http://www.sillim.hs.kr/
269,영락의료과학<b>고등학교</b>,서울특별시 관악구 봉천동 1558-1,서울특별시 관악구 청룡16길 25,306874,542137,"교육,학문>고등학교",,02-884-1004,http://www.youngnak-c.hs.kr/
270,서울<b>고등학교</b>,서울특별시 서초구 서초3동 1526-1,서울특별시 서초구 효령로 197 서울고등학교,312240,542866,"교육,학문>고등학교",,02-582-8151,http://www.seoul.hs.kr/
271,세화<b>고등학교</b>,서울특별시 서초구 반포본동 753,서울특별시 서초구 신반포로 56-7 세화여자중학교,311052,544888,"교육,학문>고등학교",,02-594-4886,http://www.se-hwa.hs.kr/
272,서초<b>고등학교</b>,서울특별시 서초구 서초3동 1504,서울특별시 서초구 반포대로27길 29 서초고등학교,312252,543482,"교육,학문>고등학교",,02-584-2841,http://www.seocho.hs.kr/
273,세화여자<b>고등학교</b>,서울특별시 서초구 반포동 753,"서울특별시 서초구 신반포로 56-7 세화고,세화여고,세화여중",311186,544924,"교육,학문>고등학교",,02-537-2131,http://www.sehwa-gs.hs.kr/
274,동덕여자<b>고등학교</b>,서울특별시 서초구 방배3동 산82,서울특별시 서초구 효령로2길 123-5 동덕여자중고등학교,311069,542013,"교육,학문>고등학교",,02-586-5418,http://www.dongduk.hs.kr/
275,양재<b>고등학교</b>,서울특별시 서초구 서초동 1376-4,서울특별시 서초구 남부순환로346길 9 양재고등학교,314645,542750,"교육,학문>고등학교",,02-571-4457,http://www.yangjae.hs.kr/
276,상문<b>고등학교</b>,서울특별시 서초구 방배동 1000-1,서울특별시 서초구 명달로 45 상문고등학교,312094,542465,"교육,학문>고등학교",,02-586-3141,http://www.sangmoon.hs.kr/
277,서문여자<b>고등학교</b>,서울특별시 서초구 방배동 1514,서울특별시 서초구 동광로12길 84 서문여자고등학교,310482,543497,"교육,학문>고등학교",,02-599-6061,http://www.suhmoon.hs.kr/
278,언남<b>고등학교</b>,서울특별시 서초구 양재동 309 언남고등학교,서울특별시 서초구 동산로13길 35 언남고등학교,315542,541615,"교육,학문>고등학교",,02-575-2680,http://www.eonnam.hs.kr/
279,서울전자<b>고등학교</b>,서울특별시 서초구 방배동 2727 서울전자고등학교,서울특별시 서초구 과천대로 852-23 서울전자고등학교,310709,541345,"교육,학문>고등학교",,,http://www.e-seoul.hs.kr/
280,반포<b>고등학교</b>,서울특별시 서초구 반포1동 30-19,서울특별시 서초구 고무래로 71 반포고등학교,313225,544904,"교육,학문>고등학교",,02-2258-4300,http://banpo.sen.hs.kr/
281,국립국악<b>고등학교</b>,서울특별시 강남구 개포동 1272,서울특별시 강남구 개포로22길 65 국악고등학교,316284,542012,"교육,학문>고등학교",,,http://www.gugak.hs.kr/
282,단국대<b>학교</b>사범대학부속<b>고등학교</b>,서울특별시 강남구 대치동 1013-3,서울특별시 강남구 도곡로64길 21 단국공업고등학교,316751,544133,"교육,학문>고등학교",,02-2191-2600,http://www.dan-kook.hs.kr/
283,중동<b>고등학교</b>,서울특별시 강남구 일원동 618,서울특별시 강남구 일원로 7 중동고등학교,318941,543896,"교육,학문>고등학교",,02-3411-0100,http://www.joongdong.hs.kr/
284,영동<b>고등학교</b>,서울특별시 강남구 청담동 23-4,서울특별시 강남구 선릉로 742 영동고등학교,315636,546886,"교육,학문>고등학교",,02-542-5071,http://www.yd.hs.kr/
285,수도전기공업<b>고등학교</b>,서울특별시 강남구 개포2동 155,서울특별시 강남구 개포로 410 수도전기공업고등학교,317382,543024,"교육,학문>고등학교",,,http://www.sudo.hs.kr/
286,휘문<b>고등학교</b>,서울특별시 강남구 대치동 952-1,서울특별시 강남구 역삼로 541 휘문중고등학교,317212,545202,"교육,학문>고등학교",,,http://www.whimoon.hs.kr/
287,현대<b>고등학교</b>,서울특별시 강남구 압구정동 425,서울특별시 강남구 압구정로 127 현대고등학교,313785,547486,"교육,학문>고등학교",,02-546-6323,http://www.hyundai.hs.kr/
288,경기<b>고등학교</b>,서울특별시 강남구 삼성동 74-4,서울특별시 강남구 영동대로 643 경기고등학교,316765,546464,"교육,학문>고등학교",,02-3496-7300,http://www.kyunggi.hs.kr/
289,압구정<b>고등학교</b>,서울특별시 강남구 압구정동 470,서울특별시 강남구 압구정로39길 20 압구정고등학교,314708,548108,"교육,학문>고등학교",,02-549-0213,http://apgujeong.sen.hs.kr/
290,세종<b>고등학교</b>,서울특별시 강남구 수서동 711,서울특별시 강남구 광평로51길 36 세종고등학교,320817,543512,"교육,학문>고등학교",,,http://www.seoulsejong.hs.kr/
291,중산<b>고등학교</b>,서울특별시 강남구 일원동 714,서울특별시 강남구 일원로14길 22 중산고등학교,318905,543023,"교육,학문>고등학교",,02-2226-2161,http://www.jungsan.hs.kr/
292,진선여자<b>고등학교</b>,서울특별시 강남구 역삼2동 713,서울특별시 강남구 선릉로85길 27 진선여자고등학교,315934,544849,"교육,학문>고등학교",,02-2148-0400,http://www.jinseon.hs.kr/
293,서울로봇<b>고등학교</b>,서울특별시 강남구 일원동 738,서울특별시 강남구 광평로20길 63 서울로봇고등학교,319238,542474,"교육,학문>고등학교",,02-2226-2141,http://www.seoulrobot.hs.kr/
294,숙명여자<b>고등학교</b>,서울특별시 강남구 도곡동 91,서울특별시 강남구 남부순환로 2807 숙명여자고등학교,316392,543565,"교육,학문>고등학교",,02-3462-5011,http://sm.sen.hs.kr/
295,경기여자<b>고등학교</b>,서울특별시 강남구 개포동 152,서울특별시 강남구 삼성로 29 경기여자고등학교,317573,543150,"교육,학문>고등학교",,02-573-6797,http://www.kgg.hs.kr/
296,풍문<b>고등학교</b>,서울특별시 강남구 자곡동 643,서울특별시 강남구 자곡로 152,320641,541410,"교육,학문>고등학교",,02-3451-8800,http://www.poongmoon.hs.kr/
297,개포<b>고등학교</b>,서울특별시 강남구 개포동 173,서울특별시 강남구 개포로 402 개포고등학교,317004,542966,"교육,학문>고등학교",,02-576-3333,http://gaepo.sen.hs.kr/
298,청담<b>고등학교</b>,서울특별시 강남구 압구정동 526,서울특별시 강남구 압구정로 419 청담고등학교,315658,547742,"교육,학문>고등학교",,02-3496-8234,http://chungdam.sen.hs.kr/
299,중앙대<b>학교</b>사범대학부속<b>고등학교</b>,서울특별시 강남구 도곡동 산21,서울특별시 강남구 선릉로 207 중대부속고교,316373,543734,"교육,학문>고등학교",,02-579-4005,http://www.cau.hs.kr/
300,대진디자인<b>고등학교</b>,서울특별시 강남구 수서동 733,서울특별시 강남구 광평로39길 93 대진디자인고등학교,320275,543532,"교육,학문>고등학교",,02-2226-8418,http://www.daejindesign.hs.kr/
301,은광여자<b>고등학교</b>,서울특별시 강남구 도곡동 938-10,서울특별시 강남구 남부순환로359길 36 은광여자고등학교,314892,543374,"교육,학문>고등학교",,02-3462-2005,http://www.eunkwang.hs.kr/
302,단국공업<b>고등학교</b>,서울특별시 강남구 대치1동 1013,서울특별시 강남구 도곡로64길 21 단국공업고등학교,316866,544132,"교육,학문>고등학교",,02-2116-0125,http://www.dankook.hs.kr/
303,경기여자<b>고등학교</b>부설 방송통신<b>고등학교</b>,서울특별시 강남구 개포동 152,서울특별시 강남구 삼성로 29 경기여자고등학교,317596,543160,"교육,학문>고등학교","<b>서울특별시 강남구</b> 개포2동 위치, <b>학교</b> 소개, 학습자료, 생활정보, 행사일정 등 안내.",02-3462-4311,
304,보인<b>고등학교</b>,서울특별시 송파구 오금동 162,서울특별시 송파구 오금로49길 18 보인중고등학교,324015,544251,"교육,학문>고등학교",,02-2043-6021,http://www.boin.hs.kr/
305,잠신<b>고등학교</b>,서울특별시 송파구 잠실동 22-2,서울특별시 송파구 잠실로 24 잠신고등학교,319680,546338,"교육,학문>고등학교",,02-417-8770,http://www.jamsin.or.kr/
306,잠실<b>고등학교</b>,서울특별시 송파구 신천동 17-1,서울특별시 송파구 올림픽로33길 71 잠실고등학교,321207,547101,"교육,학문>고등학교",,02-2141-3700,http://www.jamsil.hs.kr/
307,보성<b>고등학교</b>,서울특별시 송파구 방이동 89-22,서울특별시 송파구 양재대로 1278 보성중고등학교,323759,546713,"교육,학문>고등학교",,02-406-1341,http://www.posung.hs.kr/
308,배명<b>고등학교</b>,서울특별시 송파구 삼전동 172-1,서울특별시 송파구 삼학사로 11 배명중고등학교,320239,544462,"교육,학문>고등학교",,02-414-5820,http://www.bm.hs.kr/
309,가락<b>고등학교</b>,서울특별시 송파구 송파동 172,서울특별시 송파구 송이로 42 가락고등학교,322132,544742,"교육,학문>고등학교",,02-416-4658,http://www.garak.hs.kr/
310,송파공업<b>고등학교</b>,서울특별시 송파구 거여동 331,서울특별시 송파구 양산로 21 송파공업고등학교,324359,543639,"교육,학문>고등학교",,02-6711-0595,http://www.songpa-th.hs.kr/
311,잠실여자<b>고등학교</b>,서울특별시 송파구 송파동 99-2,서울특별시 송파구 송파대로38길 8 잠실여자고등학교,321780,544836,"교육,학문>고등학교",,,http://www.jamsilg.hs.kr/
312,오금<b>고등학교</b>,서울특별시 송파구 오금동 34-3,서울특별시 송파구 중대로 247 오금고등학교,323221,545111,"교육,학문>고등학교",,02-406-0592,http://www.ogum.hs.kr/
313,방산<b>고등학교</b>,서울특별시 송파구 방이동 220-5,서울특별시 송파구 오금로27길 18 방산고등학교,322453,545506,"교육,학문>고등학교",,02-418-2602,http://www.bangsan.hs.kr/
314,영파여자<b>고등학교</b>,서울특별시 송파구 풍납동 501 영파여자고등학교,서울특별시 송파구 올림픽로 565 영파여자고등학교,322406,548135,"교육,학문>고등학교",,02-483-8881,http://www.youngpa.hs.kr/
315,정신여자<b>고등학교</b>,서울특별시 송파구 잠실동 50-4,서울특별시 송파구 올림픽로4길 16 정신여자중고등학교,318140,545587,"교육,학문>고등학교",,,http://www.chungshin.hs.kr/
316,일신여자상업<b>고등학교</b>,서울특별시 송파구 송파동 179,서울특별시 송파구 송파대로38길 8 일신여자상업고등학교,321900,544783,"교육,학문>고등학교",,,http://www.ilshin.hs.kr/
317,창덕여자<b>고등학교</b>,서울특별시 송파구 방이동 89-6,서울특별시 송파구 양재대로 1240 창덕여자고등학교,324199,546355,"교육,학문>고등학교","<b>서울특별시 송파구</b> 방이동 위치, <b>학교</b>소개, 학생활동, 사이버상담실 등 안내.",,http://www.changduk.hs.kr/
318,잠일<b>고등학교</b>,서울특별시 송파구 잠실동 19-2,서울특별시 송파구 백제고분로 21 잠일고등학교,319101,546196,"교육,학문>고등학교",,02-2141-2000,http://www.jamil.hs.kr/
319,영동일<b>고등학교</b>,서울특별시 송파구 잠실동 35-1,서울특별시 송파구 석촌호수로 93 영동일고등학교,319754,545692,"교육,학문>고등학교",,,http://www.ydi.hs.kr/
320,문정<b>고등학교</b>,서울특별시 송파구 문정동 90,서울특별시 송파구 송이로34길 62 문정고등학교,322961,542947,"교육,학문>고등학교",,02-406-6758,http://www.mj.hs.kr/
321,거여<b>고등학교</b>(2020년3월예정),서울특별시 송파구 거여동 43,,324755,542923,"교육,학문>고등학교",,,
322,한림중실업<b>고등학교</b>,서울특별시 송파구 장지동 850,서울특별시 송파구 충민로 172,323576,542922,"교육,학문>고등학교",,,http://hl.hs.kr/
323,문현<b>고등학교</b>,서울특별시 송파구 장지동 838,서울특별시 송파구 충민로 115 문현고등학교,323142,542488,"교육,학문>고등학교",,02-6951-8702,http://www.munhyeon.hs.kr/
324,문현<b>고등학교</b> 행정실,서울특별시 송파구 장지동 838,서울특별시 송파구 충민로 115,323142,542488,"교육,학문>고등학교",,,
325,방산<b>고등학교</b> 교무실,서울특별시 송파구 방이동 220-5,서울특별시 송파구 오금로27길 18,322453,545506,"교육,학문>고등학교",,02-418-2602,
326,한림연예예술<b>고등학교</b>,서울특별시 송파구 장지동 850,서울특별시 송파구 충민로 172 한림연예예술고교,323576,542922,"교육,학문>고등학교",,02-409-1021,http://www.hlyes.hs.kr/
327,서울체육<b>고등학교</b>,서울특별시 송파구 방이동 88-14,서울특별시 송파구 강동대로 232 서울체육중학교 본관동,323347,546979,"교육,학문>고등학교",,,http://seoul-ph.sen.hs.kr/
328,광문<b>고등학교</b>,서울특별시 강동구 고덕동 295,서울특별시 강동구 동남로 968 광문고등학교,325799,551244,"교육,학문>고등학교",,02-427-2870,http://www.gwangmun.com/
329,배재<b>고등학교</b>,서울특별시 강동구 고덕동 313,"서울특별시 강동구 고덕로 227 배재중,고등학교",325172,550774,"교육,학문>고등학교",,02-441-8171,http://www.paichai.hs.kr/
330,성덕<b>고등학교</b>,서울특별시 강동구 천호동 23-3,서울특별시 강동구 구천면로 396 성덕고등학교,324397,550159,"교육,학문>고등학교",,02-475-4620,http://ssd.hs.kr/
331,동북<b>고등학교</b>,서울특별시 강동구 둔촌동 180-2,서울특별시 강동구 강동대로 305 동북중.고등학교,324286,546747,"교육,학문>고등학교",,02-482-2860,http://dongbuk.hs.kr/
332,선사<b>고등학교</b>,서울특별시 강동구 암사동 448,서울특별시 강동구 고덕로25길 17 선사고등학교,323847,550815,"교육,학문>고등학교",,02-426-1749,http://www.sunsa.hs.kr/
333,둔촌<b>고등학교</b>,서울특별시 강동구 둔촌동 79-3,서울특별시 강동구 명일로 140 둔촌고등학교,324579,547988,"교육,학문>고등학교",,02-485-9873,http://www.doonchon.hs.kr/
334,상일미디어<b>고등학교</b>,서울특별시 강동구 상일동 189,서울특별시 강동구 천호대로219길 61 상일여자고등학교,326854,549913,"교육,학문>고등학교",,02-428-0732,http://www.sangilmedia.hs.kr/
335,서울컨벤션<b>고등학교</b>,서울특별시 강동구 고덕동 295-1,서울특별시 강동구 동남로 964,325825,551122,"교육,학문>고등학교",,02-3427-6321,http://www.seoul-chs.hs.kr/
336,상일여자<b>고등학교</b>,서울특별시 강동구 상일동 189,서울특별시 강동구 천호대로219길 61,326829,549997,"교육,학문>고등학교",,02-428-0435,http://www.sangil.hs.kr/
337,강동<b>고등학교</b>,서울특별시 강동구 상일동 267,서울특별시 강동구 구천면로 572 강동고등학교,326031,550082,"교육,학문>고등학교",,02-427-0231,http://www.kangdong.hs.kr/
338,한영<b>고등학교</b>,서울특별시 강동구 상일동 166,서울특별시 강동구 동남로 832 한영중.고등학교,325820,549965,"교육,학문>고등학교",,02-6954-1204,http://hanyoung.sen.hs.kr/
339,명일여자<b>고등학교</b>,서울특별시 강동구 명일동 40,서울특별시 강동구 명일로 350 명일여자고등학교,325119,550092,"교육,학문>고등학교",,02-481-8192,http://www.myungil.hs.kr/
340,강일<b>고등학교</b>,서울특별시 강동구 강일동 685-1,서울특별시 강동구 아리수로98길 40 서울강일고등학교,327573,551656,"교육,학문>고등학교",,02-428-6200,http://www.gang-il.hs.kr/
341,한영외국어<b>고등학교</b>,서울특별시 강동구 상일동 166,"서울특별시 강동구 동남로 832 한영중,고등학교",325731,549885,"교육,학문>고등학교",,02-6954-1703,http://www.hyfl.hs.kr/
