,title,address,roadAddress,mapx,mapy,category,description,telephone,link
0,경신<b>중학교</b>,서울특별시 종로구 혜화동 5-119,서울특별시 종로구 혜화로 74 경신중고등학교,311992,554773,"교육,학문>중학교",,02-762-0388,http://www.ksms.ms.kr/
1,서울대학교 사범대학 부설여자<b>중학교</b>,서울특별시 종로구 동숭동 199-1,서울특별시 종로구 대학로 64 서울사대부속초등학교,312201,553321,"교육,학문>중학교",,02-762-5252,http://www.snu-g.ms.kr/
2,동성<b>중학교</b>,서울특별시 종로구 혜화동 90-7,서울특별시 종로구 대학로 156 동성중고교,312104,554174,"교육,학문>중학교",,02-3671-9116,http://www.sds.ms.kr/
3,청운<b>중학교</b>,서울특별시 종로구 청운동 89-142,서울특별시 종로구 창의문로 51,309331,554605,"교육,학문>중학교",,02-737-0582,http://www.cheong-un.ms.kr/
4,덕성여자<b>중학교</b>,서울특별시 종로구 송현동 34,서울특별시 종로구 율곡로3길 49 덕성여자중학교,310267,553351,"교육,학문>중학교",,02-733-4807,http://www.duksung.ms.kr/
5,배화여자<b>중학교</b>,서울특별시 종로구 필운동 12,서울특별시 종로구 필운대로1길 34 배화여자대학,308951,553532,"교육,학문>중학교",,02-725-6451,http://www.paiwha.ms.kr/
6,중앙<b>중학교</b>,서울특별시 종로구 계동 1,서울특별시 종로구 창덕궁길 164 중앙중학교,310728,554257,"교육,학문>중학교",,02-742-1323,http://www.choongang.ms.kr/
7,대신<b>중학교</b>,서울특별시 종로구 행촌동 171-1,서울특별시 종로구 사직로 9,308517,552900,"교육,학문>중학교",<b>서울특별시 종로구</b> 행촌동 위치.,02-736-0317,http://www.dae-shin.ms.kr/
8,상명대학교 사범대학 부속여자<b>중학교</b>,서울특별시 종로구 홍지동 7-1,서울특별시 종로구 홍지문2길 20 상명대학교,307851,556133,"교육,학문>중학교",,02-396-6300,http://www.sangmyung-agm.ms.kr/
9,창덕여자<b>중학교</b>,서울특별시 중구 정동 27-3,서울특별시 중구 정동길 22 창덕여자중학교,309150,552119,"교육,학문>중학교",,,http://www.changdeok.ms.kr/
10,장원<b>중학교</b>,서울특별시 중구 신당동 432-35,서울특별시 중구 동호로15길 93-34 장원중학교,312322,550615,"교육,학문>중학교",,02-2238-1181,http://www.jangwon.ms.kr/
11,금호여자<b>중학교</b>,서울특별시 중구 동화동 36-234,서울특별시 중구 청구로 6 금호여중학교,313657,551102,"교육,학문>중학교",,,http://www.kum-ho.ms.kr/
12,덕수<b>중학교</b>,서울특별시 중구 인현동2가 3,서울특별시 중구 마른내로9길 10 덕수중학교,311601,551944,"교육,학문>중학교",,02-2265-9626,http://www.ducksu.ms.kr/
13,한양<b>중학교</b>,서울특별시 중구 을지로7가 2-21,,312814,551964,"교육,학문>중학교",,02-2234-4725,http://www.hanyang.ms.kr/
14,대경<b>중학교</b>,서울특별시 중구 신당동 333-579,서울특별시 중구 매봉18길 109 동산초등학교,313347,551005,"교육,학문>중학교",,02-2235-5158,http://www.daekyeong.ms.kr/
15,환일<b>중학교</b>,서울특별시 중구 만리동2가 218-2,서울특별시 중구 환일길 47,308555,550663,"교육,학문>중학교",,,http://www.hwanil.ms.kr/
16,장충<b>중학교</b>,서울특별시 중구 신당동 432-460,서울특별시 중구 동호로15길 93 장충고등학교 도서관 3동,312389,550574,"교육,학문>중학교",<b>서울특별시 중구</b> 신당동 위치.,02-2233-9990,http://www.jangchung.ms.kr/
17,용강<b>중학교</b>,서울특별시 용산구 이촌동 301-78,서울특별시 용산구 이촌로65가길 91,309654,547068,"교육,학문>중학교",,,http://www.yonggang.ms.kr/
18,선린<b>중학교</b>,서울특별시 용산구 청파동3가 131-2,서울특별시 용산구 원효로97길 33-4 선린인터넷고등학교,308742,549447,"교육,학문>중학교",,02-713-6214,http://www.sunrin.ms.kr/
19,용산<b>중학교</b>,서울특별시 용산구 후암동 1-1623,서울특별시 용산구 두텁바위로 74,310169,549846,"교육,학문>중학교",<b>서울특별시 용산구</b> 용산동 위치.,,http://www.yong-san.ms.kr/
20,한강<b>중학교</b>,서울특별시 용산구 서빙고동 4-1,서울특별시 용산구 녹사평대로 73 한강중학교,311109,547372,"교육,학문>중학교",,02-794-1791,http://www.hangang.ms.kr/
21,성심여자<b>중학교</b>,서울특별시 용산구 원효로4가 1-1,서울특별시 용산구 원효로19길 49,307826,548560,"교육,학문>중학교",,02-3273-4135,http://www.sacredheart.ms.kr/
22,신광여자<b>중학교</b>,서울특별시 용산구 청파동3가 100,서울특별시 용산구 청파로 263 학교법인신광학원,309190,549514,"교육,학문>중학교",<b>서울특별시 용산구</b> 청파동 위치.,,http://www.shinkwang.ms.kr/
23,보성여자<b>중학교</b>,서울특별시 용산구 용산동2가 1-1123,서울특별시 용산구 신흥로3가길 66,310448,549415,"교육,학문>중학교",,,http://www.bosung-g.ms.kr/
24,배문<b>중학교</b>,서울특별시 용산구 서계동 259-3,서울특별시 용산구 효창원로 258 배문중고등학교,308651,550250,"교육,학문>중학교",,,http://www.baemoon.ms.kr/
25,오산<b>중학교</b>,서울특별시 용산구 보광동 168-73,서울특별시 용산구 보광로7길 17,311763,547343,"교육,학문>중학교",,02-799-9400,http://www.os.ms.kr/
26,행당<b>중학교</b>,서울특별시 성동구 행당동 66-3,서울특별시 성동구 왕십리로 189 행당여자중학교,315579,550700,"교육,학문>중학교",,02-2292-2721,http://www.haengdang.ms.kr/
27,광희<b>중학교</b>,서울특별시 성동구 응봉동 193,서울특별시 성동구 독서당로62길 46,314831,550328,"교육,학문>중학교",,02-2298-0251,http://www.kwanghee.ms.kr/
28,옥정<b>중학교</b>,서울특별시 성동구 옥수동 227,서울특별시 성동구 한림말길 11 옥정중학교,312920,549290,"교육,학문>중학교",,02-2297-4604,http://www.okjung.ms.kr/
29,성수<b>중학교</b>,서울특별시 성동구 성수동1가 685-143,서울특별시 성동구 서울숲길 18,315249,549889,"교육,학문>중학교",,02-463-4786,http://www.seongsu.ms.kr/
30,무학<b>중학교</b>,서울특별시 성동구 행당동 322-1,서울특별시 성동구 고산자로 197 무학여자고등학교,314686,551051,"교육,학문>중학교",,02-2298-6141,http://www.muhakg.ms.kr/
31,경수<b>중학교</b>,서울특별시 성동구 성수동2가 268,서울특별시 성동구 뚝섬로13길 22 경수초등학교,316969,549018,"교육,학문>중학교",,02-464-0675,http://www.gsu.ms.kr/
32,마장<b>중학교</b>,서울특별시 성동구 마장동 766-49,서울특별시 성동구 마장로35나길 31,315561,552270,"교육,학문>중학교",,02-2282-2933,http://www.mj.ms.kr/
33,경일<b>중학교</b>,서울특별시 성동구 성수동1가 22-27,서울특별시 성동구 성수일로 27,316121,549445,"교육,학문>중학교",,02-468-0651,http://www.kyungil.ms.kr/
34,동마<b>중학교</b>,서울특별시 성동구 마장동 405-45,서울특별시 성동구 마조로11길 18 동마중학교,315373,551600,"교육,학문>중학교",,02-2294-6086,http://www.dongma.ms.kr/
35,한양대학교사범대학부속<b>중학교</b>,서울특별시 성동구 사근동 223,서울특별시 성동구 살곶이2길 17,315685,551485,"교육,학문>중학교",,,http://www.hanyang-u.ms.kr/
36,성원<b>중학교</b>,서울특별시 성동구 성수동2가 333-17,서울특별시 성동구 성덕정9가길 13 성원중학교,316427,549005,"교육,학문>중학교",,02-3408-2552,http://www.sungwon.ms.kr/
37,대원국제<b>중학교</b>,서울특별시 광진구 중곡동 176-124,서울특별시 광진구 용마산로22길 26 대원여자고등학교,319754,551684,"교육,학문>중학교",,02-2204-1592,http://www.daewon.ms.kr/
38,건국대학교 사범대학 부속<b>중학교</b>,서울특별시 광진구 화양동 1,서울특별시 광진구 자양로 145-1 건국대학교부속중고등학교,319116,549182,"교육,학문>중학교",,02-457-0318,http://www.konkuk.ms.kr/
39,동국대학교사범대학부속여자<b>중학교</b>,서울특별시 광진구 구의동 238-1,서울특별시 광진구 광나루로36길 47 동국대학교사범대학부속여자중고등학교,319553,549330,"교육,학문>중학교",,02-6948-2280,http://www.donggukgirls.ms.kr/
40,자양<b>중학교</b>,서울특별시 광진구 자양동 524-10,서울특별시 광진구 뚝섬로41길 33,318412,548560,"교육,학문>중학교",,02-446-0365,http://www.jayang.ms.kr/
41,광남<b>중학교</b>,서울특별시 광진구 광장동 554-15,서울특별시 광진구 아차산로70길 17-62,320820,549109,"교육,학문>중학교",,02-456-8793,http://www.gwangnam.ms.kr/
42,양진<b>중학교</b>,서울특별시 광진구 광장동 414-1,서울특별시 광진구 워커힐로 32,320522,549590,"교육,학문>중학교",,02-2049-1200,http://www.yangjin.ms.kr/
43,광장<b>중학교</b>,서울특별시 광진구 광장동 394-5,서울특별시 광진구 광장로1길 1 광장중학교,320827,549835,"교육,학문>중학교",,02-452-0744,http://www.gwangjang.ms.kr/
44,용곡<b>중학교</b>,서울특별시 광진구 중곡동 176-77,서울특별시 광진구 용마산로22길 76,319717,551934,"교육,학문>중학교",,02-452-2622,http://www.yonggok.ms.kr/
45,선화예술<b>중학교</b>,서울특별시 광진구 능동 25,서울특별시 광진구 천호대로 664 선화예술중고등학교,319557,550212,"교육,학문>중학교",,02-2204-1017,http://www.sunhwaarts.com/
46,광진<b>중학교</b>,서울특별시 광진구 자양동 693,서울특별시 광진구 뚝섬로64길 45 광진중학교,319736,548180,"교육,학문>중학교",,02-447-2886,http://www.gwangjin.ms.kr/
47,신양<b>중학교</b>,서울특별시 광진구 자양동 57-8,서울특별시 광진구 자양강변길 73 서울신양중학교,317428,548347,"교육,학문>중학교",,02-461-1070,http://www.shinyang.ms.kr/
48,광양<b>중학교</b>,서울특별시 광진구 자양동 674,서울특별시 광진구 자양로3길 7,319367,547976,"교육,학문>중학교",,02-452-6922,http://www.kwangyang.ms.kr/
49,구의<b>중학교</b>,서울특별시 광진구 화양동 303-18,서울특별시 광진구 광나루로30길 80 구의중학교,318817,549393,"교육,학문>중학교",,02-447-4798,http://www.guui.ms.kr/
50,동대문<b>중학교</b>,서울특별시 동대문구 전농동 322-17,서울특별시 동대문구 사가정로 59 동대문중학교,316474,552883,"교육,학문>중학교",,02-3407-4231,http://www.dongdaemun.ms.kr/
51,장평<b>중학교</b>,서울특별시 동대문구 장안동 352,서울특별시 동대문구 답십리로72길 158,318110,552011,"교육,학문>중학교",,02-2243-8282,http://www.jangpyung.ms.kr/
52,동국대학교 사범대학 부속<b>중학교</b>,서울특별시 동대문구 장안동 328,서울특별시 동대문구 장안벚꽃로 205 은석초등학교,318508,553269,"교육,학문>중학교",,02-6716-1700,http://www.dongguk.ms.kr/
53,청량<b>중학교</b>,서울특별시 동대문구 청량리동 14,서울특별시 동대문구 왕산로 301,316391,554397,"교육,학문>중학교",,02-966-4284,http://www.cheongryang.ms.kr/
54,전일<b>중학교</b>,서울특별시 동대문구 전농동 60-5,서울특별시 동대문구 사가정로13길 67,317038,553706,"교육,학문>중학교",,02-2245-2745,http://www.jeonil.ms.kr/
55,성일<b>중학교</b>,서울특별시 동대문구 제기동 271-41,서울특별시 동대문구 왕산로23길 55,314885,553688,"교육,학문>중학교",,02-921-2393,http://www.sungil.ms.kr/
56,대광<b>중학교</b>,서울특별시 동대문구 신설동 53-3,서울특별시 동대문구 안암로 6,314065,553375,"교육,학문>중학교",,,http://www.dgm.ms.kr/
57,경희<b>중학교</b>,서울특별시 동대문구 이문동 1-3,서울특별시 동대문구 경희대로 23 경희의료원,316738,555105,"교육,학문>중학교",,02-957-9051,http://www.kyunghee.ms.kr/
58,숭인<b>중학교</b>,서울특별시 동대문구 답십리동 463-1,서울특별시 동대문구 천호대로47길 34 숭인중학교,315746,552830,"교육,학문>중학교",,02-2215-0176,http://www.soongin.ms.kr/
59,휘경여자<b>중학교</b>,서울특별시 동대문구 전농동 1-188,서울특별시 동대문구 한천로 247 휘경여자중고등학교,317843,553755,"교육,학문>중학교",,02-2244-8927,http://www.hwikyung.ms.kr/
60,전농<b>중학교</b>,서울특별시 동대문구 전농동 58-1,서울특별시 동대문구 사가정로13길 71 전농중학교,317139,553704,"교육,학문>중학교",,02-2242-6652,http://www.jeonnong.ms.kr/
61,전동<b>중학교</b>,서울특별시 동대문구 휘경동 49-295,서울특별시 동대문구 장안벚꽃로 291 전동중학교,318153,554099,"교육,학문>중학교",,02-2212-9265,http://www.jeondong.ms.kr/
62,휘경<b>중학교</b>,서울특별시 동대문구 휘경동 286-66,서울특별시 동대문구 망우로18나길 20,317349,554289,"교육,학문>중학교",,02-2244-1359,http://www.hwigyong.ms.kr/
63,정화여자<b>중학교</b>,서울특별시 동대문구 제기동 293,서울특별시 동대문구 홍릉로15길 50 정화여자중학교,315463,554154,"교육,학문>중학교",,02-966-9332,http://www.jhg.ms.kr/
64,경희여자<b>중학교</b>,서울특별시 동대문구 회기동 1-5,서울특별시 동대문구 경희대로 26 경희대학교,316434,555128,"교육,학문>중학교",,,http://www.kyungheegls.ms.kr/
65,원묵<b>중학교</b>,서울특별시 중랑구 묵동 12,서울특별시 중랑구 신내로23길 57 원묵중학교,319379,557682,"교육,학문>중학교",,02-2094-9800,http://www.wonmook.ms.kr/
66,장안<b>중학교</b>,서울특별시 중랑구 중화동 288-26,서울특별시 중랑구 동일로 780 장안중학교,319083,555768,"교육,학문>중학교",,,http://www.jangan70.ms.kr/
67,용마<b>중학교</b>,서울특별시 중랑구 면목동 378-2,서울특별시 중랑구 면목로28길 18 용마중학교,319461,552847,"교육,학문>중학교",,02-439-4841,http://www.yongma.ms.kr/
68,상봉<b>중학교</b>,서울특별시 중랑구 상봉동 282,서울특별시 중랑구 상봉중앙로8나길 28,319864,555858,"교육,학문>중학교",,02-436-4452,http://www.sangbong.ms.kr/
69,중화<b>중학교</b>,서울특별시 중랑구 면목3.8동 83,서울특별시 중랑구 용마산로 364 중화중학교,320290,553980,"교육,학문>중학교",,02-439-5811,http://www.junghwa.ms.kr/
70,동원<b>중학교</b>,서울특별시 중랑구 망우동 85-3,서울특별시 중랑구 양원역로 32,321517,556104,"교육,학문>중학교",,02-493-8129,http://www.tongwon.ms.kr/
71,면목<b>중학교</b>,서울특별시 중랑구 면목3.8동 490,서울특별시 중랑구 용마산로70길 37 면목중학교,320406,553834,"교육,학문>중학교",,02-437-0278,http://www.myonmok.ms.kr/
72,신현<b>중학교</b>,서울특별시 중랑구 상봉동 483,서울특별시 중랑구 봉화산로 162 신현중학교,319978,556163,"교육,학문>중학교",,02-3421-0631,http://www.sinhyeon.ms.kr/
73,중랑<b>중학교</b>,서울특별시 중랑구 중화1동 276-1,서울특별시 중랑구 동일로140길 33,319078,556286,"교육,학문>중학교",,02-437-5312,http://www.joongrang.ms.kr/
74,이화여대병설영란여자<b>중학교</b>,서울특별시 중랑구 망우동 220 영란여자중학교,서울특별시 중랑구 망우로73길 56,321128,556079,"교육,학문>중학교",,02-2209-0143,http://www.youngran.ms.kr/
75,혜원여자<b>중학교</b>,서울특별시 중랑구 망우동 519,서울특별시 중랑구 봉우재로58길 39 혜원여자중고등학교,320433,554861,"교육,학문>중학교",,,http://www.hyewon.ms.kr/
76,태릉<b>중학교</b>,서울특별시 중랑구 묵동 121-278,서울특별시 중랑구 공릉로2길 60-25,319269,557060,"교육,학문>중학교",,02-973-5551,http://www.taereung.ms.kr/
77,송곡여자<b>중학교</b>,서울특별시 중랑구 망우동 252-1,서울특별시 중랑구 양원역로 67,321172,556353,"교육,학문>중학교",,,http://www.songgok.ms.kr/
78,봉화<b>중학교</b>,서울특별시 중랑구 망우동 122-1,서울특별시 중랑구 망우로70길 89 봉화중학교,321088,555254,"교육,학문>중학교",,02-435-8348,http://www.ibonghwa.ms.kr/
79,성신여자<b>중학교</b>,서울특별시 성북구 돈암동 산11-269,서울특별시 성북구 북악산로22길 10-1,313951,555058,"교육,학문>중학교",,02-929-1898,http://www.sung-shin.ms.kr/
80,고려대학교 사범대학 부속<b>중학교</b>,서울특별시 성북구 정릉동 660,서울특별시 성북구 정릉로 161,311999,556929,"교육,학문>중학교",,02-914-3368,http://www.koryo.ms.kr/
81,홍익대학교 사범대학 부속<b>중학교</b>,서울특별시 성북구 성북동 151,서울특별시 성북구 성북로14가길 23 홍익대학교부속중고등학교,312129,555086,"교육,학문>중학교",,02-762-0824,http://www.hongik.ms.kr/
82,숭곡<b>중학교</b>,서울특별시 성북구 하월곡동 87-1,서울특별시 성북구 종암로 208 숭곡중학교,314689,556678,"교육,학문>중학교",,02-912-7572,http://www.soonggok.ms.kr/
83,고명<b>중학교</b>,서울특별시 성북구 돈암동 45-88,서울특별시 성북구 북악산로 870 고명정보산업고등학교,313620,555502,"교육,학문>중학교",,02-926-2837,http://www.komyung.ms.kr/
84,삼선<b>중학교</b>,서울특별시 성북구 동소문동1가 140-1,서울특별시 성북구 동소문로3길 69 삼선중학교,312564,554783,"교육,학문>중학교",,02-742-1147,http://www.samseon.ms.kr/
85,남대문<b>중학교</b>,서울특별시 성북구 장위동 124-1,서울특별시 성북구 한천로95길 28 남대문중학교,316852,557791,"교육,학문>중학교",,02-942-3182,http://www.namdaemoon.ms.kr/
86,북악<b>중학교</b>,서울특별시 성북구 정릉동 640-3,서울특별시 성북구 정릉로12길 41 북악중학교,312083,556522,"교육,학문>중학교",,,http://www.bugak.ms.kr/
87,장위<b>중학교</b>,서울특별시 성북구 하월곡동 산2-132,,315599,556973,"교육,학문>중학교",,02-941-1672,http://www.jangwi.ms.kr/
88,석관<b>중학교</b>,서울특별시 성북구 석관동 88-2,서울특별시 성북구 한천로 526 석관중학교,317782,556606,"교육,학문>중학교",,,http://www.seokgwan.ms.kr/
89,동구여자<b>중학교</b>,서울특별시 성북구 성북동 168-275,서울특별시 성북구 성북로8길 71 동구여자상업고등학교,312567,555128,"교육,학문>중학교",,02-762-1304,http://www.dong-gu.ms.kr/
90,한성여자<b>중학교</b>,서울특별시 성북구 삼선동2가 405-3,,312918,553762,"교육,학문>중학교",,02-742-2542,http://www.hansunggm.net/
91,길음<b>중학교</b>,서울특별시 성북구 길음동 635-7,서울특별시 성북구 길음로 144 서울길음중학교,313404,557336,"교육,학문>중학교",,,http://www.gireum.ms.kr/
92,종암<b>중학교</b>,서울특별시 성북구 종암동 32-3 종암중학교,서울특별시 성북구 종암로5길 80-17 종암중학교,314697,554960,"교육,학문>중학교",,02-928-7041,http://www.jongam.ms.kr/
93,개운<b>중학교</b>,서울특별시 성북구 돈암동 83-145,서울특별시 성북구 북악산로 935,314087,555158,"교육,학문>중학교",,02-3291-5492,http://www.gw.ms.kr/
94,서울대학교 사범대학 부설<b>중학교</b>,서울특별시 성북구 종암동 7-10,서울특별시 성북구 월곡로 36 서울대학교사범대학부설중학교,315338,555277,"교육,학문>중학교",,02-943-5812,http://www.snu.ms.kr/
95,월곡<b>중학교</b>,서울특별시 성북구 상월곡동 35-1,서울특별시 성북구 장월로 6,316145,556489,"교육,학문>중학교",,02-6496-6600,http://www.wolgok.ms.kr/
96,용문<b>중학교</b>,서울특별시 성북구 안암동2가 96-1,서울특별시 성북구 고려대로17가길 46 용문중고등학교,314041,554509,"교육,학문>중학교",,02-926-4238,http://www.ymoon.ms.kr/
97,고려대학교사범대학부속<b>중학교</b> 급식실,서울특별시 성북구 정릉동 산1-2,서울특별시 성북구 정릉로 161 동관,312016,556738,"교육,학문>중학교",,,
98,영훈국제<b>중학교</b>,서울특별시 강북구 미아동 471-2,서울특별시 강북구 도봉로13가길 19 영훈학교,314317,557340,"교육,학문>중학교",,,http://www.younghoon.ms.kr/
99,신일<b>중학교</b>,서울특별시 강북구 미아동 193-1,서울특별시 강북구 솔매로49길 20 신일중고등학교,314439,558860,"교육,학문>중학교",,02-989-4151,http://www.shin-il.ms.kr/
100,서라벌<b>중학교</b>,서울특별시 강북구 우이동 103-9,서울특별시 강북구 삼양로155길 37-9 서라벌중학교,312907,562058,"교육,학문>중학교",,,http://www.sorabol.ms.kr/
101,수송<b>중학교</b>,서울특별시 강북구 번동 456-1,서울특별시 강북구 한천로122길 21,314939,559833,"교육,학문>중학교",,,http://www.soosong.ms.kr/
102,강북<b>중학교</b>,서울특별시 강북구 수유동 694,서울특별시 강북구 한천로150길 67 강북중학교,314262,560765,"교육,학문>중학교",,02-999-4104,http://www.kangbuk.ms.kr/
103,인수<b>중학교</b>,서울특별시 강북구 수유동 551,서울특별시 강북구 인수봉로75길 10 인수중학교,312811,560624,"교육,학문>중학교",,,http://www.insu.ms.kr/
104,창문여자<b>중학교</b>,서울특별시 강북구 미아동 8-16,서울특별시 강북구 월계로 57-16,315160,557230,"교육,학문>중학교",,02-986-1703,http://www.changmun.ms.kr/
105,화계<b>중학교</b>,서울특별시 강북구 수유동 491-28,서울특별시 강북구 화계사길 63,312813,559369,"교육,학문>중학교",,02-986-3073,http://www.hwagye.ms.kr/
106,성암여자<b>중학교</b>,서울특별시 강북구 미아동 320-1,서울특별시 강북구 도봉로29길 52 학교법인성암학원,314048,558022,"교육,학문>중학교",,02-2179-1777,http://www.seongam.ms.kr/
107,삼각산<b>중학교</b>,서울특별시 강북구 미아동 1357-11,서울특별시 강북구 삼양로19길 141 서울삼각산초등학교.서울삼각산중학교,313284,557529,"교육,학문>중학교",,02-944-4999,http://www.samgaksan.ms.kr/
108,번동<b>중학교</b>,서울특별시 강북구 번동 231,서울특별시 강북구 오현로35길 87 번동중학교,315138,559356,"교육,학문>중학교",,02-945-0168,http://www.beondong.ms.kr/
109,수유<b>중학교</b>,서울특별시 강북구 수유동 491-61,서울특별시 강북구 인수봉로37길 40,312876,559297,"교육,학문>중학교",,02-945-6102,http://www.suyu.ms.kr/
110,미양<b>중학교</b>,서울특별시 강북구 미아동 837-734,서울특별시 강북구 인수봉로 39 미양중.고등학교,313028,558354,"교육,학문>중학교",,02-981-6872,http://www.mi-yang.ms.kr/
111,방학<b>중학교</b>,서울특별시 도봉구 방학동 313,서울특별시 도봉구 시루봉로 188 방학중학교,314752,563041,"교육,학문>중학교",,02-956-8343,http://www.banghak.ms.kr/
112,창일<b>중학교</b>,서울특별시 도봉구 창동 369,서울특별시 도봉구 노해로66길 60 창일중학교,316087,561151,"교육,학문>중학교",,02-994-5934,http://www.changil.ms.kr/
113,백운<b>중학교</b>,서울특별시 도봉구 쌍문동 68-2,서울특별시 도봉구 도봉로129길 50 백운중학교,315138,562014,"교육,학문>중학교",,02-998-4035,http://www.baekwoon.ms.kr/
114,노곡<b>중학교</b>,서울특별시 도봉구 창동 32,서울특별시 도봉구 노해로70길 95 노곡중학교,316652,561109,"교육,학문>중학교",,02-996-5231,http://www.nogok.ms.kr/
115,창동<b>중학교</b>,서울특별시 도봉구 방학동 722-8,서울특별시 도봉구 방학로 32 창동중학교,316359,562740,"교육,학문>중학교",,02-2289-6600,http://www.changdong.ms.kr/
116,신도봉<b>중학교</b>,서울특별시 도봉구 쌍문동 94-1,서울특별시 도봉구 도봉로115길 16 신도봉중학교,314887,561252,"교육,학문>중학교",,02-992-3462,http://www.sindobong.ms.kr/
117,도봉<b>중학교</b>,서울특별시 도봉구 도봉동 622-40,서울특별시 도봉구 마들로 671 도봉중학교,316006,563590,"교육,학문>중학교",,02-954-4117,http://www.dobong.ms.kr/
118,선덕<b>중학교</b>,서울특별시 도봉구 쌍문동 263,서울특별시 도봉구 시루봉로 53 학교법인세그루학원,314322,561990,"교육,학문>중학교",,02-993-4112,http://www.sunduck.ms.kr/
119,북서울<b>중학교</b>,서울특별시 도봉구 도봉동 585,서울특별시 도봉구 도봉로169가길 33 북서울중학교,315775,564774,"교육,학문>중학교",,02-956-1004,http://www.bukseoul.ms.kr/
120,효문<b>중학교</b>,서울특별시 도봉구 쌍문동 468,서울특별시 도봉구 우이천로 432 효문중.고등학교,313611,561563,"교육,학문>중학교",,02-999-1785,http://hyomun.ms.kr/
121,창북<b>중학교</b>,서울특별시 도봉구 창동 683-15,서울특별시 도봉구 노해로62길 33 창북중학교,315345,561301,"교육,학문>중학교",,02-907-7006,http://www.changbook.ms.kr/
122,신방학<b>중학교</b>,서울특별시 도봉구 방학동 307-1,서울특별시 도봉구 시루봉로 156 신방학중학교,314613,562851,"교육,학문>중학교",,02-956-8234,http://www.sbh.ms.kr/
123,정의여자<b>중학교</b>,서울특별시 도봉구 쌍문동 150-1,서울특별시 도봉구 노해로49길 69 정의학교,314791,561685,"교육,학문>중학교",,02-3499-5300,http://www.jeongeui.ms.kr/
124,중계<b>중학교</b>,서울특별시 노원구 중계동 358-3,서울특별시 노원구 덕릉로76길 23 중계중학교,318576,561881,"교육,학문>중학교",,02-932-2545,http://www.junggye.ms.kr/
125,중원<b>중학교</b>,서울특별시 노원구 중계동 511-3,서울특별시 노원구 공릉로 420 중원중학교,317947,560626,"교육,학문>중학교",,02-971-2788,http://www.joongwon.ms.kr/
126,중평<b>중학교</b>,서울특별시 노원구 하계동 271-2,서울특별시 노원구 동일로203길 87 중평중학교,317448,559825,"교육,학문>중학교",,02-977-3026,http://www.jungpyong.ms.kr/
127,불암<b>중학교</b>,서울특별시 노원구 하계동 288-3,서울특별시 노원구 한글비석로5길 45 불암중학교,318437,560803,"교육,학문>중학교",,02-975-4047,http://www.bulam.ms.kr/
128,하계<b>중학교</b>,서울특별시 노원구 하계동 231-4,서울특별시 노원구 노원로 261-8 하계중학교,318256,560273,"교육,학문>중학교",,02-3399-0200,http://www.hagye.ms.kr/
129,신상<b>중학교</b>,서울특별시 노원구 상계동 754-4,서울특별시 노원구 동일로216길 42 신상중학교,317562,561446,"교육,학문>중학교",,02-932-0595,http://www.sinsang.ms.kr/
130,공릉<b>중학교</b>,서울특별시 노원구 공릉동 250,서울특별시 노원구 노원로1길 42 공릉중학교,319307,558183,"교육,학문>중학교",,02-971-5213,http://www.kongrung.ms.kr/
131,상명<b>중학교</b>,서울특별시 노원구 중계동 515,서울특별시 노원구 덕릉로 553 상명고등학교,317939,561186,"교육,학문>중학교",,02-971-6213,http://www.sangmyung.ms.kr/
132,상경<b>중학교</b>,서울특별시 노원구 상계동 653 늘푸른 1길 31 상경중학교,서울특별시 노원구 동일로227길 61 상경중학교,316694,563163,"교육,학문>중학교",,02-939-3951,http://www.sanggyung.ms.kr/
133,온곡<b>중학교</b>,서울특별시 노원구 상계동 687,서울특별시 노원구 노원로 492 온곡중학교,317670,562441,"교육,학문>중학교",,02-934-8908,http://www.ongok.ms.kr/
134,상계<b>중학교</b>,서울특별시 노원구 상계동 195-5,서울특별시 노원구 노원로 398,318066,561556,"교육,학문>중학교",,02-936-4258,http://www.sanggye.ms.kr/
135,노일<b>중학교</b>,서울특별시 노원구 상계동 1044,서울특별시 노원구 동일로231길 24 노일유치원,316728,563875,"교육,학문>중학교",,02-3391-0092,http://www.noil.ms.kr/
136,신창<b>중학교</b>,서울특별시 노원구 월계동 805-5,서울특별시 노원구 월계로45길 92 신창중학교,316111,558870,"교육,학문>중학교",,02-904-4206,http://sc.ms.kr/
137,녹천<b>중학교</b>,서울특별시 노원구 월계동 321-7,서울특별시 노원구 월계로 376 녹천중학교,317431,559250,"교육,학문>중학교",,02-978-4592,http://www.nokcheon.ms.kr/
138,상계제일<b>중학교</b>,서울특별시 노원구 중계동 132,서울특별시 노원구 덕릉로86길 29-15 상계제일중학교,318856,562558,"교육,학문>중학교",,,http://www.sanggyejeil.ms.kr/
139,한천<b>중학교</b>,서울특별시 노원구 공릉2동 481,서울특별시 노원구 공릉로 265 한천중학교,318348,559207,"교육,학문>중학교",,02-948-5553,http://www.hancheon.ms.kr/
140,광운<b>중학교</b>,서울특별시 노원구 월계동 500,서울특별시 노원구 광운로1길 24,316848,558067,"교육,학문>중학교",,02-942-2293,http://www.kwangwoon.ms.kr/
141,태랑<b>중학교</b>,서울특별시 노원구 공릉동 117,서울특별시 노원구 화랑로51나길 51 태랑중학교,319986,558690,"교육,학문>중학교",,02-973-1355,http://www.taerang.ms.kr/
142,을지<b>중학교</b>,서울특별시 노원구 중계동 360-19,서울특별시 노원구 덕릉로 580 을지중학교,318283,561207,"교육,학문>중학교",,02-938-7083,http://www.eulji.ms.kr/
143,수락<b>중학교</b>,서울특별시 노원구 상계동 1254 수락중학교,서울특별시 노원구 동일로 1729 수락중학교,316818,564969,"교육,학문>중학교",,02-2092-1900,http://www.surak.ms.kr/
144,염광<b>중학교</b>,서울특별시 노원구 월계동 820-9,서울특별시 노원구 월계로45가길 57 아시아퍼시픽 국제학교,316377,559068,"교육,학문>중학교",,02-906-1102,http://www.yumkwang.ms.kr/
145,노원<b>중학교</b>,서울특별시 노원구 상계동 743,서울특별시 노원구 동일로213길 26 노원중학교,317223,561204,"교육,학문>중학교",,02-3391-6921,http://www.nowon.ms.kr/
146,상원<b>중학교</b>,서울특별시 노원구 상계동 632,서울특별시 노원구 수락산로 182,317256,563693,"교육,학문>중학교",,,http://www.sang-won.ms.kr/
147,청원<b>중학교</b>,서울특별시 노원구 상계동 641,서울특별시 노원구 한글비석로 506 청원초/중/고등학교,317416,563124,"교육,학문>중학교",,02-3399-7878,http://www.cheongwon.ms.kr/
148,재현<b>중학교</b>,서울특별시 노원구 중계동 129-2,서울특별시 노원구 덕릉로82길 64 재현중/고등학교,319108,562511,"교육,학문>중학교",,02-932-4816,http://www.jaehyun.ms.kr/
149,월계<b>중학교</b>,서울특별시 노원구 월계동 602-1,서울특별시 노원구 월계로45가길 54,316560,559137,"교육,학문>중학교",,02-993-3115,http://www.iwolgye.ms.kr/
150,한국삼육<b>중학교</b>,서울특별시 노원구 공릉2동 26-38,서울특별시 노원구 화랑로 815 삼육대학교,321509,560245,"교육,학문>중학교",,02-6959-1343,http://www.36.ms.kr/
151,청암<b>중학교</b>,서울특별시 노원구 중계동 411-1,서울특별시 노원구 중계로 244,318508,561428,"교육,학문>중학교",,,
152,불광<b>중학교</b>,서울특별시 은평구 불광동 173,서울특별시 은평구 불광로 180,305929,558434,"교육,학문>중학교",,02-384-6591,http://www.bulgwang.ms.kr/
153,은평<b>중학교</b>,서울특별시 은평구 구산동 182-44,서울특별시 은평구 갈현로17나길 12-1 은평중학교,303838,557051,"교육,학문>중학교",,02-382-3541,http://www.eunpyeong.ms.kr/
154,선일여자<b>중학교</b>,서울특별시 은평구 갈현동 240-1,서울특별시 은평구 갈현로29길 27,304236,558048,"교육,학문>중학교",,02-355-0161,http://www.sunil.ms.kr/
155,덕산<b>중학교</b>,서울특별시 은평구 신사동 265-4,서울특별시 은평구 가좌로 400,303448,556095,"교육,학문>중학교",,02-3146-7292,http://www.duksan.ms.kr/
156,연신<b>중학교</b>,서울특별시 은평구 불광동 400-4,서울특별시 은평구 연서로33길 16-32 연신중학교,305305,558452,"교육,학문>중학교",,02-383-7831,http://www.yonsin.ms.kr/
157,대성<b>중학교</b>,서울특별시 은평구 갈현동 267-17,서울특별시 은평구 갈현로29길 51-24,303925,558354,"교육,학문>중학교",,02-6252-1100,http://www.dsms.ms.kr/
158,진관<b>중학교</b>,서울특별시 은평구 진관동 16,서울특별시 은평구 진관4로 36 진관중학교,305395,560712,"교육,학문>중학교",,02-383-5378,http://www.jingwan.ms.kr/
159,신도<b>중학교</b>,서울특별시 은평구 진관동 115,서울특별시 은평구 진관1로 77-30 신도중학교,305828,559497,"교육,학문>중학교","<b>서울특별시 은평구</b> 진관동 위치, 학교소개, 교육일정 안내.",02-389-4303,http://www.shindo.ms.kr/
160,연서<b>중학교</b>,서울특별시 은평구 증산동 193-21,서울특별시 은평구 증산서길 125-6,303912,554399,"교육,학문>중학교",,02-6715-8000,http://www.yeonseo.ms.kr/
161,증산<b>중학교</b>,서울특별시 은평구 증산동 산24-4,서울특별시 은평구 증산로5길 27-30 증산중학교,303402,554055,"교육,학문>중학교",,02-303-9294,http://www.jeungsan.ms.kr/
162,상신<b>중학교</b>,서울특별시 은평구 신사동 141,서울특별시 은평구 증산로15길 61 상신중학교,303621,554735,"교육,학문>중학교",,02-305-5136,http://www.sangsin.ms.kr/
163,구산<b>중학교</b>,서울특별시 은평구 구산동 182-45,서울특별시 은평구 갈현로15길 20-23,303875,556953,"교육,학문>중학교",,02-389-8785,http://www.gusanjung.ms.kr/
164,영락<b>중학교</b>,서울특별시 은평구 응암1동 226-13,서울특별시 은평구 백련산로 134-6 영락중학교,305294,555487,"교육,학문>중학교",,02-388-4031,http://www.youngnak.ms.kr/
165,숭실<b>중학교</b>,서울특별시 은평구 신사2동 300-88,서울특별시 은평구 은평터널로7길 6,303528,555128,"교육,학문>중학교",<b>서울특별시 은평구</b> 신사2동 위치.,02-373-7641,http://www.soongsilm.net/
166,충암<b>중학교</b>,서울특별시 은평구 응암동 272-113,서울특별시 은평구 가좌로5길 5,304984,554217,"교육,학문>중학교",,02-309-2437,http://www.choongam.ms.kr/
167,예일여자<b>중학교</b>,서울특별시 은평구 구산동 8-3,서울특별시 은평구 연서로 117,304492,557020,"교육,학문>중학교",,,http://www.yale.ms.kr/
168,연천<b>중학교</b>,서울특별시 은평구 불광동 441-1,서울특별시 은평구 연서로41길 30 연천중학교,305378,558878,"교육,학문>중학교",,02-354-0514,http://www.yonchon.ms.kr/
169,선정<b>중학교</b>,서울특별시 은평구 갈현동 227-5,서울특별시 은평구 서오릉로20길 19 선정중.고등학교,303804,557936,"교육,학문>중학교",,02-3156-1400,http://www.sunjung.ms.kr/
170,인왕<b>중학교</b>,서울특별시 서대문구 홍제동 9-27,서울특별시 서대문구 세검정로4길 69 인왕중학교,307622,555019,"교육,학문>중학교",,02-396-5406,http://www.inwang.ms.kr/
171,인창<b>중학교</b>,서울특별시 서대문구 충정로2가 70,서울특별시 서대문구 경기대로 65,308692,551952,"교육,학문>중학교",,,http://www.ic.ms.kr/
172,이화여자대학교사범대학부속 이화금란<b>중학교</b>,서울특별시 서대문구 대신동 47,서울특별시 서대문구 성산로 560 이대부속고등학교,306952,551672,"교육,학문>중학교",,02-392-6175,http://www.ewha.ms.kr/
173,가재울<b>중학교</b>,서울특별시 서대문구 북가좌동 472,서울특별시 서대문구 수색로 100-75 가재울중학교,303908,553106,"교육,학문>중학교",,02-376-8565,http://gajaeul.ms.kr/
174,연희<b>중학교</b>,서울특별시 서대문구 남가좌동 368-1,서울특별시 서대문구 증가로 170 연희중학교,304670,553524,"교육,학문>중학교",,02-372-2992,http://www.yonhi.ms.kr/
175,서연<b>중학교</b>,서울특별시 서대문구 연희동 267-1,서울특별시 서대문구 연희로11마길 9-6 서연중학교,305425,552332,"교육,학문>중학교",,02-332-7376,http://www.seoyun.ms.kr/
176,동명여자<b>중학교</b>,서울특별시 서대문구 천연동 31-1,서울특별시 서대문구 독립문로 49 동명여자중학교,308549,552324,"교육,학문>중학교",,02-363-5043,http://www.dongmyunggirls.ms.kr/
177,홍은<b>중학교</b>,서울특별시 서대문구 홍은동 183,서울특별시 서대문구 연희로41길 94 홍은중학교,306176,555025,"교육,학문>중학교",,02-3216-0512,http://www.hongeun.ms.kr/
178,명지<b>중학교</b>,서울특별시 서대문구 홍은동 323-9,서울특별시 서대문구 명지2길 56,305413,554153,"교육,학문>중학교",,02-302-7072,http://www.myongji.ms.kr/
179,정원여자<b>중학교</b>,서울특별시 서대문구 홍은동 산11-141,서울특별시 서대문구 연희로37안길 51 정원여자중학교,305999,554218,"교육,학문>중학교",,02-379-4310,http://www.jungwon.ms.kr/
180,신연<b>중학교</b>,서울특별시 서대문구 연희동 1-107,서울특별시 서대문구 모래내로 408,306550,553924,"교육,학문>중학교",,02-379-4317,http://www.sinyeon.ms.kr/
181,연북<b>중학교</b>,서울특별시 서대문구 연희동 141,서울특별시 서대문구 연희로36길 32 연북중학교,306435,553367,"교육,학문>중학교",,02-332-7377,http://www.yeonbuk.ms.kr/
182,서울중앙여자<b>중학교</b>,서울특별시 서대문구 북아현동 190-1 중앙여자중학교,서울특별시 서대문구 북아현로11가길 7 추계예술대학교,307663,551614,"교육,학문>중학교",,02-362-3063,http://www.jungang1940.ms.kr/
183,한성<b>중학교</b>,서울특별시 서대문구 북아현동 170-1,서울특별시 서대문구 북아현로1길 24,307901,551385,"교육,학문>중학교",,02-365-4942,http://www.hanseong.ms.kr/
184,서울여자<b>중학교</b>,서울특별시 마포구 염리동 128-2,서울특별시 마포구 백범로25길 34 서울여자중고등학교,307271,550132,"교육,학문>중학교",,02-716-5041,http://www.seoul.ms.kr/
185,성산<b>중학교</b>,서울특별시 마포구 합정동 365-1,서울특별시 마포구 성지1길 32-13 성산중학교,304409,550046,"교육,학문>중학교",,02-332-0306,http://www.sungsan.ms.kr/
186,상암<b>중학교</b>,서울특별시 마포구 상암동 1657,서울특별시 마포구 상암산로1길 26 상암중학교,301958,553591,"교육,학문>중학교",,02-375-5300,http://www.sangam.ms.kr/
187,홍익대학교사범대학부속여자<b>중학교</b>,서울특별시 마포구 성산동 산11-31,서울특별시 마포구 성미산로 51,304221,551432,"교육,학문>중학교",,02-331-7403,http://www.hongikg.ms.kr/
188,중암<b>중학교</b>,서울특별시 마포구 중동 63,서울특별시 마포구 월드컵북로38길 25 중암중학교,303351,552789,"교육,학문>중학교",,02-305-4917,http://www.joongam.ms.kr/
189,동도<b>중학교</b>,서울특별시 마포구 염리동 150,서울특별시 마포구 백범로 139 동도중.서울디자인고등학교,307133,549886,"교육,학문>중학교",,02-716-5391,http://www.dong-do.ms.kr/
190,성서<b>중학교</b>,서울특별시 마포구 성산동 587-4,서울특별시 마포구 성산로4길 42 성서중학교,303832,551724,"교육,학문>중학교",,,http://www.sungseo.ms.kr/
191,아현<b>중학교</b>,서울특별시 마포구 아현동 267-4,서울특별시 마포구 마포대로 249 아현산업정보학교. 아현직업학교,308033,550922,"교육,학문>중학교",,02-363-1813,http://www.ahyeon.ms.kr/
192,성사<b>중학교</b>,서울특별시 마포구 성산2동 124,서울특별시 마포구 모래내로9길 16 성사중학교,304231,552366,"교육,학문>중학교",,02-373-8002,http://www.sungsa.ms.kr/
193,신수<b>중학교</b>,서울특별시 마포구 신수동 371-1,,305973,549897,"교육,학문>중학교",,02-717-6004,http://www.sinsu.ms.kr/
194,경성<b>중학교</b>,서울특별시 마포구 연남동 369-1,서울특별시 마포구 성미산로 111,304743,551828,"교육,학문>중학교",,,http://www.gyeongseong.ms.kr/
195,창천<b>중학교</b>,서울특별시 마포구 노고산동 33-1,"서울특별시 마포구 백범로1길 56 창천초등,중학교",306458,550839,"교육,학문>중학교",,,http://www.changchun.ms.kr/
196,숭문<b>중학교</b>,서울특별시 마포구 대흥동 28-16,서울특별시 마포구 숭문길 99 숭문중고등학교,306989,550455,"교육,학문>중학교",,02-715-4463,http://www.soongmoon.ms.kr/
197,광성<b>중학교</b>,서울특별시 마포구 신수동 91-20,서울특별시 마포구 신수로8길 20 광성중고등학교,306257,550119,"교육,학문>중학교",,02-714-8144,http://www.kwangsung.ms.kr/
198,아현<b>중학교</b>부설방송통신<b>중학교</b>,서울특별시 마포구 아현동 267-1,서울특별시 마포구 마포대로 247,308050,550910,"교육,학문>중학교",,,
199,월촌<b>중학교</b>,서울특별시 양천구 목동 909,서울특별시 양천구 목동서로 31 월촌중학교,301463,548955,"교육,학문>중학교",,02-2648-8570,http://www.wolchonnet.ms.kr/
200,목운<b>중학교</b>,서울특별시 양천구 목동 922,서울특별시 양천구 목동동로 235 목운초.중학교,300558,547799,"교육,학문>중학교",,02-2651-4060,http://www.mogun.ms.kr/
201,신서<b>중학교</b>,서울특별시 양천구 신정동 310-6,서울특별시 양천구 중앙로 206 신서중학교,299027,546576,"교육,학문>중학교",,02-2654-8011,http://www.sinseo.ms.kr/
202,목동<b>중학교</b>,서울특별시 양천구 신정동 88-1,서울특별시 양천구 목동동로 172 목동중학교,300433,547136,"교육,학문>중학교",,02-2643-1101,http://www.mokdong.ms.kr/
203,양정<b>중학교</b>,서울특별시 양천구 목동 911-2,서울특별시 양천구 안양천로 1039,301819,548716,"교육,학문>중학교",,02-2649-7077,http://www.ycsc.ms.kr/
204,강신<b>중학교</b>,서울특별시 양천구 신월동 1010,서울특별시 양천구 남부순환로 604 강신중학교,297531,546531,"교육,학문>중학교",,02-2694-9623,http://www.kangsin.ms.kr/
205,양동<b>중학교</b>,서울특별시 양천구 목동 600-6,서울특별시 양천구 목동중앙북로 49 양동중학교,300228,550125,"교육,학문>중학교",,02-2648-3638,http://www.yangdong.ms.kr/
206,신화<b>중학교</b>,서울특별시 양천구 신월5동 17-7,서울특별시 양천구 남부순환로29길 35 신화중학교,296811,549406,"교육,학문>중학교",,02-3219-2900,http://www.shinhwa.ms.kr/
207,목일<b>중학교</b>,서울특별시 양천구 신정동 330-2,서울특별시 양천구 목동동로8길 70 목일중학교,300671,546288,"교육,학문>중학교",,02-2646-0553,http://www.mokil.ms.kr/
208,신목<b>중학교</b>,서울특별시 양천구 목5동 902-1,서울특별시 양천구 목동중앙로 88 신목중학교,300575,548923,"교육,학문>중학교",,02-2648-2142,http://www.shinmok.ms.kr/
209,신월<b>중학교</b>,서울특별시 양천구 신월동 17-6,서울특별시 양천구 남부순환로29길 25 신월중학교,296718,549409,"교육,학문>중학교",,,http://www.ssinwol.ms.kr/
210,양강<b>중학교</b>,서울특별시 양천구 신월동 877-2,서울특별시 양천구 중앙로 319 양강중학교,298507,547581,"교육,학문>중학교",,02-2691-0869,http://www.yangkang.ms.kr/
211,신남<b>중학교</b>,서울특별시 양천구 신월동 610-3,서울특별시 양천구 중앙로29길 109 신남중학교,298397,547102,"교육,학문>중학교",,02-2602-7353,http://www.shinnam.ms.kr/
212,양천<b>중학교</b>,서울특별시 양천구 신월동 948,서울특별시 양천구 지양로7길 32 양천중학교,296845,547044,"교육,학문>중학교",,02-2694-2715,http://www.yangcheon.ms.kr/
213,양서<b>중학교</b>,서울특별시 양천구 신월동 789-1,서울특별시 양천구 남부순환로 380 양서중학교,296705,548472,"교육,학문>중학교",,02-2606-5162,http://www.yangseo.ms.kr/
214,봉영여자<b>중학교</b>,서울특별시 양천구 신정7동 325-8,서울특별시 양천구 목동동로2길 68 목동고등학교,299535,545816,"교육,학문>중학교",,02-2648-7124,http://www.bongyoung.ms.kr/
215,금옥<b>중학교</b>,서울특별시 양천구 신정동 729,서울특별시 양천구 신정로 213,298017,545992,"교육,학문>중학교",,02-2606-6477,http://www.geumok.ms.kr/
216,영도<b>중학교</b>,서울특별시 양천구 목동 735,서울특별시 양천구 목동중앙남로 27,299979,548797,"교육,학문>중학교",,02-2643-0243,http://www.yeongdo21.ms.kr/
217,신원<b>중학교</b>,서울특별시 양천구 신월동 43-4,서울특별시 양천구 가로공원로55길 19 신원중학교,296266,548963,"교육,학문>중학교",,02-2699-0183,http://www.shinwon.ms.kr/
218,화원<b>중학교</b>,서울특별시 강서구 화곡1동 351-94,서울특별시 강서구 강서로17나길 86 화원중학교,297910,548918,"교육,학문>중학교",,02-811-2000,http://www.shwawon.ms.kr/
219,송정<b>중학교</b>,서울특별시 강서구 공항동 768-1,서울특별시 강서구 남부순환로 121,295506,550862,"교육,학문>중학교",,02-2661-0478,http://www.songjeong.ms.kr/
220,등명<b>중학교</b>,서울특별시 강서구 등촌동 690-4,서울특별시 강서구 공항대로39길 39 등명중학교,298004,551518,"교육,학문>중학교",,02-2658-2727,http://www.deungmyoung.ms.kr/
221,백석<b>중학교</b>,서울특별시 강서구 등촌2동 520-5,서울특별시 강서구 등촌로51나길 35 백석중학교,299372,550183,"교육,학문>중학교",,02-2644-2886,http://www.baekseok.ms.kr/
222,방화<b>중학교</b>,서울특별시 강서구 방화동 636-1,서울특별시 강서구 개화동로27길 9 방화중학교,294761,552131,"교육,학문>중학교",,02-2664-8952,http://www.banghwa.ms.kr/
223,명덕여자<b>중학교</b>,서울특별시 강서구 내발산동 169-1,서울특별시 강서구 강서로47길 34-10,297250,550774,"교육,학문>중학교",,02-2664-8813,http://www.myungduk.ms.kr/
224,등원<b>중학교</b>,서울특별시 강서구 등촌동 707-4,서울특별시 강서구 화곡로65길 50 등원중학교,298749,551466,"교육,학문>중학교",,02-2658-2707,http://www.deungwon.ms.kr/
225,신정여자<b>중학교</b>,서울특별시 강서구 화곡4동 477-1 신정여자중학교,서울특별시 강서구 등촌로13아길 20 신정여자상업고등학교,299141,549040,"교육,학문>중학교",,02-2644-3549,http://www.shinjeong.ms.kr/
226,화곡<b>중학교</b>,서울특별시 강서구 내발산동 715,서울특별시 강서구 강서로45길 70 화곡중학교. 화곡보건경영고등학교,297099,550202,"교육,학문>중학교",,,http://www.hwagok.ms.kr/
227,염창<b>중학교</b>,서울특별시 강서구 염창동 85,서울특별시 강서구 양천로67가길 83 염창중학교,300497,550787,"교육,학문>중학교",,02-3663-8148,http://www.yumchang.ms.kr/
228,등촌<b>중학교</b>,서울특별시 강서구 등촌동 534-9,서울특별시 강서구 공항대로 484-12 등촌중학교,299402,550647,"교육,학문>중학교",,02-2653-0392,http://www.deungchon.ms.kr/
229,공항<b>중학교</b>,서울특별시 강서구 공항동 12-3,서울특별시 강서구 방화대로 241 공항중학교,295545,551850,"교육,학문>중학교",,02-2662-0471,http://www.konghang.ms.kr/
230,공진<b>중학교</b>,서울특별시 강서구 가양동 1476,서울특별시 강서구 양천로55길 56 공진중학교,298692,552242,"교육,학문>중학교",,02-3665-8673,http://www.kongjin.ms.kr/
231,성재<b>중학교</b>,서울특별시 강서구 가양동 1463 성재중학교,서울특별시 강서구 허준로 36,298187,552559,"교육,학문>중학교",,02-2658-9853,http://www.sungjae.ms.kr/
232,경서<b>중학교</b>,서울특별시 강서구 가양동 1483,서울특별시 강서구 양천로59길 31 경서중학교,299322,551655,"교육,학문>중학교",,02-2668-0304,http://www.gyeongseo.ms.kr/
233,덕원<b>중학교</b>,서울특별시 강서구 내발산동 산58,서울특별시 강서구 강서로45길 91-44,296771,550377,"교육,학문>중학교",,,http://www.deokwon.ms.kr/
234,수명<b>중학교</b>,서울특별시 강서구 내발산동 757,서울특별시 강서구 수명로2길 16 수명중학교,296242,550286,"교육,학문>중학교",,02-6738-1200,http://www.sumyeong.ms.kr/
235,염경<b>중학교</b>,서울특별시 강서구 염창동 79-8,서울특별시 강서구 양천로69길 35 염경중학교,300399,550851,"교육,학문>중학교",,02-3661-6253,http://www.ymgng.ms.kr/
236,마곡<b>중학교</b>,서울특별시 강서구 마곡동 736-1,서울특별시 강서구 마곡중앙5로 58,296069,552417,"교육,학문>중학교",,02-2666-8502,http://magok.ms.kr/
237,마포<b>중학교</b>,서울특별시 강서구 등촌동 82-1,서울특별시 강서구 화곡로 403 마포고등학교,298867,551532,"교육,학문>중학교",,02-3663-2587,http://www.mapo.ms.kr/
238,삼정<b>중학교</b>,서울특별시 강서구 방화동 856,서울특별시 강서구 금낭화로 210 삼정중학교,295160,553938,"교육,학문>중학교",,02-2666-6033,http://www.samjeong.ms.kr/
239,방원<b>중학교</b>,서울특별시 강서구 방화동 808,서울특별시 강서구 금낭화로 268 방원중학교,294974,553316,"교육,학문>중학교",,02-2666-6014,http://www.bangwon.ms.kr/
240,마곡2<b>중학교</b>(2020년3월예정),서울특별시 강서구 마곡동 749,,296012,551312,"교육,학문>중학교",,,
241,화곡<b>중학교</b> 행정실,서울특별시 강서구 내발산동 715,서울특별시 강서구 강서로45길 70,297052,550298,"교육,학문>중학교",,,
242,경인<b>중학교</b>,서울특별시 구로구 개봉동 143-4,서울특별시 구로구 경인로 301 경인중학교,298925,544626,"교육,학문>중학교",,02-2612-3471,http://www.kyeongin.ms.kr/
243,고척<b>중학교</b>,서울특별시 구로구 고척동 76-2,서울특별시 구로구 중앙로3길 20 고척중학교,299590,544853,"교육,학문>중학교",,02-6917-7101,http://www.gocheok.ms.kr/
244,영림<b>중학교</b>,서울특별시 구로구 구로동 105-2,서울특별시 구로구 가마산로27길 17 영림중학교,302087,544562,"교육,학문>중학교",,02-859-0320,http://www.younglim.ms.kr/
245,신도림<b>중학교</b>,서울특별시 구로구 신도림동 311-1,서울특별시 구로구 경인로63길 74 신도림중학교,301669,545991,"교육,학문>중학교",,02-2676-1993,http://www.sindorim.ms.kr/
246,오남<b>중학교</b>,서울특별시 구로구 오류동 산39-40,서울특별시 구로구 오리로9길 25 오남중학교,297343,543418,"교육,학문>중학교",,02-2687-4235,http://www.ohnam.ms.kr/
247,구로<b>중학교</b>,서울특별시 구로구 구로동 90,서울특별시 구로구 구로중앙로 48 구로중학교,302075,544204,"교육,학문>중학교",,02-864-4233,http://www.guro.ms.kr/
248,구일<b>중학교</b>,서울특별시 구로구 구로동 685-161,서울특별시 구로구 구일로 90-133 구일중학교,300646,544268,"교육,학문>중학교",,02-2107-9100,http://www.kuil.ms.kr/
249,개봉<b>중학교</b>,서울특별시 구로구 개봉동 24-2,서울특별시 구로구 고척로21나길 68 개봉중학교,297827,545157,"교육,학문>중학교",,02-2613-8727,http://www.gaebong.ms.kr/
250,개웅<b>중학교</b>,서울특별시 구로구 개봉3동 273-15,서울특별시 구로구 개봉로11길 81 개웅중학교,298592,543441,"교육,학문>중학교",,02-2613-3342,http://www.kaewoong.ms.kr/
251,영서<b>중학교</b>,서울특별시 구로구 구로동 145-20,서울특별시 구로구 도림로20길 35 영서중학교,302427,543590,"교육,학문>중학교",,02-856-9567,http://www.yeongseo.ms.kr/
252,오류<b>중학교</b>,서울특별시 구로구 고척동 243,서울특별시 구로구 고척로27바길 19 오류중학교,298225,545674,"교육,학문>중학교",,02-2612-2602,http://www.oryu.ms.kr/
253,항동<b>중학교</b>(2020년3월예정),서울특별시 구로구 항동 22-5,,295889,542976,"교육,학문>중학교",,,
254,천왕<b>중학교</b>,서울특별시 구로구 천왕동 273-1,서울특별시 구로구 천왕로 63 천왕중학교,297402,542938,"교육,학문>중학교",,02-2618-2832,http://www.cheonwang.ms.kr/
255,우신<b>중학교</b>,서울특별시 구로구 궁동 230-9,서울특별시 구로구 부일로 917 우신고등학교.우신중학교,296422,544447,"교육,학문>중학교",,,http://www.wooshin.ms.kr/
256,한울<b>중학교</b>,서울특별시 금천구 시흥동 792-1,서울특별시 금천구 독산로50길 60 한울중학교,303516,540598,"교육,학문>중학교",,02-856-4942,http://www.hanwool.ms.kr/
257,동일<b>중학교</b>,서울특별시 금천구 시흥2동 산100-4,서울특별시 금천구 탑골로10길 45 동일유치원,304387,539461,"교육,학문>중학교",,02-802-0991,http://www.dongil.ms.kr/
258,문성<b>중학교</b>,서울특별시 금천구 독산동 61,서울특별시 금천구 독산로102길 78 문성중학교,303627,542015,"교육,학문>중학교",,02-858-8446,http://www.munseong.ms.kr/
259,가산<b>중학교</b>,서울특별시 금천구 독산동 300-21,서울특별시 금천구 시흥대로115길 48,302395,541332,"교육,학문>중학교",,02-804-1777,http://www.gasan.ms.kr/
260,세일<b>중학교</b>,서울특별시 금천구 독산동 147-2,서울특별시 금천구 시흥대로147길 34 매점,302509,541978,"교육,학문>중학교",,02-856-0868,http://www.seil.ms.kr/
261,안천<b>중학교</b>,서울특별시 금천구 독산1동 1089,서울특별시 금천구 한내로 69-44 안천중학교,301770,540302,"교육,학문>중학교",,02-894-1204,http://www.ancheon.ms.kr/
262,국립전통예술<b>중학교</b>,서울특별시 금천구 시흥동 산24-17,서울특별시 금천구 시흥대로38길 62,303443,538718,"교육,학문>중학교",,,
263,문일<b>중학교</b>,서울특별시 금천구 시흥동 559-1,서울특별시 금천구 시흥대로47길 45 문일중.고등학교,302790,539241,"교육,학문>중학교",,02-808-0297,http://www.moonil.ms.kr/
264,시흥<b>중학교</b>,서울특별시 금천구 시흥3동 산24-15,서울특별시 금천구 시흥대로38길 60 시흥중학교,303355,538803,"교육,학문>중학교",,02-895-2301,http://www.shi-heung.ms.kr/
265,당산<b>중학교</b>,서울특별시 영등포구 당산동 121,서울특별시 영등포구 버드나루로 160 당산중학교,303641,548347,"교육,학문>중학교",,02-2177-9900,http://www.dangsan.ms.kr/
266,양화<b>중학교</b>,서울특별시 영등포구 문래동3가 48,서울특별시 영등포구 당산로 56 양화중학교,302610,546980,"교육,학문>중학교",,02-2633-9284,http://www.yangwha.ms.kr/
267,여의도<b>중학교</b>,서울특별시 영등포구 여의도동 40-1 여의도중학교,서울특별시 영등포구 국제금융로7길 46 여의도중학교,306122,547410,"교육,학문>중학교",,02-2199-9600,http://www.yeouido.ms.kr/
268,윤중<b>중학교</b>,서울특별시 영등포구 여의도동 38-2,서울특별시 영등포구 여의동로3길 3 윤중중학교,305105,546837,"교육,학문>중학교",,02-783-4478,http://www.yunjung.ms.kr/
269,영남<b>중학교</b>,서울특별시 영등포구 대림동 735,서울특별시 영등포구 대림로31나길 17 영남중학교,302556,544539,"교육,학문>중학교",,02-848-9333,http://www.yeongnam.ms.kr/
270,선유<b>중학교</b>,서울특별시 영등포구 양평동3가 82,서울특별시 영등포구 선유로 213 선유중학교,302475,548465,"교육,학문>중학교",,02-2633-4147,http://www.seonyoo.ms.kr/
271,영원<b>중학교</b>,서울특별시 영등포구 영등포동 576-6,서울특별시 영등포구 영등포로62길 31 영원중학교,304185,546486,"교육,학문>중학교",,02-843-2028,http://www.youngwon.ms.kr/
272,대영<b>중학교</b>,서울특별시 영등포구 신길동 342-49,서울특별시 영등포구 도림로80가길 14 대영중학교,303364,545139,"교육,학문>중학교",,02-848-7781,http://www.daeyoung.ms.kr/
273,대림<b>중학교</b>,서울특별시 영등포구 대림동 959,서울특별시 영등포구 시흥대로185길 6 대림중학교,303569,543928,"교육,학문>중학교",,02-845-2172,http://www.daerim.ms.kr/
274,문래<b>중학교</b>,서울특별시 영등포구 문래동6가 44,서울특별시 영등포구 선유서로13길 6 문래중학교,301553,547070,"교육,학문>중학교",,02-6712-0707,http://www.mullae.ms.kr/
275,당산서<b>중학교</b>,서울특별시 영등포구 당산동5가 5,서울특별시 영등포구 당산로41길 12 당산서중학교,302826,548350,"교육,학문>중학교",,02-2676-0962,http://www.dangsanseo.ms.kr/
276,신길<b>중학교</b>(2020년9월예정),서울특별시 영등포구 신길동 4948,,304351,544953,"교육,학문>중학교",,,
277,강현<b>중학교</b>,서울특별시 동작구 상도동 335-5,서울특별시 동작구 상도로13라길 22,305680,545120,"교육,학문>중학교",,02-815-3939,http://www.sganghyeon.ms.kr/
278,중앙대학교사범대학부속<b>중학교</b>,서울특별시 동작구 흑석동 86,서울특별시 동작구 서달로 124 중앙대학교 사범대학 부속중학교,308355,545177,"교육,학문>중학교",,02-827-9114,http://www.cau.ms.kr/
279,성남<b>중학교</b>,서울특별시 동작구 대방동 375-1,서울특별시 동작구 대방동길 74,305365,545249,"교육,학문>중학교",,02-815-1332,http://www.sungnam.ms.kr/
280,대방<b>중학교</b>,서울특별시 동작구 신대방동 492-200,서울특별시 동작구 여의대방로10길 24,304151,544261,"교육,학문>중학교",,02-831-2502,http://www.dbm.ms.kr/
281,장승<b>중학교</b>,서울특별시 동작구 상도2동 175-1,서울특별시 동작구 장승배기로10가길 25 장승중학교,306547,545166,"교육,학문>중학교",,02-812-4416,http://www.jangseung.ms.kr/
282,동양<b>중학교</b>,서울특별시 동작구 흑석동 198-79,서울특별시 동작구 흑석로9길 94,308030,545809,"교육,학문>중학교",,02-814-9652,http://www.dongyang.ms.kr/
283,국사봉<b>중학교</b>,서울특별시 동작구 상도동 214-437,서울특별시 동작구 양녕로20길 20 국사봉중학교,306828,544025,"교육,학문>중학교",,02-823-8715,http://www.kuksabong.ms.kr/
284,남성<b>중학교</b>,서울특별시 동작구 사당동 304-45,서울특별시 동작구 남부순환로269길 166,309326,542369,"교육,학문>중학교",,,http://www.namsung.ms.kr/
285,상현<b>중학교</b>,서울특별시 동작구 상도동 111-52,서울특별시 동작구 사당로2길 2-19,308337,544084,"교육,학문>중학교",,02-815-5375,http://www.sanghyun.ms.kr/
286,상도<b>중학교</b>,서울특별시 동작구 사당동 181-20,서울특별시 동작구 사당로2가길 72,308354,543712,"교육,학문>중학교",,,http://www.seoulsangdo.ms.kr/
287,강남<b>중학교</b>,서울특별시 동작구 대방동 390-6,서울특별시 동작구 대방동15길 29,304928,545062,"교육,학문>중학교",<b>서울특별시 동작구</b> 대방동 위치.,02-814-5635,http://www.kangnam.ms.kr/
288,사당<b>중학교</b>,서울특별시 동작구 사당3동 209-16,서울특별시 동작구 사당로9가길 58 사당중학교,309020,543342,"교육,학문>중학교",,02-537-7156,http://www.sadang.ms.kr/
289,숭의여자<b>중학교</b>,서울특별시 동작구 대방동 20-114,서울특별시 동작구 여의대방로36길 79 숭의여자중고등학교,305504,545670,"교육,학문>중학교",,,http://www.seg.ms.kr/
290,영등포<b>중학교</b>,서울특별시 동작구 대방동 13-2,서울특별시 동작구 등용로8길 5 영등포중학교,305881,545572,"교육,학문>중학교",,02-815-2051,http://www.yeongdeungpo.ms.kr/
291,문창<b>중학교</b>,서울특별시 동작구 신대방2동 364-58,서울특별시 동작구 여의대방로22나길 40 문창중학교,304908,544289,"교육,학문>중학교",,02-821-2359,http://www.munchang.ms.kr/
292,동작<b>중학교</b>,서울특별시 동작구 동작동 59-1,서울특별시 동작구 동작대로39가길 83 동작중학교,309749,544204,"교육,학문>중학교",,02-591-6524,http://dongjak.ms.kr
293,신동신<b>중학교</b>,서울특별시 동작구 사당동 105-9,서울특별시 동작구 동작대로33마길 27-1,309807,543679,"교육,학문>중학교",,,
294,관악<b>중학교</b>,서울특별시 관악구 봉천동 100-569,서울특별시 관악구 남부순환로237길 60 관악중학교,308381,542570,"교육,학문>중학교",,02-889-1784,http://www.gwanak.ms.kr/
295,구암<b>중학교</b>,서울특별시 관악구 봉천동 1712-5,서울특별시 관악구 성현로 53,307218,543943,"교육,학문>중학교",,02-881-2999,http://www.guahm.ms.kr/
296,봉원<b>중학교</b>,서울특별시 관악구 봉천동 25-19,서울특별시 관악구 관악로24가길 15 서울봉원중학교,308089,542946,"교육,학문>중학교",,02-879-1543,http://www.bongwon.ms.kr/
297,신림<b>중학교</b>,서울특별시 관악구 신림동 133,서울특별시 관악구 신림로 40,306917,541462,"교육,학문>중학교",,02-882-1929,http://www.shillim.ms.kr/
298,삼성<b>중학교</b>,서울특별시 관악구 신림동 220-1,서울특별시 관악구 신림로3가길 39-24,306694,541128,"교육,학문>중학교",,02-871-6243,http://www.ssamsung.ms.kr/
299,인헌<b>중학교</b>,서울특별시 관악구 인헌동 1647,서울특별시 관악구 인헌9길 35 인헌중학교,309033,541732,"교육,학문>중학교",,02-877-6760,http://www.inhun.ms.kr/
300,성보<b>중학교</b>,서울특별시 관악구 미성동 1690 성보중학교,서울특별시 관악구 남부순환로156길 39 성보고등학교,304825,542561,"교육,학문>중학교",,02-818-9700,http://www.sungbo.ms.kr/
301,봉림<b>중학교</b>,서울특별시 관악구 봉천동 1531-38,서울특별시 관악구 장군봉길 72,306297,542584,"교육,학문>중학교",,02-888-1281,http://www.bongrim.ms.kr/
302,난우<b>중학교</b>,서울특별시 관악구 난곡동 652-156,서울특별시 관악구 난곡로16길 32 난우중학교,304924,541067,"교육,학문>중학교",,02-864-4017,http://www.nanwoo.ms.kr/
303,신관<b>중학교</b>,서울특별시 관악구 신림동 산168-10,서울특별시 관악구 신림로48길 17-16 신관중학교,305953,542531,"교육,학문>중학교",,02-885-6892,http://www.shingwan.ms.kr/
304,남서울<b>중학교</b>,서울특별시 관악구 신림동 1690-3,서울특별시 관악구 남부순환로172길 97 남서울중학교,304799,542768,"교육,학문>중학교",,02-855-9832,http://www.namseoul.ms.kr/
305,광신<b>중학교</b>,서울특별시 관악구 삼성동 328,서울특별시 관악구 광신길 141 광신중고등학교,305112,540882,"교육,학문>중학교",,02-881-8652,http://www.kwangshin.ms.kr/
306,남강<b>중학교</b>,서울특별시 관악구 난곡동 627-1,서울특별시 관악구 난곡로34길 80 남강중고등학교,305085,541580,"교육,학문>중학교",,02-839-1709,http://www.namkang.ms.kr/
307,미성<b>중학교</b>,서울특별시 관악구 신림동 745-24,서울특별시 관악구 문성로16길 40 미성중학교,303979,542030,"교육,학문>중학교",<b>서울특별시 관악구</b> 신림11동 위치.,,http://www.misung.ms.kr/
308,난곡<b>중학교</b>,서울특별시 관악구 신림동 768-21,서울특별시 관악구 문성로 79 서울미성초등학교,303877,542317,"교육,학문>중학교",,,http://www.nangok.ms.kr/
309,당곡<b>중학교</b>,서울특별시 관악구 봉천동 682,서울특별시 관악구 봉천로13길 101 당곡중학교,305861,543905,"교육,학문>중학교",,,http://www.danggok.ms.kr/
310,문영여자<b>중학교</b>,서울특별시 관악구 봉천동 1695,서울특별시 관악구 관악로 85,307448,541834,"교육,학문>중학교",,02-871-8921,http://www.moonyoung-gms.seoul.kr/
311,서일<b>중학교</b>,서울특별시 서초구 서초동 1313-8,서울특별시 서초구 서운로21길 2 서일중학교,313729,544575,"교육,학문>중학교",,02-3482-9663,http://www.seoil.ms.kr/
312,서운<b>중학교</b>,서울특별시 서초구 서초동 1325-1,서울특별시 서초구 서운로 115 서운중학교,313940,543989,"교육,학문>중학교",,02-3473-2701,http://www.seoun.ms.kr/
313,서초<b>중학교</b>,서울특별시 서초구 서초3동 1528,서울특별시 서초구 반포대로13길 48 서초중학교,312541,543074,"교육,학문>중학교",,02-583-0228,http://www.seocho.ms.kr/
314,영동<b>중학교</b>,서울특별시 서초구 우면동 680,서울특별시 서초구 성촌길 14 영동중학교,313982,540864,"교육,학문>중학교",,02-3474-7386,http://www.young-dong.ms.kr/
315,경원<b>중학교</b>,서울특별시 서초구 잠원동 66-1,서울특별시 서초구 신반포로33길 39,312578,545859,"교육,학문>중학교","<b>서울특별시 서초구</b> 잠원동 위치, 학교소개, 학사일정, 방과후학교, 교육과정 등 안내.",02-593-6578,http://www.kyongwon.ms.kr/
316,언남<b>중학교</b>,서울특별시 서초구 양재2동 310,서울특별시 서초구 동산로 55 언남중학교,315629,541575,"교육,학문>중학교",,02-577-3038,http://www.eonnam.ms.kr/
317,신동<b>중학교</b>,서울특별시 서초구 잠원동 54-6,서울특별시 서초구 나루터로 27 신동중학교,312971,546507,"교육,학문>중학교",,02-594-6456,http://www.shindong.ms.kr/
318,서문여자<b>중학교</b>,서울특별시 서초구 방배4동 1514,서울특별시 서초구 동광로12길 84 서문여자고등학교,310407,543429,"교육,학문>중학교",,02-3015-3600,http://www.suhmoon.ms.kr/
319,이수<b>중학교</b>,서울특별시 서초구 방배동 974-22,서울특별시 서초구 방배중앙로3길 32 이수중학교,310883,542599,"교육,학문>중학교",,02-521-4651,http://www.isu.ms.kr/
320,방배<b>중학교</b>,서울특별시 서초구 반포4동 586-1,서울특별시 서초구 동광로 144 방배중학교,311638,544040,"교육,학문>중학교",,02-532-1342,http://www.bangbae.ms.kr/
321,반포<b>중학교</b>,서울특별시 서초구 반포동 936,서울특별시 서초구 신반포로 67,311128,545039,"교육,학문>중학교",,02-599-2304,http://www.banpo.ms.kr/
322,신반포<b>중학교</b>,서울특별시 서초구 반포동 3-1,서울특별시 서초구 신반포로19길 26 신반포중학교,311415,545342,"교육,학문>중학교",,02-537-6731,http://www.shinbanpo.ms.kr/
323,원촌<b>중학교</b>,서울특별시 서초구 반포1동 22,서울특별시 서초구 사평대로45길 10 원촌중학교,313014,545365,"교육,학문>중학교",,02-3482-6055,http://www.wonchon.ms.kr/
324,세화여자<b>중학교</b>,서울특별시 서초구 반포본동 753,서울특별시 서초구 신반포로 56-7 세화여자중학교,311272,544906,"교육,학문>중학교",<b>서울특별시 서초구</b> 반포동 위치.,02-594-4887,http://www.sewha.ms.kr/
325,동덕여자<b>중학교</b>,서울특별시 서초구 방배3동 산82,서울특별시 서초구 효령로2길 123-5 동덕여자중고등학교,310991,542010,"교육,학문>중학교",,02-586-5417,http://www.dongduk.ms.kr/
326,내곡<b>중학교</b>,서울특별시 서초구 신원동 294,서울특별시 서초구 청계산로7길 9,316545,539294,"교육,학문>중학교",,02-571-9530,http://www.naegok.ms.kr
327,역삼<b>중학교</b>,서울특별시 강남구 역삼동 767-20,서울특별시 강남구 도곡로43길 10 역삼중학교,316116,544197,"교육,학문>중학교","<b>서울특별시 강남구</b> 역삼동 위치, 학교 소개, 학사일정, 진학정보 및 사진앨범 수록.",02-558-1501,http://www.yeoksam.ms.kr/
328,대청<b>중학교</b>,서울특별시 강남구 대치동 502,서울특별시 강남구 양재천로 321,316927,543571,"교육,학문>중학교",,02-553-9830,http://www.daecheong.ms.kr/
329,도곡<b>중학교</b>,서울특별시 강남구 도곡동 541-2,서울특별시 강남구 언주로57길 31 도곡중학교,315721,543780,"교육,학문>중학교",,02-3462-5951,http://www.dogok.ms.kr/
330,개원<b>중학교</b>,서울특별시 강남구 개포동 184,서울특별시 강남구 영동대로 101 개원중학교,318057,543688,"교육,학문>중학교","<b>서울특별시 강남구</b> 개포3동 위치, 학교소개, 학사일정, 진로상담, 방과후학교 등 안내.",02-3411-8321,http://www.kaewon.ms.kr/
331,대치<b>중학교</b>,서울특별시 강남구 도곡동 460,서울특별시 강남구 남부순환로378길 39 대치중학교,315953,542926,"교육,학문>중학교",,02-572-9781,http://www.daechi.ms.kr/
332,대명<b>중학교</b>,서울특별시 강남구 대치동 952,서울특별시 강남구 역삼로87길 26,317170,545334,"교육,학문>중학교",,02-563-3701,http://www.daemyeong.ms.kr/
333,언주<b>중학교</b>,서울특별시 강남구 삼성동 28 언주중학교,서울특별시 강남구 선릉로116길 57 언주중학교,315929,546260,"교육,학문>중학교",,02-514-7174,http://www.eonju.ms.kr/
334,신사<b>중학교</b>,서울특별시 강남구 압구정동 410,서울특별시 강남구 압구정로 123 신사중학교,313678,547399,"교육,학문>중학교",,02-541-1062,http://www.sinsa.ms.kr/
335,압구정<b>중학교</b>,서울특별시 강남구 압구정동 471,서울특별시 강남구 압구정로 225 압구정중학교,314734,548007,"교육,학문>중학교",,02-543-1393,http://www.apgujeong.ms.kr/
336,중동<b>중학교</b>,서울특별시 강남구 일원동 692,서울특별시 강남구 일원로8길 37 중동중학교,318724,543323,"교육,학문>중학교",,,http://www.joongdong.ms.kr/
337,청담<b>중학교</b>,서울특별시 강남구 청담동 143,서울특별시 강남구 압구정로61길 36 청담중학교,315812,547816,"교육,학문>중학교",,02-511-5151,http://www.cheongdam.ms.kr/
338,단국대학교 사범대학 부속<b>중학교</b>,서울특별시 강남구 대치1동 1013,서울특별시 강남구 도곡로64길 21 단국공업고등학교,316816,544117,"교육,학문>중학교",,02-2191-2600,http://www.dankook.ms.kr/
339,진선여자<b>중학교</b>,서울특별시 강남구 역삼동 713 진선여자중학교,서울특별시 강남구 선릉로85길 27 진선여자고등학교,316040,544894,"교육,학문>중학교",,02-566-3103,http://www.jinseon.ms.kr/
340,구룡<b>중학교</b>,서울특별시 강남구 개포동 650,서울특별시 강남구 선릉로 103 구룡중학교,316705,543105,"교육,학문>중학교",,02-576-6186,http://www.gury.ms.kr/
341,세곡<b>중학교</b>,서울특별시 강남구 자곡동 617,서울특별시 강남구 자곡로 81 세곡중학교,319878,541480,"교육,학문>중학교",,,http://www.segok.ms.kr/
342,숙명여자<b>중학교</b>,서울특별시 강남구 도곡동 91,서울특별시 강남구 남부순환로 2807 숙명여자고등학교,316380,543667,"교육,학문>중학교",,02-3462-5011,http://www.sookmyung.ms.kr/
343,대왕<b>중학교</b>,서울특별시 강남구 수서동 750,서울특별시 강남구 광평로20길 7 대왕중학교,319489,542769,"교육,학문>중학교",,02-2226-2868,http://www.daewang.ms.kr/
344,휘문<b>중학교</b>,서울특별시 강남구 대치동 952-1,서울특별시 강남구 역삼로 541 휘문중고등학교,317250,545240,"교육,학문>중학교",,,http://www.whimoon.ms.kr/
345,언북<b>중학교</b>,서울특별시 강남구 논현동 69,서울특별시 강남구 도산대로38길 27,314742,546793,"교육,학문>중학교",,02-514-4303,http://www.eonbuk.ms.kr/
346,봉은<b>중학교</b>,서울특별시 강남구 삼성동 82-7,서울특별시 강남구 영동대로128길 59 봉은중학교,317332,546738,"교육,학문>중학교",,02-547-5628,http://www.bongeun.ms.kr/
347,신구<b>중학교</b>,서울특별시 강남구 신사동 621,서울특별시 강남구 압구정로36길 17 신구중학교,314665,547664,"교육,학문>중학교",,02-548-5038,http://www.shingu.ms.kr/
348,개포<b>중학교</b>(휴교),서울특별시 강남구 개포동 660-37,서울특별시 강남구 선릉로 9 개포중학교,317224,542464,"교육,학문>중학교",,,http://www.gaepo.ms.kr/
349,은성<b>중학교</b>,서울특별시 강남구 도곡동 938-10,서울특별시 강남구 남부순환로359길 36 은광여자고등학교,314957,543283,"교육,학문>중학교",,02-3462-2003,http://www.eunseong.ms.kr/
350,수서<b>중학교</b>,서울특별시 강남구 수서동 710,서울특별시 강남구 광평로59길 57 수서중학교,320842,543601,"교육,학문>중학교",,02-451-7092,http://www.suseo.ms.kr/
351,신천<b>중학교</b>,서울특별시 송파구 잠실동 19-4,서울특별시 송파구 백제고분로 11 신천중학교,318717,546417,"교육,학문>중학교",,02-422-1479,http://www.scm.ms.kr/
352,잠실<b>중학교</b>,서울특별시 송파구 신천동 7-1,서울특별시 송파구 올림픽로35길 130 잠실중학교,320577,546547,"교육,학문>중학교",,02-418-0586,http://www.jamsil.ms.kr/
353,가락<b>중학교</b>,서울특별시 송파구 송파2동 168,서울특별시 송파구 송이로 45 가락중학교,322303,544808,"교육,학문>중학교",,02-2143-3102,http://www.karak.ms.kr/
354,오주<b>중학교</b>,서울특별시 송파구 오금동 59,서울특별시 송파구 동남로 281 오주중학교,323848,544727,"교육,학문>중학교",,02-3434-7500,http://www.oju.ms.kr/
355,송파<b>중학교</b>,서울특별시 송파구 가락동 139,서울특별시 송파구 동남로 203 송파중학교,323267,544113,"교육,학문>중학교",,02-402-0118,http://www.songpa.ms.kr/
356,잠신<b>중학교</b>,서울특별시 송파구 잠실동 22-1,서울특별시 송파구 잠실로 12 잠신중학교,319544,546411,"교육,학문>중학교",,02-2251-1234,http://www.jamsin.ms.kr/
357,문현<b>중학교</b>,서울특별시 송파구 장지동 838-3,서울특별시 송파구 충민로 99 문현중학교,323069,542424,"교육,학문>중학교",,02-407-4095,http://www.munhyeon.ms.kr/
358,아주<b>중학교</b>,서울특별시 송파구 잠실7동 115,서울특별시 송파구 올림픽로4길 69 아주중학교,318539,545213,"교육,학문>중학교",,02-415-1696,http://www.aju.ms.kr/
359,오륜<b>중학교</b>,서울특별시 송파구 오륜동 89-7,서울특별시 송파구 양재대로 1242 오륜중학교,324074,546362,"교육,학문>중학교",,02-3434-4100,http://www.oryun.ms.kr/
360,오금<b>중학교</b>,서울특별시 송파구 오금동 34,서울특별시 송파구 오금로35길 20 오금중학교,323165,545170,"교육,학문>중학교",,02-402-4778,http://www.ogeum.ms.kr/
361,거원<b>중학교</b>,서울특별시 송파구 거여동 296,서울특별시 송파구 양산로2길 30 거원중학교,324733,543204,"교육,학문>중학교",,02-405-4200,http://www.geowon.ms.kr/
362,정신여자<b>중학교</b>,서울특별시 송파구 잠실동 50-4,서울특별시 송파구 올림픽로4길 16 정신여자중고등학교,318294,545613,"교육,학문>중학교",,02-421-0748,http://www.chungshin.net/
363,방이<b>중학교</b>,서울특별시 송파구 방이2동 53,서울특별시 송파구 오금로11길 64 방이중학교,321808,546247,"교육,학문>중학교",,02-2152-7111,http://www.bangi.ms.kr/
364,송례<b>중학교</b>,서울특별시 송파구 장지동 899,서울특별시 송파구 위례순환로 429,324111,542096,"교육,학문>중학교",,02-2144-2800,http://www.songrye.ms.kr/
365,가원<b>중학교</b>,서울특별시 송파구 가락동 106-3,서울특별시 송파구 중대로10길 40-18 가원중학교,322659,543597,"교육,학문>중학교",,02-409-2179,http://www.gawon.ms.kr/
366,배명<b>중학교</b>,서울특별시 송파구 삼전동 172-1,서울특별시 송파구 삼학사로 11 배명중고등학교,320241,544489,"교육,학문>중학교",,02-414-5474,http://www.bm.ms.kr/
367,석촌<b>중학교</b>,서울특별시 송파구 가락동 43,서울특별시 송파구 송이로15길 13 석촌중학교,322473,544700,"교육,학문>중학교",,02-448-4031,http://www.seokchon.ms.kr/
368,문정<b>중학교</b>,서울특별시 송파구 문정동 12-1,서울특별시 송파구 문정로 73 문정중학교,323269,543293,"교육,학문>중학교",,02-448-6348,http://www.munjeong.ms.kr/
369,세륜<b>중학교</b>,서울특별시 송파구 오금동 7-3,서울특별시 송파구 양재대로72길 41 세륜중학교,323369,545528,"교육,학문>중학교",,02-431-1102,http://www.seryun.ms.kr/
370,일신여자<b>중학교</b>,서울특별시 송파구 송파동 99-2,서울특별시 송파구 송파대로38길 8,321790,544674,"교육,학문>중학교",,,http://www.ilsin.ms.kr/
371,서울체육<b>중학교</b>,서울특별시 송파구 방이동 88-14,서울특별시 송파구 강동대로 232 서울체육중학교 본관동,323282,546985,"교육,학문>중학교",,,http://www.cheyuk.ms.kr/
372,풍납<b>중학교</b>,서울특별시 송파구 풍납동 390,서울특별시 송파구 올림픽로43길 20 풍납중학교,322103,547431,"교육,학문>중학교",,02-2225-2000,http://www.pungnap.ms.kr/
373,보인<b>중학교</b>,서울특별시 송파구 오금동 162,서울특별시 송파구 오금로49길 18 보인중고등학교,323976,544365,"교육,학문>중학교",,02-449-6018,http://www.boin.ms.kr/
374,방산<b>중학교</b>,서울특별시 송파구 방이동 220,서울특별시 송파구 오금로29길 31 방산중학교,322551,545604,"교육,학문>중학교",,02-415-7254,http://www.bangsan.ms.kr/
375,보성<b>중학교</b>,서울특별시 송파구 방이동 89-22,서울특별시 송파구 양재대로 1278,323739,546830,"교육,학문>중학교",,02-2152-2513,http://www.posung.ms.kr/
376,영파여자<b>중학교</b>,서울특별시 송파구 풍납동 501,서울특별시 송파구 올림픽로 565 영파여자고등학교,322469,548245,"교육,학문>중학교",,,http://www.youngpa.ms.kr/
377,풍성<b>중학교</b>,서울특별시 송파구 풍납동 388-16,서울특별시 송파구 강동대로2길 27 풍성중학교,321790,547418,"교육,학문>중학교",,02-2224-7711,http://www.pungsung.ms.kr/
378,명일<b>중학교</b>,서울특별시 강동구 고덕동 489,서울특별시 강동구 양재대로156길 57 명일중학교,324922,550907,"교육,학문>중학교",,,http://www.myungil.ms.kr/
379,신명<b>중학교</b>,서울특별시 강동구 길동 42,서울특별시 강동구 명일로24길 33 서울신명초등학교,325038,549165,"교육,학문>중학교",,02-6969-6400,http://www.sinmyung.ms.kr/
380,한산<b>중학교</b>,서울특별시 강동구 둔촌동 161-1,서울특별시 강동구 풍성로 251,324207,547744,"교육,학문>중학교",,02-474-4903,http://www.urihansan.ms.kr/
381,둔촌<b>중학교</b>,서울특별시 강동구 둔촌동 19-1,서울특별시 강동구 진황도로61길 25-30 둔촌중학교,324732,547960,"교육,학문>중학교",,02-474-2754,http://www.doonchon.ms.kr/
382,신암<b>중학교</b>,서울특별시 강동구 암사동 444,서울특별시 강동구 고덕로 65 신암중학교,323601,550767,"교육,학문>중학교",,02-441-6756,http://www.sinam.ms.kr/
383,배재<b>중학교</b>,서울특별시 강동구 고덕동 313,"서울특별시 강동구 고덕로 227 배재중,고등학교",325078,550733,"교육,학문>중학교",,02-441-9151,http://www.pcms.kr/
384,성덕여자<b>중학교</b>,서울특별시 강동구 천호동 23-3,서울특별시 강동구 구천면로 396 성덕여자상업고등학교,324342,550064,"교육,학문>중학교",,02-475-4626,http://www.sd.ms.kr/
385,강동<b>중학교</b>,서울특별시 강동구 강일동 346-2,,327566,552255,"교육,학문>중학교",,02-481-1502,http://www.gang-dong.ms.kr/
386,한영<b>중학교</b>,서울특별시 강동구 상일동 166,"서울특별시 강동구 동남로 832 한영중,고등학교",325725,549996,"교육,학문>중학교",,02-6954-1403,http://www.hanyoung.ms.kr/
387,동신<b>중학교</b>,서울특별시 강동구 천호동 447-9,서울특별시 강동구 진황도로 72 동신중학교,323685,548653,"교육,학문>중학교",,02-3784-3938,http://www.dong-shin.ms.kr/
388,고덕<b>중학교</b>,서울특별시 강동구 고덕동 223,서울특별시 강동구 동남로82길 94 고덕중학교,326053,551206,"교육,학문>중학교",,02-2045-6000,http://www.godeok.ms.kr/
389,천호<b>중학교</b>,서울특별시 강동구 천호1동 38-1,서울특별시 강동구 상암로 153 천호중학교,324153,549742,"교육,학문>중학교",<b>서울특별시 강동구</b> 천호동 위치.,,http://www.cheonho.ms.kr/
390,강명<b>중학교</b>,서울특별시 강동구 강일동 737,서울특별시 강동구 상일로12길 56,327311,550692,"교육,학문>중학교",,,http://www.gangmyoung.ms.kr/
391,천일<b>중학교</b>,서울특별시 강동구 천호2동 313-5,서울특별시 강동구 천중로 57 천일중학교,323131,549668,"교육,학문>중학교",,,http://www.cheonil.ms.kr/
392,성내<b>중학교</b>,서울특별시 강동구 성내동 530,서울특별시 강동구 성안로7길 36 성내중학교,323284,547799,"교육,학문>중학교",,,http://www.seongnae.ms.kr/
393,강일<b>중학교</b>,서울특별시 강동구 암사동 414-17,서울특별시 강동구 고덕로27길 12 강일중학교,324056,550685,"교육,학문>중학교",,02-441-4651,http://www.kangil.ms.kr/
394,상일여자<b>중학교</b>,서울특별시 강동구 상일동 189,서울특별시 강동구 천호대로219길 83,326893,550047,"교육,학문>중학교",,02-428-0735,http://www.sangil.ms.kr/
395,동북<b>중학교</b>,서울특별시 강동구 둔촌동 180-2,서울특별시 강동구 강동대로 305 동북중.고등학교,324221,546819,"교육,학문>중학교",,02-477-2280,http://www.dongbuk.ms.kr/
