,title,address,roadAddress,mapx,mapy,category,description,telephone,link
0,서울대<b>학교</b> 사범대학 부설<b>초등학교</b>,서울특별시 종로구 이화동 149,서울특별시 종로구 대학로 64 서울사대부속초등학교,312140,553228,"교육,학문>초등학교",,02-768-1500,http://www.snu.es.kr/
1,교동<b>초등학교</b>,서울특별시 종로구 경운동 2,서울특별시 종로구 삼일대로 454 서울경운학교,310820,552995,"교육,학문>초등학교",,02-765-2884,http://www.skyodong.es.kr/
2,효제<b>초등학교</b>,서울특별시 종로구 효제동 255-4,서울특별시 종로구 대학로 12,312132,552791,"교육,학문>초등학교",,02-762-4279,http://www.hyoje.es.kr/
3,창신<b>초등학교</b>,서울특별시 종로구 창신동 128-32,서울특별시 종로구 지봉로 73,313153,553109,"교육,학문>초등학교",,02-763-3160,http://www.chang-shin.es.kr/
4,명신<b>초등학교</b>,서울특별시 종로구 창신동 7-40,서울특별시 종로구 낙산길 250,313121,553691,"교육,학문>초등학교",,02-766-1415,http://www.myungshin.es.kr/
5,재동<b>초등학교</b>,서울특별시 종로구 가회동 210,서울특별시 종로구 북촌로4길 7,310610,553563,"교육,학문>초등학교",,02-763-1812,http://www.jaedong.es.kr/
6,상명대<b>학교</b> 사범대학 부속<b>초등학교</b>,서울특별시 종로구 홍지동 56,서울특별시 종로구 홍지문2길 1 상명초등학교,308049,555911,"교육,학문>초등학교",,02-395-0678,http://www.sangmyung-ae.es.kr/
7,세검정<b>초등학교</b>,서울특별시 종로구 신영동 219-4,서울특별시 종로구 세검정로9길 1,308458,556193,"교육,학문>초등학교",,02-379-3004,http://www.segumjung.es.kr/
8,혜화<b>초등학교</b>,서울특별시 종로구 혜화동 13-1,서울특별시 종로구 혜화로 32,311871,554572,"교육,학문>초등학교",,02-762-6437,http://www.hyehwa-e.seoul.kr/
9,청운<b>초등학교</b>,서울특별시 종로구 청운동 123,서울특별시 종로구 자하문로 105,309183,554247,"교육,학문>초등학교",,02-737-0218,http://www.chungwoon.es.kr/
10,운현<b>초등학교</b>,서울특별시 종로구 운니동 114-7,서울특별시 종로구 삼일대로 460 운현초등학교,310835,553142,"교육,학문>초등학교",,02-765-0895,http://www.unhyun.es.kr/
11,독립문<b>초등학교</b>,서울특별시 종로구 무악동 46-82,서울특별시 종로구 통일로12길 23,308346,552943,"교육,학문>초등학교",<b>서울특별시 종로구</b> 무악동 위치.,02-737-4684,http://www.dnm.es.kr/
12,매동<b>초등학교</b>,서울특별시 종로구 필운동 32,서울특별시 종로구 사직로9길 19,308946,553309,"교육,학문>초등학교",,02-737-4263,http://www.maedong.es.kr/
13,충무<b>초등학교</b>,서울특별시 중구 장충동2가 173-7,서울특별시 중구 퇴계로50길 13,312013,551545,"교육,학문>초등학교",,02-2279-4697,http://seoulchungmu.es.kr/
14,덕수<b>초등학교</b>,서울특별시 중구 정동 1-76,서울특별시 중구 덕수궁길 140,309612,552319,"교육,학문>초등학교",,02-735-7225,http://www.deoksoo.es.kr/
15,숭의<b>초등학교</b>,서울특별시 중구 예장동 8-3,서울특별시 중구 소파로2길 10,310795,550946,"교육,학문>초등학교",,02-3708-9401,http://www.soongeui.es.kr/
16,청구<b>초등학교</b>,서울특별시 중구 신당동 330-2,서울특별시 중구 다산로 170,313113,551190,"교육,학문>초등학교",<b>서울특별시 중구</b> 청구동 위치.,02-2252-1866,http://www.cheonggu.es.kr/
17,동산<b>초등학교</b>,서울특별시 중구 신당동 333-579,서울특별시 중구 매봉18길 109,313329,550905,"교육,학문>초등학교",,02-2252-7654,http://www.seoul-dongsan.es.kr/
18,봉래<b>초등학교</b>,서울특별시 중구 만리동2가 2,서울특별시 중구 손기정로 73,308674,550990,"교육,학문>초등학교",,02-392-5469,http://www.seoul-bongrae.es.kr/
19,광희<b>초등학교</b>,서울특별시 중구 신당동 254-16,서울특별시 중구 다산로 269,313184,552162,"교육,학문>초등학교",,02-2238-8455,http://www.gwanghee.es.kr/
20,신당<b>초등학교</b>,서울특별시 중구 신당동 161-2,서울특별시 중구 난계로 141,313954,551754,"교육,학문>초등학교",,02-2232-2893,http://www.shindang.es.kr/
21,리라<b>초등학교</b>,서울특별시 중구 예장동 8-162,,310795,551088,"교육,학문>초등학교",,02-777-7461,http://www.lila.es.kr/
22,장충<b>초등학교</b>,서울특별시 중구 신당동 386-86,서울특별시 중구 청구로17길 40,312848,551315,"교육,학문>초등학교",,02-2238-9091,http://www.jangchung.es.kr/
23,남산<b>초등학교</b>,서울특별시 중구 남산동2가 2,서울특별시 중구 퇴계로22길 17,310681,551328,"교육,학문>초등학교",,02-2097-9500,http://www.namsani.es.kr/
24,흥인<b>초등학교</b>,서울특별시 중구 신당동 292-66,서울특별시 중구 청구로6길 11,313149,551430,"교육,학문>초등학교",,02-2235-4092,http://www.heungin.es.kr/
25,신용산<b>초등학교</b>,서울특별시 용산구 이촌동 301-75,서울특별시 용산구 이촌로 255,309670,546975,"교육,학문>초등학교",,,http://www.sys-e.es.kr/
26,원효<b>초등학교</b>,서울특별시 용산구 산천동 6-73,서울특별시 용산구 효창원로13길 38 원효초등학교,307549,548746,"교육,학문>초등학교",,02-716-4424,http://www.wonhyo.es.kr/
27,삼광<b>초등학교</b>,서울특별시 용산구 후암동 190-2,서울특별시 용산구 두텁바위로1나길 19,309791,549954,"교육,학문>초등학교",,02-754-4052,http://www.seoulsamkwang.es.kr/
28,보광<b>초등학교</b>,서울특별시 용산구 이태원동 15-13,서울특별시 용산구 우사단로 20,311526,548315,"교육,학문>초등학교",,02-795-2549,http://www.bogwang.es.kr/
29,금양<b>초등학교</b>,서울특별시 용산구 효창동 126-4,서울특별시 용산구 효창원로 137,308392,549242,"교육,학문>초등학교",,02-704-2901,http://www.keumyang.es.kr/
30,용암<b>초등학교</b>,서울특별시 용산구 용산동2가 5-2147,서울특별시 용산구 녹사평대로60길 39,310907,549720,"교육,학문>초등학교",,02-796-2167,http://www.yongamcho.seoul.kr/
31,한남<b>초등학교</b>,서울특별시 용산구 한남동 726-1,서울특별시 용산구 한남대로 112,312257,549047,"교육,학문>초등학교",,02-749-2371,http://www.hannam.es.kr/
32,신광<b>초등학교</b>,서울특별시 용산구 청파동3가 100,서울특별시 용산구 청파로 263 학교법인신광학원,309202,549447,"교육,학문>초등학교",,,http://www.shinkwang.es.kr/
33,한강<b>초등학교</b>,서울특별시 용산구 한강로3가 65-5,서울특별시 용산구 한강대로14길 9,308722,547514,"교육,학문>초등학교",,02-798-1949,http://www.hangang.es.kr/
34,청파<b>초등학교</b>,서울특별시 용산구 청파동2가 1-42,서울특별시 용산구 효창원로 228,308676,550039,"교육,학문>초등학교",,,http://www.s-cheongpa.es.kr/
35,이태원<b>초등학교</b>,서울특별시 용산구 이태원동 406,서울특별시 용산구 녹사평대로40길 19,310771,548698,"교육,학문>초등학교",,02-795-2809,http://www.itaewon.es.kr/
36,용산<b>초등학교</b>,서울특별시 용산구 한강로2가 1,서울특별시 용산구 한강대로57길 33,309394,548658,"교육,학문>초등학교",,02-795-0782,http://www.sys.es.kr/
37,서빙고<b>초등학교</b>,서울특별시 용산구 서빙고동 235-1,서울특별시 용산구 서빙고로51길 14,311117,547049,"교육,학문>초등학교",,02-795-2435,http://www.seobinggo.es.kr/
38,후암<b>초등학교</b>,서울특별시 용산구 후암동 30-138,서울특별시 용산구 두텁바위로 140,310278,550386,"교육,학문>초등학교",,02-779-3936,http://huam.es.kr/
39,남정<b>초등학교</b>,서울특별시 용산구 원효로2가 54-1,서울특별시 용산구 원효로64길 17-10,308729,548764,"교육,학문>초등학교",,02-712-8015,http://www.seoul-nj.es.kr/
40,경동<b>초등학교</b>,서울특별시 성동구 성수동1가 19-1,서울특별시 성동구 성수일로 34,316278,549442,"교육,학문>초등학교",,02-469-2235,http://www.kyungdong.es.kr/
41,한양<b>초등학교</b>,서울특별시 성동구 사근동 110,서울특별시 성동구 왕십리로 222 한양대학교,316298,551026,"교육,학문>초등학교",,02-2293-8732,http://www.hye.or.kr/
42,행현<b>초등학교</b>,서울특별시 성동구 행당동 317-18,서울특별시 성동구 행당로 95,314444,551054,"교육,학문>초등학교",,02-2294-7614,http://www.haenghyun.es.kr/
43,응봉<b>초등학교</b>,서울특별시 성동구 응봉동 193,서울특별시 성동구 독서당로62길 28,314830,550252,"교육,학문>초등학교",,02-2281-0816,http://www.eb.es.kr/
44,동호<b>초등학교</b>,서울특별시 성동구 옥수동 556-1,서울특별시 성동구 동호로5길 131 서울방송고등학교,312719,549840,"교육,학문>초등학교",,02-2299-8370,http://www.s-dongho.es.kr/
45,숭신<b>초등학교</b>,서울특별시 성동구 하왕십리동 1068,서울특별시 성동구 마장로 161,314316,552192,"교육,학문>초등학교",,02-2252-5950,http://www.soongshin.es.kr/
46,무학<b>초등학교</b>,서울특별시 성동구 하왕십리동 950-1,서울특별시 성동구 무학봉15길 21,314476,551670,"교육,학문>초등학교",,,http://www.muhag.es.kr/
47,금북<b>초등학교</b>,서울특별시 성동구 금호동1가 48-2,서울특별시 성동구 행당로1길 13,313910,551021,"교육,학문>초등학교",,02-2299-5303,http://www.geumbuk.es.kr/
48,성수<b>초등학교</b>,서울특별시 성동구 성수동2가 277-32,서울특별시 성동구 아차산로17길 21,317428,549526,"교육,학문>초등학교",,02-466-4504,http://www.seongsoo.es.kr/
49,동명<b>초등학교</b>,서울특별시 성동구 마장동 556,서울특별시 성동구 마장로29길 29,315025,552287,"교육,학문>초등학교",,02-2299-5125,http://www.dgmg.es.kr/
50,금호<b>초등학교</b>,서울특별시 성동구 금호동2가 511,서울특별시 성동구 무수막길 69,313596,550510,"교육,학문>초등학교",,02-2237-7495,http://www.geumho.es.kr/
51,경일<b>초등학교</b>,서울특별시 성동구 성수동1가 656-32,서울특별시 성동구 뚝섬로 332,315998,549147,"교육,학문>초등학교",,02-499-5225,http://www.kyongil.es.kr/
52,옥정<b>초등학교</b>,서울특별시 성동구 옥수동 233-16,서울특별시 성동구 한림말길 43,313189,549315,"교육,학문>초등학교",,02-2297-0149,http://www.okjeong.es.kr/index/index.do
53,옥수<b>초등학교</b>,서울특별시 성동구 금호동4가 440-12,서울특별시 성동구 금호로1길 25,313788,549773,"교육,학문>초등학교",,02-2297-8623,http://www.oksu.es.kr/
54,송원<b>초등학교</b>,서울특별시 성동구 송정동 72-8,서울특별시 성동구 동일로43길 9,318005,550608,"교육,학문>초등학교",,02-469-5074,http://www.ssw.es.kr/
55,행당<b>초등학교</b>,서울특별시 성동구 행당동 320-60,서울특별시 성동구 고산자로8길 6,314927,550967,"교육,학문>초등학교",,02-2292-9434,http://www.hd.es.kr/
56,경수<b>초등학교</b>,서울특별시 성동구 성수동2가 268,서울특별시 성동구 뚝섬로13길 22,316980,549104,"교육,학문>초등학교",,02-498-5125,http://www.kyeongsu.es.kr/
57,금옥<b>초등학교</b>,서울특별시 성동구 금호동4가 1254,서울특별시 성동구 독서당로 251,313401,549813,"교육,학문>초등학교",,02-2297-2267,http://www.geumok.es.kr/
58,용답<b>초등학교</b>,서울특별시 성동구 용답동 29,서울특별시 성동구 용답25길 1,316569,551381,"교육,학문>초등학교",,02-2245-0751,http://www.yd.es.kr/
59,마장<b>초등학교</b>,서울특별시 성동구 마장동 766-49,서울특별시 성동구 마장로35나길 31,315629,552189,"교육,학문>초등학교",,02-2292-1834,http://www.majang.es.kr/
60,사근<b>초등학교</b>,서울특별시 성동구 사근동 291-5,서울특별시 성동구 사근동11길 16,316072,551622,"교육,학문>초등학교",,02-2292-0039,http://www.sageun.es.kr/
61,용마<b>초등학교</b>,서울특별시 광진구 중곡동 135-1,서울특별시 광진구 천호대로113길 10,319309,551064,"교육,학문>초등학교",,02-3436-4012,http://www.ymc.es.kr/
62,경복<b>초등학교</b>,서울특별시 광진구 능동 25,서울특별시 광진구 천호대로130길 58 경복초등학교,319508,550130,"교육,학문>초등학교",,,http://www.kbes.kr/
63,세종<b>초등학교</b>,서울특별시 광진구 군자동 98,서울특별시 광진구 능동로 209 세종대학교,318282,550498,"교육,학문>초등학교",,,http://sje.sejong.ac.kr/
64,신자<b>초등학교</b>,서울특별시 광진구 자양동 591,서울특별시 광진구 뚝섬로46길 64,318495,547970,"교육,학문>초등학교",,,http://www.sinja.es.kr/
65,성자<b>초등학교</b>,서울특별시 광진구 자양동 662,서울특별시 광진구 뚝섬로56길 7,319155,548082,"교육,학문>초등학교",,02-452-3671,http://www.seongja.es.kr/
66,광남<b>초등학교</b>,서울특별시 광진구 광장동 554,서울특별시 광진구 아차산로70길 35,320719,549131,"교육,학문>초등학교",,02-455-3763,http://www.seoulgwangnam.es.kr/
67,양진<b>초등학교</b>,서울특별시 광진구 광장동 414-1,서울특별시 광진구 워커힐로 32,320520,549500,"교육,학문>초등학교",,02-454-9071,http://www.yjs.es.kr/
68,성동<b>초등학교</b>,서울특별시 광진구 자양동 694-1,서울특별시 광진구 자양로4길 63 성동초등학교,319729,548280,"교육,학문>초등학교",,02-447-2642,http://www.sungdong.es.kr/
69,광장<b>초등학교</b>,서울특별시 광진구 광장동 378-19,,320765,549985,"교육,학문>초등학교",,02-457-0840,http://www.kwangjang.es.kr/
70,동자<b>초등학교</b>,서울특별시 광진구 자양동 518-1,서울특별시 광진구 뚝섬로 561,318245,548476,"교육,학문>초등학교",,02-444-1349,http://www.dongja.es.kr/
71,구남<b>초등학교</b>,서울특별시 광진구 구의동 587-95,서울특별시 광진구 구의강변로 69,319973,548720,"교육,학문>초등학교",,02-453-8921,http://www.gunam.es.kr/
72,장안<b>초등학교</b>,서울특별시 광진구 군자동 365-1,서울특별시 광진구 군자로 74 서울장안초등학교,318217,550205,"교육,학문>초등학교",,02-469-5264,http://www.jangan.es.kr/
73,동의<b>초등학교</b>,서울특별시 광진구 구의동 4-5,서울특별시 광진구 영화사로 111,320589,550541,"교육,학문>초등학교",,,http://www.dongeui.es.kr/
74,신양<b>초등학교</b>,서울특별시 광진구 자양동 504,서울특별시 광진구 능동로 42,317944,548485,"교육,학문>초등학교",,,http://www.sinyang.es.kr/
75,화양<b>초등학교</b>,서울특별시 광진구 화양동 12-2,서울특별시 광진구 군자로 9,318112,549540,"교육,학문>초등학교",,02-461-1866,http://hy.es.kr/
76,광진<b>초등학교</b>,서울특별시 광진구 구의동 60-44,서울특별시 광진구 자양로40길 41,319893,549900,"교육,학문>초등학교",,02-458-4693,http://www.gwangjin.es.kr/
77,자양<b>초등학교</b>,서울특별시 광진구 자양동 222-6,서울특별시 광진구 아차산로44길 26,318862,548711,"교육,학문>초등학교",,02-457-1468,http://www.chayang.es.kr/
78,중마<b>초등학교</b>,서울특별시 광진구 중곡동 191-69,서울특별시 광진구 동일로72길 43,318929,551947,"교육,학문>초등학교",,02-466-1007,http://www.jungma.es.kr/
79,용곡<b>초등학교</b>,서울특별시 광진구 중곡동 176-1,서울특별시 광진구 용마산로22길 82,319673,552047,"교육,학문>초등학교",,02-457-7225,http://www.yonggok.es.kr/
80,중광<b>초등학교</b>,서울특별시 광진구 중곡동 220-22,서울특별시 광진구 긴고랑로13길 59,319163,551847,"교육,학문>초등학교",,02-469-3340,http://www.jkschool.net/
81,구의<b>초등학교</b>,서울특별시 광진구 화양동 303-9,서울특별시 광진구 광나루로30길 49 서울구의초등학교,318962,549379,"교육,학문>초등학교",,02-444-6490,http://www.guui.es.kr/
82,양남<b>초등학교</b>,서울특별시 광진구 자양동 692,서울특별시 광진구 뚝섬로64길 71,319738,548047,"교육,학문>초등학교",,02-452-8189,http://www.s-yangnam.es.kr/
83,서울양진<b>초등학교</b>,서울특별시 광진구 광장동 414-1,서울특별시 광진구 워커힐로 32,320522,549590,"교육,학문>초등학교",,02-454-9311,
84,서울동자<b>초등학교</b>,서울특별시 광진구 자양동 516-4,"서울특별시 광진구 뚝섬로 561 (자양3동,동자초등학교)",318245,548476,"교육,학문>초등학교",,02-444-1348,
85,경희<b>초등학교</b>,서울특별시 동대문구 회기동 1-5,서울특별시 동대문구 경희대로 26 경희초등학교,316239,555173,"교육,학문>초등학교",,02-962-4300,http://www.kyunghee.es.kr/
86,장평<b>초등학교</b>,서울특별시 동대문구 장안동 323,서울특별시 동대문구 답십리로69길 27,318333,552808,"교육,학문>초등학교",,02-2243-6108,http://www.jang-pyung.es.kr/
87,은석<b>초등학교</b>,서울특별시 동대문구 장안동 328,서울특별시 동대문구 장안벚꽃로 205 은석초등학교,318575,553329,"교육,학문>초등학교",,02-6937-8180,http://www.eunseok.seoul.kr/
88,안평<b>초등학교</b>,서울특별시 동대문구 장안동 353-1,서울특별시 동대문구 장한로14길 61,318227,551934,"교육,학문>초등학교",,02-2214-0258,http://www.anpyeong.es.kr/
89,배봉<b>초등학교</b>,서울특별시 동대문구 전농동 3-111,서울특별시 동대문구 사가정로 193,317708,553521,"교육,학문>초등학교",,02-2243-6502,http://www.baebong.es.kr/
90,용두<b>초등학교</b>,서울특별시 동대문구 용두동 237-1,서울특별시 동대문구 천호대로13길 43,314421,553106,"교육,학문>초등학교",,02-927-4892,http://www.yongdu.es.kr/
91,동답<b>초등학교</b>,서울특별시 동대문구 답십리동 2-24,서울특별시 동대문구 답십리로60길 12,317562,552612,"교육,학문>초등학교",,02-2213-9820,http://www.dongdab.es.kr/
92,전곡<b>초등학교</b>,서울특별시 동대문구 전농동 188,서울특별시 동대문구 전농로 172,316859,553564,"교육,학문>초등학교",,02-2242-6548,http://www.jeongok.es.kr/
93,청량<b>초등학교</b>,서울특별시 동대문구 회기동 1-1,서울특별시 동대문구 회기로25길 31,316827,554867,"교육,학문>초등학교",,02-962-1341,http://www.chongryang.es.kr/
94,홍파<b>초등학교</b>,서울특별시 동대문구 제기동 678,서울특별시 동대문구 고산자로 518,315359,554209,"교육,학문>초등학교",,02-967-8161,http://www.hongpa.es.kr/
95,삼육<b>초등학교</b>,서울특별시 동대문구 회기동 102-48,서울특별시 동대문구 회기로10길 63,316094,554490,"교육,학문>초등학교",,02-966-4859,http://www.seoul36.es.kr/
96,군자<b>초등학교</b>,서울특별시 동대문구 장안동 239-2,서울특별시 동대문구 한천로6길 21,317287,551779,"교육,학문>초등학교",,02-2244-0488,http://www.kunja.es.kr/
97,종암<b>초등학교</b>,서울특별시 동대문구 제기동 1157,서울특별시 동대문구 무학로44길 25,314651,553771,"교육,학문>초등학교",,02-924-4125,http://www.jongam.es.kr/
98,신답<b>초등학교</b>,서울특별시 동대문구 답십리동 463-13,서울특별시 동대문구 천호대로 177,315706,552769,"교육,학문>초등학교",,02-2212-1485,http://www.shindap.es.kr/
99,답십리<b>초등학교</b>,서울특별시 동대문구 답십리동 274,서울특별시 동대문구 전농로3길 23,316754,552261,"교육,학문>초등학교",,02-2242-9256,http://www.dapsimni.es.kr/
100,전농<b>초등학교</b>,서울특별시 동대문구 전농동 298,서울특별시 동대문구 사가정로 66,316661,552896,"교육,학문>초등학교",,02-2244-1883,http://www.jeonnong.es.kr/
101,이문<b>초등학교</b>,서울특별시 동대문구 이문동 256-30,서울특별시 동대문구 신이문로 16,317578,555966,"교육,학문>초등학교",,02-957-8141,http://www.imun.es.kr/
102,전동<b>초등학교</b>,서울특별시 동대문구 전농동 45-41,서울특별시 동대문구 전농로16길 61,317298,553438,"교육,학문>초등학교",,02-2214-6574,http://www.jeon-dong.es.kr/
103,휘봉<b>초등학교</b>,서울특별시 동대문구 휘경동 49-27,서울특별시 동대문구 장안벚꽃로 309,318082,554202,"교육,학문>초등학교",,02-2248-4644,http://www.hwibong.es.kr/
104,홍릉<b>초등학교</b>,서울특별시 동대문구 청량리동 206-44,서울특별시 동대문구 회기로 90,316043,554747,"교육,학문>초등학교",,02-968-4701,http://www.hongneung.es.kr/
105,휘경<b>초등학교</b>,서울특별시 동대문구 휘경동 302-2,서울특별시 동대문구 망우로6길 48,317033,554159,"교육,학문>초등학교",,02-2244-4941,http://www.hwykyung.es.kr/
106,금성<b>초등학교</b>,서울특별시 중랑구 신내동 651,서울특별시 중랑구 신내로21길 55,319834,557399,"교육,학문>초등학교",,02-3421-0500,http://www.kumsung.net/
107,신묵<b>초등학교</b>,서울특별시 중랑구 묵동 246-12,서울특별시 중랑구 동일로149길 46,318575,556494,"교육,학문>초등학교",,02-976-6212,http://www.sinmook.es.kr/
108,신현<b>초등학교</b>,서울특별시 중랑구 신내동 663,서울특별시 중랑구 봉화산로 188,320172,556323,"교육,학문>초등학교",,02-3421-0142,http://www.shinhyun.es.kr/
109,중화<b>초등학교</b>,서울특별시 중랑구 신내동 531,서울특별시 중랑구 신내로7가길 22,320243,556063,"교육,학문>초등학교",,02-433-1986,http://www.junghwa.es.kr/
110,중곡<b>초등학교</b>,서울특별시 중랑구 면목동 380,서울특별시 중랑구 면목로23길 20,319222,552879,"교육,학문>초등학교",,02-2209-2543,http://www.cg.es.kr/
111,봉화<b>초등학교</b>,서울특별시 중랑구 신내동 655,서울특별시 중랑구 신내로15길 110,320063,557205,"교육,학문>초등학교",,02-3421-0091,http://www.bongwha.es.kr/
112,묵동<b>초등학교</b>,서울특별시 중랑구 중화동 277-1,서울특별시 중랑구 동일로138길 27,319078,556177,"교육,학문>초등학교",,02-433-3140,http://www.mookdong.es.kr/
113,망우<b>초등학교</b>,서울특별시 중랑구 망우동 153-1,서울특별시 중랑구 망우로72길 49,321023,555527,"교육,학문>초등학교",,02-2209-6323,http://www.mangwoo.es.kr/
114,묵현<b>초등학교</b>,서울특별시 중랑구 묵동 242-55,서울특별시 중랑구 동일로157길 75,318432,556717,"교육,학문>초등학교",,02-977-9462,http://www.mh.es.kr/
115,면일<b>초등학교</b>,서울특별시 중랑구 망우동 438-2,서울특별시 중랑구 용마산로100길 13,320700,554808,"교육,학문>초등학교",,02-437-8112,http://www.myeonil.es.kr/
116,면동<b>초등학교</b>,서울특별시 중랑구 면목동 551,서울특별시 중랑구 면목로57길 32,319544,554084,"교육,학문>초등학교",,02-434-2697,http://www.myeondong.es.kr/
117,중랑<b>초등학교</b>,서울특별시 중랑구 면목동 192-1,서울특별시 중랑구 봉우재로6길 26,318546,554490,"교육,학문>초등학교",,02-437-4147,http://www.jungrang.es.kr/
118,중흥<b>초등학교</b>,서울특별시 중랑구 중화동 119,서울특별시 중랑구 봉화산로 82,319323,555896,"교육,학문>초등학교",,02-495-2912,http://www.jung-heung.es.kr/
119,중목<b>초등학교</b>,서울특별시 중랑구 면목동 180-5,서울특별시 중랑구 동일로 665,318895,554620,"교육,학문>초등학교",,02-2209-0013,http://www.joongmok.es.kr/
120,신내<b>초등학교</b>,서울특별시 중랑구 신내동 444,서울특별시 중랑구 용마산로125나길 22,320734,556194,"교육,학문>초등학교",,02-2207-0501,http://www.sinne.es.kr/
121,면목<b>초등학교</b>,서울특별시 중랑구 면목동 221,서울특별시 중랑구 면목로 434,319626,554732,"교육,학문>초등학교",,02-491-4341,http://www.myeonmok.es.kr/
122,상봉<b>초등학교</b>,서울특별시 중랑구 상봉동 312-1,서울특별시 중랑구 동일로126가길 11,319286,555533,"교육,학문>초등학교",,02-432-5237,http://www.sang-bong.es.kr/
123,면남<b>초등학교</b>,서울특별시 중랑구 면목동 583-15,서울특별시 중랑구 면목로30나길 38,319661,553151,"교육,학문>초등학교",,02-433-0074,http://www.myunnam.es.kr/
124,원묵<b>초등학교</b>,서울특별시 중랑구 묵동 11,서울특별시 중랑구 숙선옹주로 109,319508,557702,"교육,학문>초등학교",,02-3421-2100,http://www.wonmuk.es.kr/
125,면중<b>초등학교</b>,서울특별시 중랑구 면목동 491-1,서울특별시 중랑구 용마산로70길 43,320412,553734,"교육,학문>초등학교",,02-434-0386,http://www.myunjoong.es.kr/
126,동원<b>초등학교</b>,서울특별시 중랑구 망우동 216,서울특별시 중랑구 송림길 114,321185,556201,"교육,학문>초등학교",,02-438-3141,http://www.dongwon.es.kr/
127,서울새솔<b>초등학교</b>,서울특별시 중랑구 신내동 241,서울특별시 중랑구 신내역로1길 164 서울새솔초등학교,321736,557669,"교육,학문>초등학교",,,http://www.saesol.es.kr/
128,면북<b>초등학교</b>,서울특별시 중랑구 망우동 119,서울특별시 중랑구 용마공원로5길 32,321025,555088,"교육,학문>초등학교",,02-433-3338,http://www.myeonbuk.es.kr/
129,돈암<b>초등학교</b>,서울특별시 성북구 동소문동6가 27-1,서울특별시 성북구 동소문로13길 38,313007,555068,"교육,학문>초등학교",,02-928-2010,http://www.donam.es.kr/
130,미아<b>초등학교</b>,서울특별시 성북구 길음동 1168,서울특별시 성북구 삼양로 77,313816,556974,"교육,학문>초등학교",,02-912-4014,http://www.mia.es.kr/
131,숭인<b>초등학교</b>,서울특별시 성북구 하월곡동 222-4,서울특별시 성북구 오패산로16길 37,315294,556755,"교육,학문>초등학교",,,http://www.soongin.es.kr/
132,숭례<b>초등학교</b>,서울특별시 성북구 종암동 22-1,서울특별시 성북구 종암로5길 14,314943,555181,"교육,학문>초등학교",,02-927-5611,http://www.sungrye.es.kr/
133,우촌<b>초등학교</b>,서울특별시 성북구 돈암동 609,서울특별시 성북구 성북로4길 52-1 우촌초등학교,312899,555283,"교육,학문>초등학교",,02-929-1671,http://www.uchon.es.kr/
134,월곡<b>초등학교</b>,서울특별시 성북구 상월곡동 246-194,서울특별시 성북구 장월로3길 42,315986,556846,"교육,학문>초등학교",,02-915-2787,http://www.swg.es.kr/
135,청덕<b>초등학교</b>,서울특별시 성북구 정릉동 847,서울특별시 성북구 정릉로9라길 11,311945,557112,"교육,학문>초등학교",,02-914-8740,http://www.cheongdeok.es.kr/
136,숭덕<b>초등학교</b>,서울특별시 성북구 정릉동 172-2,서울특별시 성북구 정릉로 279,313141,556293,"교육,학문>초등학교",,02-911-1761,http://www.soongduck.es.kr/
137,길음<b>초등학교</b>,서울특별시 성북구 길음동 635-7,서울특별시 성북구 길음로 144 서울길음중학교,313497,557305,"교육,학문>초등학교",,02-918-9983,http://www.gireum.es.kr/
138,개운<b>초등학교</b>,서울특별시 성북구 돈암동 2-8,서울특별시 성북구 정릉로48길 52,314344,555935,"교육,학문>초등학교",,02-925-8838,http://www.gaewoon.es.kr/
139,장곡<b>초등학교</b>,서울특별시 성북구 장위동 235,서울특별시 성북구 장월로23길 16,316183,557604,"교육,학문>초등학교",,02-918-8494,http://www.janggokcho.es.kr/
140,매원<b>초등학교</b>,서울특별시 성북구 돈암동 45-88,서울특별시 성북구 북악산로 870 고명정보산업고등학교,313573,555543,"교육,학문>초등학교",,02-922-6052,http://www.maewon.es.kr/
141,대광<b>초등학교</b>,서울특별시 성북구 보문동7가 111,서울특별시 성북구 안암로 5 대광초등학교,313969,553425,"교육,학문>초등학교",,02-923-2032,http://www.daegwang.or.kr/
142,성북<b>초등학교</b>,서울특별시 성북구 성북동 66-1,서울특별시 성북구 성북로 102-10,311738,555104,"교육,학문>초등학교",,02-764-5987,http://www.sungbuk.es.kr/
143,동신<b>초등학교</b>,서울특별시 성북구 보문동3가 228,서울특별시 성북구 보문사길 50,313352,553863,"교육,학문>초등학교",,02-923-3870,http://www.sdongsin.es.kr/
144,석관<b>초등학교</b>,서울특별시 성북구 석관동 205,서울특별시 성북구 돌곶이로22길 21,317091,556936,"교육,학문>초등학교",,02-959-1391,http://www.seokgwan.es.kr/
145,광운<b>초등학교</b>,서울특별시 성북구 장위동 128,서울특별시 성북구 한천로 693 광운초등학교,316787,557841,"교육,학문>초등학교",,02-915-7312,http://www.kwangwoon.es.kr/
146,서울정덕<b>초등학교</b>,서울특별시 성북구 동소문동7가 118-1,서울특별시 성북구 아리랑로 63 서울정덕초등학교,313087,555520,"교육,학문>초등학교",,02-928-0422,http://www.jeongdeok.es.kr/
147,장위<b>초등학교</b>,서울특별시 성북구 장위동 68-8,서울특별시 성북구 장월로8가길 41,316329,557102,"교육,학문>초등학교",,02-942-1772,http://www.jangwicho.es.kr/
148,정릉<b>초등학교</b>,서울특별시 성북구 정릉동 798,서울특별시 성북구 솔샘로25가길 8,312393,557977,"교육,학문>초등학교",,02-916-2590,http://www.jeongneung.es.kr/
149,숭곡<b>초등학교</b>,서울특별시 성북구 하월곡동 84-86,서울특별시 성북구 종암로40길 30,314796,556721,"교육,학문>초등학교",,02-912-5846,http://www.soonggok.es.kr/
150,길원<b>초등학교</b>,서울특별시 성북구 길음동 1280-4,서울특별시 성북구 길음로15길 55 서울길원초등학교,313388,556790,"교육,학문>초등학교",,02-914-9369,http://www.gilwon.es.kr/
151,석계<b>초등학교</b>,서울특별시 성북구 석관동 27-3,서울특별시 성북구 한천로58길 273,318075,556694,"교육,학문>초등학교",,02-964-9578,http://www.sukgye.es.kr/
152,삼선<b>초등학교</b>,서울특별시 성북구 삼선동3가 30-4,서울특별시 성북구 보문로29길 106,312965,554276,"교육,학문>초등학교",,02-742-1847,http://www.samsun.es.kr/
153,안암<b>초등학교</b>,서울특별시 성북구 안암동2가 93,서울특별시 성북구 고려대로7가길 39,313833,554327,"교육,학문>초등학교",,02-926-4426,http://www.anam.es.kr/
154,성신<b>초등학교</b>,서울특별시 성북구 돈암동 산11-269,서울특별시 성북구 북악산로22길 10-1,313945,555103,"교육,학문>초등학교",,02-921-1811,http://www.sungshin.es.kr/
155,장월<b>초등학교</b>,서울특별시 성북구 장위동 316,서울특별시 성북구 한천로101길 66,316089,558195,"교육,학문>초등학교",,02-918-7822,http://www.jangwol.es.kr/
156,일신<b>초등학교</b>,서울특별시 성북구 종암동 1-79,서울특별시 성북구 월곡로 74,315451,555621,"교육,학문>초등학교",,02-909-2893,http://www.ilshin.es.kr/
157,정수<b>초등학교</b>,서울특별시 성북구 정릉동 431-62,서울특별시 성북구 정릉로24길 58,312592,556210,"교육,학문>초등학교",,02-916-0051,http://www.jungsu.es.kr/
158,영훈<b>초등학교</b>,서울특별시 강북구 미아동 471-2,서울특별시 강북구 도봉로13가길 19 영훈학교,314365,557218,"교육,학문>초등학교",,02-944-3600,http://www.younghoon.es.kr/
159,삼각산<b>초등학교</b>,서울특별시 강북구 미아동 1353-10,서울특별시 강북구 삼양로19길 141 서울삼각산초등학교.서울삼각산중학교,313180,557563,"교육,학문>초등학교",,02-987-5784,http://www.samgaksan.es.kr/
160,인수<b>초등학교</b>,서울특별시 강북구 수유동 551-19,서울특별시 강북구 인수봉로 269 서울인수초등학교,312806,560526,"교육,학문>초등학교",,02-902-2003,http://www.insu.es.kr/
161,송중<b>초등학교</b>,서울특별시 강북구 미아동 94-1,서울특별시 강북구 오현로 9 송중초등학교,314705,557648,"교육,학문>초등학교",,02-985-1922,http://www.songjoong.es.kr/
162,번동<b>초등학교</b>,서울특별시 강북구 번동 236,서울특별시 강북구 오현로 204 번동초등학교,315514,559003,"교육,학문>초등학교",,02-987-1863,http://www.beondong.es.kr/
163,수송<b>초등학교</b>,서울특별시 강북구 번동 456,서울특별시 강북구 한천로124길 14 수송초등학교,314849,559884,"교육,학문>초등학교",,02-996-6494,http://www.soosong.es.kr/
164,송천<b>초등학교</b>,서울특별시 강북구 미아동 438,서울특별시 강북구 삼양로20길 29,313982,557510,"교육,학문>초등학교",,02-982-9511,http://www.song-cheon.es.kr/
165,유현<b>초등학교</b>,서울특별시 강북구 수유동 466-52,서울특별시 강북구 인수봉로37길 24 서울유현초등학교,312940,559287,"교육,학문>초등학교",,02-985-3122,http://www.youhyeon.es.kr/
166,삼양<b>초등학교</b>,서울특별시 강북구 미아동 791-1932,서울특별시 강북구 삼양로49길 17 삼양초등학교,313379,558395,"교육,학문>초등학교",,02-987-8321,http://www.samyang.es.kr/
167,우이<b>초등학교</b>,서울특별시 강북구 수유동 409-6,서울특별시 강북구 삼양로99길 36 서울우이초등학교,313279,560076,"교육,학문>초등학교",,02-991-8722,http://www.wooi.es.kr/
168,오현<b>초등학교</b>,서울특별시 강북구 번동 248,서울특별시 강북구 월계로 221 오현초등학교,316044,558340,"교육,학문>초등학교",,02-987-0419,http://www.oh-hyun.es.kr/
169,수유<b>초등학교</b>,서울특별시 강북구 수유동 55-5,서울특별시 강북구 삼양로74길 39 수유초등학교,313709,559192,"교육,학문>초등학교",,02-989-3724,http://www.suyu.es.kr/
170,화계<b>초등학교</b>,서울특별시 강북구 미아동 127-2,서울특별시 강북구 솔매로50가길 25 서울화계초등학교,314496,558434,"교육,학문>초등학교",,02-986-7782,http://www.hwagye.es.kr/
171,미양<b>초등학교</b>,서울특별시 강북구 미아동 837-687,서울특별시 강북구 솔샘로 195 미양초등학교,313131,558119,"교육,학문>초등학교",,02-989-9467,http://www.mi-yang.es.kr/
172,서울숭례<b>초등학교</b>,서울특별시 강북구 미아동 304-1,서울특별시 강북구 도봉로 193 (미아동),314220,558639,"교육,학문>초등학교",,02-927-5612,
173,동북<b>초등학교</b>,서울특별시 도봉구 쌍문동 263,서울특별시 도봉구 시루봉로 53 학교법인세그루학원,314275,561876,"교육,학문>초등학교",,02-993-1233,http://www.dongbuk.es.kr/
174,창경<b>초등학교</b>,서울특별시 도봉구 쌍문동 72,서울특별시 도봉구 도봉로129길 54 창경초등학교,315023,562016,"교육,학문>초등학교",,02-995-5265,http://www.changkyung.es.kr/
175,창림<b>초등학교</b>,서울특별시 도봉구 창동 411-8,서울특별시 도봉구 덕릉로63길 46,315581,560554,"교육,학문>초등학교",,02-992-8633,http://www.changlim.es.kr/
176,백운<b>초등학교</b>,서울특별시 도봉구 쌍문동 422-2,서울특별시 도봉구 삼양로146길 17 백운초등학교,313164,561686,"교육,학문>초등학교",,02-993-5727,http://www.s-baegun.es.kr/
177,창원<b>초등학교</b>,서울특별시 도봉구 창동 308,서울특별시 도봉구 해등로 103,315546,561565,"교육,학문>초등학교",,02-991-9167,http://www.changwon-s.es.kr/
178,자운<b>초등학교</b>,서울특별시 도봉구 창동 181-19,서울특별시 도봉구 마들로13길 166 자운초등학교,316062,562158,"교육,학문>초등학교",,02-908-0385,http://www.jawoon.es.kr/
179,신창<b>초등학교</b>,서울특별시 도봉구 창동 468-1,서울특별시 도봉구 덕릉로60길 93 신창초등학교,315642,559803,"교육,학문>초등학교",,02-999-8070,http://www.shinchang.es.kr/
180,창동<b>초등학교</b>,서울특별시 도봉구 창동 247-2,,315923,561878,"교육,학문>초등학교",,,http://www.changdong-s.es.kr/
181,창일<b>초등학교</b>,서울특별시 도봉구 창동 371,서울특별시 도봉구 노해로66길 84 창일초등학교,316134,561053,"교육,학문>초등학교",,02-996-9167,http://www.changil.es.kr/
182,한신<b>초등학교</b>,서울특별시 도봉구 쌍문동 150-1,서울특별시 도봉구 노해로49길 69 정의학교,314848,561659,"교육,학문>초등학교",,,http://www.ihansin.net/
183,오봉<b>초등학교</b>,서울특별시 도봉구 도봉동 608-22,서울특별시 도봉구 시루봉로 285,315526,563713,"교육,학문>초등학교",,02-3492-8613,http://www.seoulobong.es.kr/
184,누원<b>초등학교</b>,서울특별시 도봉구 도봉동 22-19,서울특별시 도봉구 마들로 859-44 서울누원초등학교,316374,565397,"교육,학문>초등학교",,02-955-5162,http://www.nuwon.es.kr/
185,신학<b>초등학교</b>,서울특별시 도봉구 방학동 460-5,서울특별시 도봉구 방학로 247-21 서울신학초등학교,314204,562535,"교육,학문>초등학교",,02-956-2802,http://www.seoulsinhak.es.kr/
186,신방학<b>초등학교</b>,서울특별시 도봉구 방학동 310,서울특별시 도봉구 시루봉로 173 신방학초등학교,314548,563079,"교육,학문>초등학교",,02-956-6508,http://www.sbh.es.kr/
187,창도<b>초등학교</b>,서울특별시 도봉구 방학동 722-1,서울특별시 도봉구 방학로 32-28 서울창도초등학교,316319,562835,"교육,학문>초등학교",,02-3492-0008,http://www.changdo.es.kr/
188,신화<b>초등학교</b>,서울특별시 도봉구 창동 504-33,서울특별시 도봉구 우이천로 120 신화초등학교,315554,559361,"교육,학문>초등학교",,02-992-9031,http://www.sinhwa.es.kr/
189,초당<b>초등학교</b>,서울특별시 도봉구 방학동 514-2,서울특별시 도봉구 해등로32길 11 서울초당초등학교,313922,562243,"교육,학문>초등학교",,02-956-1561,http://www.chodang.es.kr/
190,숭미<b>초등학교</b>,서울특별시 도봉구 쌍문동 309-3,서울특별시 도봉구 노해로 179 숭미초등학교,314420,561412,"교육,학문>초등학교",,02-904-9552,http://www.sungmi.es.kr/
191,쌍문<b>초등학교</b>,서울특별시 도봉구 쌍문동 360-4,서울특별시 도봉구 우이천로 360 쌍문초등학교,314132,561147,"교육,학문>초등학교",,02-992-5672,http://www.ssangmun.es.kr/
192,방학<b>초등학교</b>,서울특별시 도봉구 방학동 302,서울특별시 도봉구 도당로9길 34 방학초등학교,314778,562863,"교육,학문>초등학교",,02-3491-6361,http://www.banghakcho.es.kr/
193,가인<b>초등학교</b>,서울특별시 도봉구 창동 224-20,서울특별시 도봉구 도봉로136다길 4 가인초등학교,315757,562367,"교육,학문>초등학교",,02-997-5826,http://www.seoulgain.es.kr/
194,도봉<b>초등학교</b>,서울특별시 도봉구 도봉동 429-1,서울특별시 도봉구 도봉로173길 96 도봉초등학교,315370,564573,"교육,학문>초등학교",,02-3494-5101,http://www.dobong.es.kr/
195,월천<b>초등학교</b>,서울특별시 도봉구 창동 29,서울특별시 도봉구 노해로70길 96 서울월천초등학교,316519,561075,"교육,학문>초등학교",,02-993-9448,http://www.wolcheon.es.kr/
196,청원<b>초등학교</b>,서울특별시 노원구 상계동 641,서울특별시 노원구 한글비석로 506 청원초/중/고등학교,317386,562972,"교육,학문>초등학교",,02-3399-7888,http://www.cheongwon-seoul.es.kr/
197,수암<b>초등학교</b>,서울특별시 노원구 중계동 67,서울특별시 노원구 중계로12길 9,319131,561046,"교육,학문>초등학교",,02-3392-4277,http://www.suam.es.kr/
198,공연<b>초등학교</b>,서울특별시 노원구 공릉동 371-10,서울특별시 노원구 동일로192가길 16,318481,558738,"교육,학문>초등학교",,02-973-9400,http://www.gongyeon.es.kr/
199,중계<b>초등학교</b>,서울특별시 노원구 중계동 449-2,서울특별시 노원구 한글비석로19길 39,318434,562120,"교육,학문>초등학교",,,http://www.jg.es.kr/
200,원광<b>초등학교</b>,서울특별시 노원구 중계동 359,서울특별시 노원구 덕릉로76길 18,318571,561751,"교육,학문>초등학교",,02-951-3358,http://www.wonkwang.es.kr/
201,한천<b>초등학교</b>,서울특별시 노원구 월계동 3-7,서울특별시 노원구 마들로 45,318006,557992,"교육,학문>초등학교",,02-975-1484,http://www.hancheon.es.kr/
202,중평<b>초등학교</b>,서울특별시 노원구 하계동 271,서울특별시 노원구 섬밭로 241,317588,559899,"교육,학문>초등학교",,02-979-2388,http://www.jungpyong.es.kr/
203,상원<b>초등학교</b>,서울특별시 노원구 상계동 645,서울특별시 노원구 한글비석로54길 119,317236,563221,"교육,학문>초등학교",,02-952-7873,http://www.sangwon.es.kr/
204,용원<b>초등학교</b>,서울특별시 노원구 공릉동 709,서울특별시 노원구 섬밭로 144,317994,559015,"교육,학문>초등학교",,02-948-5302,http://www.yong1.es.kr/
205,공릉<b>초등학교</b>,서울특별시 노원구 공릉동 610-1,서울특별시 노원구 동일로173길 12,318463,557847,"교육,학문>초등학교",,02-949-0211,http://www.gongrung.es.kr/
206,덕암<b>초등학교</b>,서울특별시 노원구 상계동 1274,서울특별시 노원구 덕릉로112길 68,319151,563085,"교육,학문>초등학교",,02-3392-0058,http://www.deokam.es.kr/
207,불암<b>초등학교</b>,서울특별시 노원구 중계동 366-2,서울특별시 노원구 중계로 178,319067,561393,"교육,학문>초등학교",,02-932-5581,http://www.bulam.es.kr/
208,노일<b>초등학교</b>,서울특별시 노원구 상계동 1044-2,서울특별시 노원구 동일로 1625 노일유치원,316811,563897,"교육,학문>초등학교",,02-951-4394,http://www.noil.es.kr/
209,상수<b>초등학교</b>,서울특별시 노원구 상계동 755,서울특별시 노원구 동일로216길 66,317689,561492,"교육,학문>초등학교",,02-932-1442,http://www.sangsoo.es.kr/
210,당현<b>초등학교</b>,서울특별시 노원구 상계동 742,서울특별시 노원구 동일로213길 52,317107,561151,"교육,학문>초등학교",,02-932-0605,http://www.danghyeon.es.kr/
211,을지<b>초등학교</b>,서울특별시 노원구 중계동 360,서울특별시 노원구 중계로 239,318425,561330,"교육,학문>초등학교",,02-951-2742,http://www.eulji.es.kr/
212,태강삼육<b>초등학교</b>,서울특별시 노원구 공릉동 26-39,서울특별시 노원구 화랑로 815 삼육대학교,321716,560359,"교육,학문>초등학교",,02-972-3672,http://www.taegang.es.kr/
213,상계<b>초등학교</b>,서울특별시 노원구 상계동 402-1,서울특별시 노원구 상계로9길 39,317763,562308,"교육,학문>초등학교",,02-935-1658,http://www.sanggye.es.kr/
214,화랑<b>초등학교</b>,서울특별시 노원구 공릉동 126,서울특별시 노원구 화랑로 621,320216,558828,"교육,학문>초등학교",,02-972-2261,http://www.hwarang-s.es.kr/
215,연촌<b>초등학교</b>,서울특별시 노원구 하계동 154-12,서울특별시 노원구 공릉로58길 36,318363,559586,"교육,학문>초등학교",,02-972-1676,http://www.yeonchon.es.kr/
216,상경<b>초등학교</b>,서울특별시 노원구 상계동 621,서울특별시 노원구 수락산로 237,316552,563579,"교육,학문>초등학교",,02-937-3147,http://www.sanggyeong.es.kr/
217,태랑<b>초등학교</b>,서울특별시 노원구 공릉동 116,서울특별시 노원구 화랑로51나길 31,319935,558622,"교육,학문>초등학교",<b>서울특별시 노원구</b> 공릉2동 위치.,02-977-7384,http://www.taerang.es.kr/
218,태릉<b>초등학교</b>,서울특별시 노원구 공릉동 250-5,서울특별시 노원구 노원로1길 36,319405,558237,"교육,학문>초등학교",,02-979-5157,http://www.taereung.es.kr/
219,중현<b>초등학교</b>,서울특별시 노원구 하계동 272-2,서울특별시 노원구 섬밭로 181,317796,559318,"교육,학문>초등학교",,02-979-8433,http://www.joonghyun.es.kr/
220,수락<b>초등학교</b>,서울특별시 노원구 상계동 1171-2,서울특별시 노원구 동일로 1745,316810,565100,"교육,학문>초등학교",,02-939-0076,http://www.surak.es.kr/
221,계상<b>초등학교</b>,서울특별시 노원구 상계동 447-1,서울특별시 노원구 한글비석로41가길 24,317981,562696,"교육,학문>초등학교",,02-939-0872,http://www.kyesang.or.kr/
222,동일<b>초등학교</b>,서울특별시 노원구 상계동 655,서울특별시 노원구 한글비석로 566,316784,562976,"교육,학문>초등학교",,02-935-8225,http://www.dongil.es.kr/
223,노원<b>초등학교</b>,서울특별시 노원구 상계동 1014 서울노원초등학교,서울특별시 노원구 동일로230나길 32 노원초등학교,317133,563854,"교육,학문>초등학교",,02-939-1894,http://www.nowon.es.kr/
224,서울선곡<b>초등학교</b>,서울특별시 노원구 월계동 446,서울특별시 노원구 광운로2길 1 선곡초등학교,317076,557798,"교육,학문>초등학교",,02-918-6458,http://www.sungok.es.kr/
225,중원<b>초등학교</b>,서울특별시 노원구 중계동 502,서울특별시 노원구 섬밭로 316,317501,560592,"교육,학문>초등학교",,02-971-4771,http://www.jungwon.es.kr/
226,상곡<b>초등학교</b>,서울특별시 노원구 상계동 678,서울특별시 노원구 노원로38길 34,317498,562683,"교육,학문>초등학교",,02-935-9205,http://www.sanggok.es.kr/
227,온곡<b>초등학교</b>,서울특별시 노원구 상계동 638,서울특별시 노원구 한글비석로52길 59,317790,563228,"교육,학문>초등학교",,02-937-7136,http://www.ongok.es.kr/
228,상명<b>초등학교</b>,서울특별시 노원구 중계동 515-1,서울특별시 노원구 덕릉로 541 상명초등학교,317888,561142,"교육,학문>초등학교",,02-3788-3300,http://www.smcho.es.kr/
229,신계<b>초등학교</b>,서울특별시 노원구 월계동 602,서울특별시 노원구 초안산로 29,316593,559115,"교육,학문>초등학교",,02-902-0008,http://www.singye.es.kr/
230,월계<b>초등학교</b>,서울특별시 노원구 월계동 561,서울특별시 노원구 월계로45가길 10,316402,558820,"교육,학문>초등학교",,02-999-2381,http://www.i-wolgye.es.kr/
231,상천<b>초등학교</b>,서울특별시 노원구 상계동 768,서울특별시 노원구 덕릉로 443,317058,560862,"교육,학문>초등학교",,02-938-0204,http://www.sangchun.es.kr/
232,청계<b>초등학교</b>,서울특별시 노원구 중계동 513-1,서울특별시 노원구 공릉로 431,317784,560720,"교육,학문>초등학교",,02-949-2824,http://www.scg.es.kr/
233,신상계<b>초등학교</b>,서울특별시 노원구 상계동 86-1,서울특별시 노원구 상계로 267,318656,563270,"교육,학문>초등학교",,02-935-7095,http://www.sinsanggye.es.kr/
234,상월<b>초등학교</b>,서울특별시 노원구 상계동 697,서울특별시 노원구 동일로221길 27,316970,562234,"교육,학문>초등학교",,02-939-7368,http://www.sangwol.es.kr/
235,연지<b>초등학교</b>,서울특별시 노원구 월계동 320-8,서울특별시 노원구 월계로55길 48,317237,559477,"교육,학문>초등학교",,02-979-8092,http://www.seoulyeonji.es.kr/
236,용동<b>초등학교</b>,서울특별시 노원구 중계동 510-1,서울특별시 노원구 한글비석로1길 81-11,318057,560359,"교육,학문>초등학교",,02-949-0025,http://www.yongdong.es.kr/
237,녹천<b>초등학교</b>,서울특별시 노원구 월계동 322-2,서울특별시 노원구 마들로3길 34,317524,558915,"교육,학문>초등학교",,02-977-0670,http://www.nokcheon.es.kr/
238,은명<b>초등학교</b>,서울특별시 은평구 응암동 114-12,서울특별시 은평구 은평로4길 21-9,304693,555600,"교육,학문>초등학교",,02-359-9517,http://www.em.es.kr/
239,역촌<b>초등학교</b>,서울특별시 은평구 역촌동 82-1,서울특별시 은평구 은평로3길 25,304321,556097,"교육,학문>초등학교",,02-352-2245,http://www.yeokchon.es.kr/
240,녹번<b>초등학교</b>,서울특별시 은평구 녹번동 174,서울특별시 은평구 녹번로1길 1,305387,556328,"교육,학문>초등학교",,02-386-0753,http://www.nokbun.es.kr/
241,은빛<b>초등학교</b>,서울특별시 은평구 진관동 41-23,,304809,560580,"교육,학문>초등학교",,02-388-4923,http://www.ev.es.kr/
242,증산<b>초등학교</b>,서울특별시 은평구 증산동 212,서울특별시 은평구 증산서길 61,303411,553964,"교육,학문>초등학교",,02-373-6305,http://www.jeungsancho.es.kr/
243,구산<b>초등학교</b>,서울특별시 은평구 구산동 152-3,서울특별시 은평구 서오릉로15길 16,303913,557202,"교육,학문>초등학교",,02-387-7487,http://www.sgusan.es.kr/
244,예일<b>초등학교</b>,서울특별시 은평구 구산동 8-3,서울특별시 은평구 연서로 117,304346,557000,"교육,학문>초등학교",,,http://www.yale.es.kr/
245,대조<b>초등학교</b>,서울특별시 은평구 대조동 212-1,서울특별시 은평구 연서로18길 17,304816,557320,"교육,학문>초등학교",,02-355-3784,http://www.daejo.es.kr/
246,연신<b>초등학교</b>,서울특별시 은평구 불광동 73-1,서울특별시 은평구 연서로 347,305621,558807,"교육,학문>초등학교",,02-387-0373,http://www.yeonsin.es.kr/
247,은진<b>초등학교</b>,서울특별시 은평구 진관동 104,서울특별시 은평구 진관1로 21-20,304961,559511,"교육,학문>초등학교",,02-351-3561,http://www.eunjin.es.kr/
248,신도<b>초등학교</b>,서울특별시 은평구 진관동 108,서울특별시 은평구 진관1로 77-23,305696,559503,"교육,학문>초등학교",,02-352-3692,http://www.sindo.es.kr/
249,연천<b>초등학교</b>,서울특별시 은평구 불광동 346-153,서울특별시 은평구 연서로34길 22,305696,558151,"교육,학문>초등학교",,02-357-3911,http://www.yc1985.es.kr/
250,수리<b>초등학교</b>,서울특별시 은평구 불광동 639,서울특별시 은평구 불광로14길 10-10,306117,558103,"교육,학문>초등학교",,02-353-9400,http://www.suri.es.kr/
251,응암<b>초등학교</b>,서울특별시 은평구 응암동 산7-40,서울특별시 은평구 가좌로6길 20,304973,554569,"교육,학문>초등학교",<b>서울특별시 은평구</b> 응암3동 위치.,02-309-5555,http://www.eungam.es.kr/
252,불광<b>초등학교</b>,서울특별시 은평구 불광동 272-2,서울특별시 은평구 불광로 51,305837,557222,"교육,학문>초등학교",,02-355-1979,http://www.bulgwang.es.kr/
253,신사<b>초등학교</b>,서울특별시 은평구 신사동 98-32,서울특별시 은평구 가좌로 275-2,304116,555070,"교육,학문>초등학교",,02-373-9356,http://www.shinsa.es.kr/
254,은평<b>초등학교</b>,서울특별시 은평구 녹번동 40-3,서울특별시 은평구 은평로 239,306111,556069,"교육,학문>초등학교",,02-355-2578,http://www.eunpyeong.es.kr/
255,진관<b>초등학교</b>,서울특별시 은평구 진관동 8,서울특별시 은평구 진관4로 78-16,305707,560903,"교육,학문>초등학교",,02-386-3365,http://www.jingwan.es.kr/
256,상신<b>초등학교</b>,서울특별시 은평구 신사동 238-2,서울특별시 은평구 가좌로 361,303501,555638,"교육,학문>초등학교",,02-303-4245,http://www.sangsin.es.kr/
257,갈현<b>초등학교</b>,서울특별시 은평구 갈현동 451-15,서울특별시 은평구 연서로29길 31,304540,558009,"교육,학문>초등학교",,02-355-0835,http://www.galhyun.es.kr/
258,연은<b>초등학교</b>,서울특별시 은평구 응암동 242-424,서울특별시 은평구 백련산로2길 35,305265,554790,"교육,학문>초등학교",,02-372-6999,http://www.yeoneun.es.kr/
259,서신<b>초등학교</b>,서울특별시 은평구 신사동 194,서울특별시 은평구 은평터널로 150,303716,555027,"교육,학문>초등학교",,02-3152-0702,http://www.susin.es.kr/
260,수색<b>초등학교</b>,서울특별시 은평구 수색동 129,서울특별시 은평구 수색로16길 21,302659,554211,"교육,학문>초등학교",,02-372-8286,http://www.susaek.es.kr/
261,대은<b>초등학교</b>,서울특별시 은평구 대조동 82,서울특별시 은평구 통일로69길 12-15,305391,557188,"교육,학문>초등학교",,02-388-0833,http://www.daeeun.es.kr/
262,북한산<b>초등학교</b>,서울특별시 은평구 진관동 산3,서울특별시 은평구 대서문길 42-3,307590,561834,"교육,학문>초등학교",,02-359-9824,http://www.bukhansan.es.kr/
263,구현<b>초등학교</b>,서울특별시 은평구 구산동 164,서울특별시 은평구 갈현로15길 51,303588,556975,"교육,학문>초등학교",,02-352-5518,http://www.guhyun.es.kr/
264,충암<b>초등학교</b>,서울특별시 은평구 응암동 272-113,서울특별시 은평구 가좌로5길 5,305032,554238,"교육,학문>초등학교",,02-302-2430,http://www.choongam.es.kr/
265,연광<b>초등학교</b>,서울특별시 은평구 불광동 400-6,서울특별시 은평구 연서로35길 37,305254,558514,"교육,학문>초등학교",,02-353-5141,http://www.yeonkwang.es.kr/
266,선일<b>초등학교</b>,서울특별시 은평구 갈현동 240-1,서울특별시 은평구 갈현로29길 27,304254,558067,"교육,학문>초등학교",,02-355-7655,http://www.sunil.es.kr/
267,서울어울<b>초등학교</b>,서울특별시 은평구 녹번동 281-5,서울특별시 은평구 통일로 650,306169,556568,"교육,학문>초등학교",,02-355-4921,http://www.urwool.es.kr
268,북가좌<b>초등학교</b>,서울특별시 서대문구 북가좌동 376-17,서울특별시 서대문구 거북골로19길 20 서울북가좌초등학교,303711,553394,"교육,학문>초등학교",,02-372-4024,http://www.bukgajwa.es.kr/
269,연가<b>초등학교</b>,서울특별시 서대문구 남가좌동 364-6,서울특별시 서대문구 증가로12가길 49-50,304615,553631,"교육,학문>초등학교",,02-372-3044,http://www.yeonga.es.kr/
270,미동<b>초등학교</b>,서울특별시 서대문구 미근동 36-1,서울특별시 서대문구 충정로 52,308853,551748,"교육,학문>초등학교",,02-364-6524,http://www.smidong.es.kr/
271,이화여자대<b>학교</b> 사범대학 부속<b>초등학교</b>,서울특별시 서대문구 대신동 20,서울특별시 서대문구 성산로 512-39 이화여대부속초등학교,306805,551530,"교육,학문>초등학교",,02-363-5555,http://www.ewha.net/
272,안산<b>초등학교</b>,서울특별시 서대문구 홍제동 44,서울특별시 서대문구 통일로 321,307631,553560,"교육,학문>초등학교",,02-737-4265,http://www.ansan.es.kr/
273,북성<b>초등학교</b>,서울특별시 서대문구 북아현동 215,서울특별시 서대문구 북아현로5나길 84,307586,551310,"교육,학문>초등학교",,02-362-0669,http://www.seoulbuksung.es.kr/
274,인왕<b>초등학교</b>,서울특별시 서대문구 홍제동 245-1,서울특별시 서대문구 세무서길 33-9,307010,554746,"교육,학문>초등학교",,02-395-4094,http://www.inwang.es.kr/
275,서울가재울<b>초등학교</b>,서울특별시 서대문구 남가좌동 385-1,서울특별시 서대문구 모래내로15길 61 서울가재울초등학교,304678,552962,"교육,학문>초등학교",,,http://gajaeul.es.kr/
276,홍연<b>초등학교</b>,서울특별시 서대문구 홍은동 305,서울특별시 서대문구 백련사길 55,305759,553837,"교육,학문>초등학교",,02-394-1802,http://www.hyc.es.kr/
277,창서<b>초등학교</b>,서울특별시 서대문구 창천동 53-38,서울특별시 서대문구 연세로5나길 30-3,305981,551153,"교육,학문>초등학교",,02-332-9532,http://www.scs.es.kr/
278,대신<b>초등학교</b>,서울특별시 서대문구 대현동 67-1,서울특별시 서대문구 이화여대2길 27,307265,551157,"교육,학문>초등학교",,02-363-1994,http://www.sds.es.kr/
279,경기<b>초등학교</b>,서울특별시 서대문구 충정로2가 70-2,서울특별시 서대문구 경기대로9길 10 경기초등학교,308566,551959,"교육,학문>초등학교",,02-363-2908,http://www.kyonggicho.es.kr/
280,연희<b>초등학교</b>,서울특별시 서대문구 연희동 88-1,서울특별시 서대문구 연희로 136,306018,552453,"교육,학문>초등학교",,02-338-9919,http://www.yeonhui.es.kr/
281,명지<b>초등학교</b>,서울특별시 서대문구 홍은동 산26-127,서울특별시 서대문구 명지2길 32-20,305536,554008,"교육,학문>초등학교",,02-372-2872,http://www.myongji.net/
282,고은<b>초등학교</b>,서울특별시 서대문구 홍제동 320-3,서울특별시 서대문구 모래내로 441,306873,554154,"교육,학문>초등학교",,02-396-2652,http://www.goeun.es.kr/
283,홍제<b>초등학교</b>,서울특별시 서대문구 홍은동 48-112,서울특별시 서대문구 홍은중앙로 13,306980,555061,"교육,학문>초등학교",,02-3216-7688,http://www.hongje.es.kr/
284,홍은<b>초등학교</b>,서울특별시 서대문구 홍제동 286-5,서울특별시 서대문구 세검정로 105,307431,555552,"교육,학문>초등학교",,02-391-2196,http://www.hongeun.es.kr/
285,금화<b>초등학교</b>,서울특별시 서대문구 천연동 13-1,서울특별시 서대문구 통일로 165,308616,552290,"교육,학문>초등학교",,02-364-9264,http://www.geumhwa.es.kr/
286,추계<b>초등학교</b>,서울특별시 서대문구 북아현동 190-1,서울특별시 서대문구 북아현로11가길 7 추계예술대학교,307708,551799,"교육,학문>초등학교",,02-312-7701,http://www.chugye.es.kr/
287,염리<b>초등학교</b>,서울특별시 마포구 염리동 173-4,서울특별시 마포구 토정로37길 37 염리초등학교,307053,549479,"교육,학문>초등학교",,02-715-4916,http://www.yeomri.es.kr/
288,신석<b>초등학교</b>,서울특별시 마포구 신수동 429-2,서울특별시 마포구 대흥로 33 신석초등학교,306350,549659,"교육,학문>초등학교",,02-715-3669,http://www.sinseok.es.kr/
289,공덕<b>초등학교</b>,서울특별시 마포구 공덕동 256-4,서울특별시 마포구 만리재옛길 13,307730,549821,"교육,학문>초등학교",,02-703-6069,http://www.kongduck.es.kr/
290,서교<b>초등학교</b>,서울특별시 마포구 서교동 341,서울특별시 마포구 와우산로23길 20-27,305204,550868,"교육,학문>초등학교",,02-3143-0673,http://www.seokyo.es.kr/
291,성산<b>초등학교</b>,서울특별시 마포구 합정동 427-2,서울특별시 마포구 양화로3길 94 서울성산초등학교,304017,550671,"교육,학문>초등학교",,02-334-8103,http://www.ssc.es.kr/
292,하늘<b>초등학교</b>,서울특별시 마포구 상암동 1737,서울특별시 마포구 월드컵북로 502-14,301353,554286,"교육,학문>초등학교",,02-305-7762,http://www.sky.es.kr/
293,홍익대<b>학교</b>사범대학부속<b>초등학교</b>,서울특별시 마포구 성산동 산11-31,서울특별시 마포구 성미산로 51,304200,551374,"교육,학문>초등학교",,02-336-3500,http://www.hongik.es.kr/
294,서강<b>초등학교</b>,서울특별시 마포구 상수동 1-1,서울특별시 마포구 독막로 113 서강초등학교,305368,550125,"교육,학문>초등학교",,02-334-2410,http://www.sogang.es.kr/
295,상지<b>초등학교</b>,서울특별시 마포구 상암동 1676,서울특별시 마포구 월드컵로42길 30 상지초등학교,301463,553638,"교육,학문>초등학교",,02-303-9009,http://www.seoulsangji.es.kr/
296,중동<b>초등학교</b>,서울특별시 마포구 성산동 94-1,서울특별시 마포구 월드컵북로 152,304048,552186,"교육,학문>초등학교",,02-373-4835,http://www.jungdong.es.kr/
297,아현<b>초등학교</b>,서울특별시 마포구 아현동 267-2,서울특별시 마포구 굴레방로 6 서울아현초등학교,307954,550902,"교육,학문>초등학교",,02-313-5845,http://www.ahyun.es.kr/
298,성서<b>초등학교</b>,서울특별시 마포구 성산동 산23-2,서울특별시 마포구 성미산로7길 24,304009,551501,"교육,학문>초등학교",,02-3141-9544,http://www.sseo.es.kr/
299,신북<b>초등학교</b>,서울특별시 마포구 중동 42,서울특별시 마포구 월드컵북로38길 26,303466,552669,"교육,학문>초등학교",,02-303-6884,http://www.sinbuk.es.kr/
300,한서<b>초등학교</b>,서울특별시 마포구 염리동 24-140,서울특별시 마포구 대흥로24바길 27 한서초등학교,307405,550679,"교육,학문>초등학교",,02-716-4914,http://www.hanseo.es.kr/
301,용강<b>초등학교</b>,서울특별시 마포구 대흥동 51,서울특별시 마포구 백범로17길 9,306866,550141,"교육,학문>초등학교",,02-715-1749,http://www.yonggang.es.kr/
302,상암<b>초등학교</b>,서울특별시 마포구 상암동 1635,서울특별시 마포구 월드컵북로 353 상암초등학교,302356,553285,"교육,학문>초등학교",,02-375-8891,http://www.sangam.es.kr/
303,동교<b>초등학교</b>,서울특별시 마포구 망원동 426-5,서울특별시 마포구 월드컵로25길 86,303227,551234,"교육,학문>초등학교",,02-324-5091,http://www.donggyo.es.kr/
304,창천<b>초등학교</b>,서울특별시 마포구 노고산동 33-1,서울특별시 마포구 백범로1길 56 창천초등.중학교,306506,550828,"교육,학문>초등학교",,02-715-4667,http://www.changchon.es.kr/
305,마포<b>초등학교</b>,서울특별시 마포구 도화동 347-5,서울특별시 마포구 도화2길 64,307374,549030,"교육,학문>초등학교",,02-712-0852,http://www.mapo.es.kr/
306,소의<b>초등학교</b>,서울특별시 마포구 아현동 386-1,서울특별시 마포구 마포대로24길 42,308361,550533,"교육,학문>초등학교",,02-362-6571,http://www.soeui.es.kr/
307,망원<b>초등학교</b>,서울특별시 마포구 망원동 467-1,서울특별시 마포구 방울내로5길 28,303101,551530,"교육,학문>초등학교",<b>서울특별시 마포구</b> 망원동 위치.,02-334-5188,http://www.mangwon.es.kr/
308,성원<b>초등학교</b>,서울특별시 마포구 성산동 175-1,서울특별시 마포구 월드컵로36길 34,303484,552234,"교육,학문>초등학교",,02-305-7201,http://www.sungwon.es.kr/
309,은정<b>초등학교</b>,서울특별시 양천구 신정동 276-2,서울특별시 양천구 목동남로 85 은정초등학교,300029,546050,"교육,학문>초등학교",,02-2645-6871,http://www.eunjung.es.kr/
310,목운<b>초등학교</b>,서울특별시 양천구 목동 922,서울특별시 양천구 목동동로 235 목운초등학교.중학교,300627,547790,"교육,학문>초등학교",,02-2061-5212,http://www.mogun.es.kr/
311,신원<b>초등학교</b>,서울특별시 양천구 신월동 202-1,서울특별시 양천구 남부순환로58길 32 서울신원초등학교,296776,548125,"교육,학문>초등학교",,02-2608-4675,http://www.shinwon.es.kr/
312,경인<b>초등학교</b>,서울특별시 양천구 목동 911-4,서울특별시 양천구 안양천로 1009,301783,548462,"교육,학문>초등학교",,02-2647-2568,http://www.kyongin.es.kr/
313,신서<b>초등학교</b>,서울특별시 양천구 신정동 312-1,서울특별시 양천구 목동서로10길 35 신서초등학교,299638,547094,"교육,학문>초등학교",,02-2648-0878,http://www.sinseo.es.kr/
314,월촌<b>초등학교</b>,서울특별시 양천구 목동 901-1,서울특별시 양천구 목동중앙로 132,300915,549283,"교육,학문>초등학교",,02-2647-3666,http://www.swc.es.kr/
315,서정<b>초등학교</b>,서울특별시 양천구 목동 927-5,서울특별시 양천구 목동로8길 19,300055,547500,"교육,학문>초등학교",,02-2648-7003,http://www.sj.es.kr/
316,신기<b>초등학교</b>,서울특별시 양천구 신정동 1274,서울특별시 양천구 신정로 292,298917,546082,"교육,학문>초등학교",,,http://www.seoulsingi.es.kr/
317,강월<b>초등학교</b>,서울특별시 양천구 신월동 987-3,서울특별시 양천구 신월로 97 서울강월초등학교,297118,546669,"교육,학문>초등학교",,02-2605-0501,http://www.gangwol.es.kr/
318,신목<b>초등학교</b>,서울특별시 양천구 신정동 281-2,서울특별시 양천구 신목로5길 11-6 서울신목초등학교,300532,546702,"교육,학문>초등학교",,02-2649-8497,http://www.sinmoc.es.kr/
319,영도<b>초등학교</b>,서울특별시 양천구 목동 903-1,서울특별시 양천구 목동중앙로 70 서울영도초등학교,300509,548797,"교육,학문>초등학교",,02-2647-2387,http://www.youngdo.es.kr/
320,목동<b>초등학교</b>,서울특별시 양천구 신정동 86-2,서울특별시 양천구 목동동로12길 12 서울목동초등학교,300511,547334,"교육,학문>초등학교",,02-2645-6356,http://www.smd.es.kr/
321,양화<b>초등학교</b>,서울특별시 양천구 목동 542,서울특별시 양천구 목동중앙북로16길 57 서울양화초등학교,300791,549678,"교육,학문>초등학교",,02-2646-3510,http://www.yanghwa.es.kr/
322,양동<b>초등학교</b>,서울특별시 양천구 신정동 941,서울특별시 양천구 오목로23길 24 서울양동초등학교,298675,547711,"교육,학문>초등학교",,02-2602-5101,http://www.yang-dong.es.kr/
323,강서<b>초등학교</b>,서울특별시 양천구 신월동 441,서울특별시 양천구 오목로 31 서울강서초등학교,297746,547332,"교육,학문>초등학교",,02-2604-9763,http://www.kangseo.es.kr/
324,계남<b>초등학교</b>,서울특별시 양천구 신정동 325-7,서울특별시 양천구 목동동로2길 54 서울계남초등학교,299415,545972,"교육,학문>초등학교",,02-2645-8754,http://www.gyenam.es.kr/
325,신강<b>초등학교</b>,서울특별시 양천구 신월동 450-3,서울특별시 양천구 중앙로55길 72 서울신강초등학교,297820,547747,"교육,학문>초등학교",,02-2608-2567,http://www.singang.es.kr/
326,강신<b>초등학교</b>,서울특별시 양천구 신월동 6-7,서울특별시 양천구 월정로 280 서울강신초등학교,296741,549627,"교육,학문>초등학교",,02-2697-3035,http://www.kangsin.es.kr/
327,지향<b>초등학교</b>,서울특별시 양천구 신정동 1284,서울특별시 양천구 신정로11길 74,297420,546318,"교육,학문>초등학교",,02-2066-1187,http://www.jihyang.es.kr/
328,남명<b>초등학교</b>,서울특별시 양천구 신정동 653-5,서울특별시 양천구 중앙로23길 3,298859,546546,"교육,학문>초등학교",,02-2607-5092,http://www.nammyeong.es.kr/
329,양명<b>초등학교</b>,서울특별시 양천구 신정동 310-6,서울특별시 양천구 중앙로 206 신서중학교,299112,546609,"교육,학문>초등학교",,02-2646-1598,http://www.yangmyung.es.kr/
330,신남<b>초등학교</b>,서울특별시 양천구 신월동 589-1,서울특별시 양천구 절골8길 33 서울신남초등학교,298074,546659,"교육,학문>초등학교",,02-2697-5822,http://www.ssn.es.kr/
331,갈산<b>초등학교</b>,서울특별시 양천구 신정동 330-10,서울특별시 양천구 목동로 31 서울갈산초등학교,300283,546135,"교육,학문>초등학교",,02-2649-7232,http://www.galsan1.es.kr/
332,양강<b>초등학교</b>,서울특별시 양천구 신월동 496,서울특별시 양천구 오목로 101,298382,547544,"교육,학문>초등학교",,02-2698-1214,http://www.yanggang.es.kr/
333,정목<b>초등학교</b>,서울특별시 양천구 목동 757-1,서울특별시 양천구 목동중앙로3길 30-10,300360,548944,"교육,학문>초등학교",,02-2644-0840,http://www.jeongmok.es.kr/
334,장수<b>초등학교</b>,서울특별시 양천구 신정동 1288-2,서울특별시 양천구 신정로13가길 30,298114,546278,"교육,학문>초등학교",,02-2696-0906,http://www.jangsoo.es.kr/
335,신은<b>초등학교</b>,서울특별시 양천구 신정동 1319,서울특별시 양천구 신정이펜2로 30,296932,546413,"교육,학문>초등학교",,,http://www.se.es.kr/
336,양목<b>초등학교</b>,서울특별시 양천구 신정동 1001,서울특별시 양천구 목동로11길 30 서울양목초등학교,299577,547440,"교육,학문>초등학교",,02-2603-3405,http://www.yangmok.es.kr/
337,목원<b>초등학교</b>,서울특별시 양천구 목동 412-9,서울특별시 양천구 목동중앙로 204,301448,549571,"교육,학문>초등학교",,02-2643-5771,http://www.mokwon.ne.kr/
338,양원<b>초등학교</b>,서울특별시 양천구 신월동 41-1,서울특별시 양천구 화곡로 16 서울양원초등학교,296226,549117,"교육,학문>초등학교",,02-2696-6357,http://www.yangwon.es.kr/
339,강월<b>초등학교</b> 교무실,서울특별시 양천구 신월7동 987-3,서울특별시 양천구 신월로 97,297118,546669,"교육,학문>초등학교",,,
340,신월<b>초등학교</b>,서울특별시 강서구 화곡동 1080,서울특별시 강서구 강서로31길 48,297621,549338,"교육,학문>초등학교",,02-2699-4785,http://www.ssinwol.es.kr/
341,송정<b>초등학교</b>,서울특별시 강서구 공항동 22-16,서울특별시 강서구 공항대로3길 18 송정초등학교,295162,551836,"교육,학문>초등학교",,02-2662-0016,http://www.sjes.es.kr/
342,월정<b>초등학교</b>,서울특별시 강서구 화곡동 374-1,서울특별시 강서구 월정로 176 월정초등학교,297351,548713,"교육,학문>초등학교",,02-2694-2006,http://www.woljung.es.kr/
343,신정<b>초등학교</b>,서울특별시 강서구 화곡동 869-42,서울특별시 강서구 곰달래로31가길 27 신정초등학교,298793,548503,"교육,학문>초등학교",,02-2602-3940,http://www.sinjeong.es.kr/
344,공항<b>초등학교</b>,서울특별시 강서구 마곡동 743-5,서울특별시 강서구 마곡서1로 68,296089,551877,"교육,학문>초등학교",,02-2664-1176,http://www.konghang.es.kr/
345,서울공진<b>초등학교</b>,서울특별시 강서구 마곡동 749-2,서울특별시 강서구 마곡서로 33,296179,551275,"교육,학문>초등학교",,02-2223-2300,http://www.kongjin.es.kr/
346,백석<b>초등학교</b>,서울특별시 강서구 등촌동 650-14,서울특별시 강서구 공항대로 491 백석초등학교,299665,550759,"교육,학문>초등학교",,02-3661-3237,http://www.bsbs.es.kr/
347,발산<b>초등학교</b>,서울특별시 강서구 내발산동 408,서울특별시 강서구 강서로45길 113 발산초등학교,296904,550433,"교육,학문>초등학교",,02-2664-7502,http://www.balsan.es.kr/
348,수명<b>초등학교</b>,서울특별시 강서구 내발산동 752,서울특별시 강서구 수명로1길 84 서울수명초등학교,296268,550739,"교육,학문>초등학교",,,http://sumyeong.es.kr/
349,내발산<b>초등학교</b>,서울특별시 강서구 내발산동 707,서울특별시 강서구 강서로46길 23 내발산초등학교,297518,550573,"교육,학문>초등학교",,02-3662-7565,http://www.nbs.es.kr/
350,신곡<b>초등학교</b>,서울특별시 강서구 화곡동 476-42,서울특별시 강서구 등촌로13자길 42-14,299075,549145,"교육,학문>초등학교",,02-2643-2248,http://www.sg.es.kr/
351,유석<b>초등학교</b>,서울특별시 강서구 등촌동 82-1,서울특별시 강서구 화곡로 403 마포고등학교,298935,551574,"교육,학문>초등학교",,,http://www.yooseok.es.kr/
352,화곡<b>초등학교</b>,서울특별시 강서구 화곡동 24-266,서울특별시 강서구 초록마을로 28 화곡초등학교,298215,549598,"교육,학문>초등학교",,02-2699-3328,http://www.hwagok.es.kr/
353,송화<b>초등학교</b>,서울특별시 강서구 마곡동 734-5,,295738,552499,"교육,학문>초등학교",,,http://www.songhwa.es.kr/
354,우장<b>초등학교</b>,서울특별시 강서구 화곡동 18-5,서울특별시 강서구 화곡로 263 우장초등학교,298237,550290,"교육,학문>초등학교",,02-2603-9989,http://www.ujang.es.kr/
355,염동<b>초등학교</b>,서울특별시 강서구 염창동 45-4,서울특별시 강서구 양천로73길 17,300543,550636,"교육,학문>초등학교",,02-3664-1673,http://www.yeomdong.es.kr/
356,삼정<b>초등학교</b>,서울특별시 강서구 방화동 798,서울특별시 강서구 금낭화로 222 삼정초등학교,295140,553818,"교육,학문>초등학교",,02-2661-2274,http://www.esamjeong.es.kr/
357,양천<b>초등학교</b>,서울특별시 강서구 가양동 272-11,서울특별시 강서구 양천로 329,297675,552641,"교육,학문>초등학교",,02-3663-0006,http://www.yangcheun.es.kr/
358,염경<b>초등학교</b>,서울특별시 강서구 염창동 79,서울특별시 강서구 양천로69길 49 서울염경초등학교,300473,550919,"교육,학문>초등학교",,02-3662-0773,http://www.yeomkyoung.es.kr/
359,등현<b>초등학교</b>,서울특별시 강서구 등촌동 702-5,서울특별시 강서구 화곡로65길 124 등현초등학교,298391,551651,"교육,학문>초등학교",,02-2658-7851,http://www.deunghyun.es.kr/
360,등서<b>초등학교</b>,서울특별시 강서구 화곡동 1130-4,서울특별시 강서구 화곡로58길 86 등서초등학교,299033,550585,"교육,학문>초등학교",,02-2695-4555,http://www.deungseo.es.kr/
361,가곡<b>초등학교</b>,서울특별시 강서구 마곡동 728-28,서울특별시 강서구 공항대로36길 74,297347,551022,"교육,학문>초등학교",,02-2661-5995,http://www.ga-gok.es.kr/
362,탑산<b>초등학교</b>,서울특별시 강서구 가양동 1473,서울특별시 강서구 허준로 109 탑산초등학교,298830,552268,"교육,학문>초등학교",,02-659-5101,http://www.top.es.kr/
363,염창<b>초등학교</b>,서울특별시 강서구 염창동 269,서울특별시 강서구 양천로 646-28,300169,550741,"교육,학문>초등학교",,02-3664-0492,http://www.yeomchang.es.kr/
364,치현<b>초등학교</b>,서울특별시 강서구 방화동 833,서울특별시 강서구 방화대로47길 43 치현초등학교,295486,553300,"교육,학문>초등학교",,02-2661-6272,http://www.chihyeon.es.kr/
365,화일<b>초등학교</b>,서울특별시 강서구 화곡동 61-184,서울특별시 강서구 까치산로10길 70 서울화일초등학교,298364,549328,"교육,학문>초등학교",,02-2603-6502,http://www.hwail.es.kr/
366,가양<b>초등학교</b>,서울특별시 강서구 가양동 1484,서울특별시 강서구 허준로 186 가양초등학교,299373,551711,"교육,학문>초등학교",,02-2668-2101,http://www.kayang.es.kr/
367,정곡<b>초등학교</b>,서울특별시 강서구 방화동 836,서울특별시 강서구 방화대로50길 22 정곡초등학교,295876,553397,"교육,학문>초등학교",,02-2666-6442,http://www.jk.es.kr/
368,등명<b>초등학교</b>,서울특별시 강서구 등촌동 690-2,서울특별시 강서구 강서로56나길 34,297932,551595,"교육,학문>초등학교",,02-2658-3693,http://www.dungmyong.es.kr/
369,등촌<b>초등학교</b>,서울특별시 강서구 등촌동 520-4,서울특별시 강서구 등촌로39길 71,299270,550109,"교육,학문>초등학교",,02-2653-9374,http://www.deungchon.es.kr/
370,등원<b>초등학교</b>,서울특별시 강서구 등촌동 704-1,서울특별시 강서구 화곡로65길 90 등원초등학교,298580,551591,"교육,학문>초등학교",,02-2658-2233,http://www.deungwon.es.kr/
371,등마<b>초등학교</b>,서울특별시 강서구 등촌동 718,서울특별시 강서구 등촌로35길 12 서울등마초등학교,299602,549464,"교육,학문>초등학교",,02-2642-0232,http://www.dma.es.kr/
372,염강<b>초등학교</b>,서울특별시 강서구 가양동 1492,서울특별시 강서구 허준로 221-22 염강초등학교,299838,551613,"교육,학문>초등학교",,02-2659-4984,http://www.yk.es.kr/
373,개화<b>초등학교</b>,서울특별시 강서구 방화동 500-17,서울특별시 강서구 양천로 11,294605,553089,"교육,학문>초등학교",,02-2662-0492,http://www.gaehwa.es.kr/
374,등양<b>초등학교</b>,서울특별시 강서구 등촌동 691,서울특별시 강서구 강서로56나길 140 등양초등학교,298140,552059,"교육,학문>초등학교",,02-2658-0072,http://www.dungyang.es.kr/
375,방화<b>초등학교</b>,서울특별시 강서구 방화동 542-2,서울특별시 강서구 양천로6길 92 방화초등학교,294797,552522,"교육,학문>초등학교",,,
376,영서<b>초등학교</b>,서울특별시 구로구 구로동 165-1,서울특별시 구로구 도림로20길 57,302455,543495,"교육,학문>초등학교",,02-838-5212,http://www.youngseo.es.kr/
377,하늘숲<b>초등학교</b>,서울특별시 구로구 천왕동 산13-1,서울특별시 구로구 오리로 1100 천왕연지타워,297750,543090,"교육,학문>초등학교",,02-2056-5100,
378,세곡<b>초등학교</b>,서울특별시 구로구 고척동 253-129,서울특별시 구로구 고척로33길 34,298444,545397,"교육,학문>초등학교",,02-2613-5275,http://www.segok.es.kr/
379,미래<b>초등학교</b>,서울특별시 구로구 구로동 3-13,서울특별시 구로구 새말로 73 미래초등학교,301882,545366,"교육,학문>초등학교",,02-868-1981,http://www.mirae.es.kr/
380,영일<b>초등학교</b>,서울특별시 구로구 가리봉동 17,서울특별시 구로구 남부순환로105길 218 영일초등학교,301482,543172,"교육,학문>초등학교",,02-861-0426,http://www.syoungil.es.kr/
381,덕의<b>초등학교</b>,서울특별시 구로구 고척동 217,서울특별시 구로구 고척로 213 덕의초등학교,299126,545529,"교육,학문>초등학교",,02-2685-0928,http://www.dukeui.es.kr/
382,구일<b>초등학교</b>,서울특별시 구로구 구로동 685-221,서울특별시 구로구 구일로 68 구일초등학교,300566,544038,"교육,학문>초등학교",,02-869-9101,http://www.guil.es.kr/
383,오류<b>초등학교</b>,서울특별시 구로구 오류동 20-1,서울특별시 구로구 경인로19길 39 서울오류초등학교,297836,544658,"교육,학문>초등학교",,02-2612-6412,http://www.oryu.es.kr/
384,개봉<b>초등학교</b>,서울특별시 구로구 개봉동 266,서울특별시 구로구 개봉로16길 30-11 개봉초등학교,299235,543681,"교육,학문>초등학교",,02-2612-6058,http://www.seoulgaebong.es.kr/
385,동구로<b>초등학교</b>,서울특별시 구로구 구로동 93,서울특별시 구로구 구로중앙로14길 43,302251,544260,"교육,학문>초등학교",,02-853-2407,http://www.dongguro.es.kr/
386,신도림<b>초등학교</b>,서울특별시 구로구 신도림동 300-6,서울특별시 구로구 신도림로19길 44 신도림초등학교,301465,546160,"교육,학문>초등학교",,02-2677-2645,http://www.sindorim.es.kr/
387,매봉<b>초등학교</b>,서울특별시 구로구 개봉동 3,서울특별시 구로구 고척로21길 55 매봉초등학교,298034,545334,"교육,학문>초등학교",,02-2683-3565,http://www.maebong.es.kr/
388,오정<b>초등학교</b>,서울특별시 구로구 오류동 108-28,서울특별시 구로구 경인로2길 10,296434,543675,"교육,학문>초등학교",,02-2686-3165,http://www.ojung.es.kr/
389,천왕<b>초등학교</b>,서울특별시 구로구 천왕동 273-2,서울특별시 구로구 천왕로1길 11,297352,542807,"교육,학문>초등학교",,02-6343-4200,http://www.cheonwang.es.kr/
390,온수<b>초등학교</b>,서울특별시 구로구 온수동 9-34,서울특별시 구로구 부일로 893,296377,544212,"교육,학문>초등학교",,02-2684-4902,http://www.onsu.es.kr/
391,신미림<b>초등학교</b>,서울특별시 구로구 신도림동 398-28,서울특별시 구로구 신도림로 26 신미림초등학교,301151,545549,"교육,학문>초등학교",,02-2676-8644,http://www.sinmirim.es.kr/
392,고산<b>초등학교</b>,서울특별시 구로구 고척동 76-10,서울특별시 구로구 중앙로 6 고산초등학교,299861,544728,"교육,학문>초등학교",,02-2617-0591,http://www.kohsan.es.kr/
393,신구로<b>초등학교</b>,서울특별시 구로구 구로동 105,서울특별시 구로구 가마산로27길 69 서울신구로초등학교,301952,544712,"교육,학문>초등학교",,02-862-7192,http://www.singuro.es.kr/
394,개웅<b>초등학교</b>,서울특별시 구로구 개봉동 273-16,서울특별시 구로구 개봉로11길 98 개웅초등학교,298497,543562,"교육,학문>초등학교",,02-2683-1291,http://www.gaewoong.es.kr/
395,구로남<b>초등학교</b>,서울특별시 구로구 구로동 253,서울특별시 구로구 디지털로27길 76 구로남초등학교,302080,543125,"교육,학문>초등학교",,02-859-0501,http://www.guronam.es.kr/
396,오류남<b>초등학교</b>,서울특별시 구로구 오류동 191-1,서울특별시 구로구 서해안로24길 22 오류남초등학교,297485,543695,"교육,학문>초등학교",,02-2681-8466,http://www.oryunam.es.kr/
397,구로<b>초등학교</b>,서울특별시 구로구 구로동 443,서울특별시 구로구 구로중앙로27나길 21 서울특별시남부교육지원청 과학교육센터,301683,544487,"교육,학문>초등학교",,02-861-1941,http://www.guro.es.kr/
398,고척<b>초등학교</b>,서울특별시 구로구 고척동 129-3,서울특별시 구로구 경서로 31 서울고척초등학교,299135,544938,"교육,학문>초등학교",,02-2618-6212,http://www.gocheok.es.kr/
399,개명<b>초등학교</b>,서울특별시 구로구 개봉동 314-165,서울특별시 구로구 개봉로1다길 16-9,298512,542918,"교육,학문>초등학교",,02-2684-5117,http://www.kaemyong.es.kr/
400,항동<b>초등학교</b>,서울특별시 구로구 항동 160,서울특별시 구로구 연동로 178,296170,542310,"교육,학문>초등학교",,,
401,고원<b>초등학교</b>,서울특별시 구로구 고척동 66-26,서울특별시 구로구 경인로46길 13 서울고원초등학교,299902,544536,"교육,학문>초등학교",,02-2066-0960,http://www.gowon.es.kr/
402,두산<b>초등학교</b>,서울특별시 금천구 독산동 1002-5,서울특별시 금천구 범안로11길 3 두산초등학교,302065,541171,"교육,학문>초등학교",,02-804-1112,http://www.doosan.es.kr/
403,문성<b>초등학교</b>,서울특별시 금천구 독산동 982,서울특별시 금천구 시흥대로 460 서울문성초등학교,302834,541963,"교육,학문>초등학교",,02-867-1669,http://www.munsung.es.kr/
404,시흥<b>초등학교</b>,서울특별시 금천구 시흥동 841-19,서울특별시 금천구 독산로23길 26,303314,539789,"교육,학문>초등학교",,02-892-4127,http://www.seoulsiheung.es.kr/
405,가산<b>초등학교</b>,서울특별시 금천구 독산동 143-23,서울특별시 금천구 남부순환로 1304-11,302577,542363,"교육,학문>초등학교",,02-864-3206,http://www.gasan.es.kr/
406,탑동<b>초등학교</b>,서울특별시 금천구 시흥동 230,서울특별시 금천구 탑골로 47-3,304180,539538,"교육,학문>초등학교",,02-894-6050,http://www.topdong.es.kr/
407,동광<b>초등학교</b>,서울특별시 금천구 시흥동 산100-4,서울특별시 금천구 탑골로10길 45 동일유치원,304349,539433,"교육,학문>초등학교",,02-891-0151,http://www.dongke.es.kr/
408,문백<b>초등학교</b>,서울특별시 금천구 시흥동 564-5,서울특별시 금천구 시흥대로47길 43-1,302815,538886,"교육,학문>초등학교",,02-803-4155,http://www.munbaek.es.kr/
409,서울신흥<b>초등학교</b>,서울특별시 금천구 시흥동 704-56,서울특별시 금천구 독산로36나길 21 신흥초등학교,303646,540296,"교육,학문>초등학교",,02-894-5148,http://www.sinheung.es.kr/
410,독산<b>초등학교</b>,서울특별시 금천구 독산동 1034,서울특별시 금천구 시흥대로104길 31 독산초등학교,302930,540958,"교육,학문>초등학교",<b>서울특별시 금천구</b> 독산2동 위치.,02-895-0535,http://www.doksan.es.kr/
411,금산<b>초등학교</b>,서울특별시 금천구 시흥동 653-27,서울특별시 금천구 시흥대로24길 57,303584,538287,"교육,학문>초등학교",,02-806-0254,http://www.gumsan.es.kr/
412,금나래<b>초등학교</b>,서울특별시 금천구 독산동 1153,서울특별시 금천구 시흥대로79길 37 서울금나래초등학교,302559,540153,"교육,학문>초등학교",,02-807-9821,http://www.geumnarae.es.kr/
413,백산<b>초등학교</b>,서울특별시 금천구 시흥동 438-5,서울특별시 금천구 시흥대로38길 78 백산초등학교,303311,538861,"교육,학문>초등학교",,02-802-6475,http://www.backsan.es.kr/
414,영남<b>초등학교</b>,서울특별시 금천구 독산동 59-27,서울특별시 금천구 문성로 62-15 서울영남초등학교,303783,542079,"교육,학문>초등학교",,02-861-7147,http://www.seoulyeongnam.es.kr/
415,금동<b>초등학교</b>,서울특별시 금천구 시흥동 1013-1,서울특별시 금천구 금하로30길 53,304325,538964,"교육,학문>초등학교",,02-809-2125,http://www.geum-dong.es.kr/
416,정심<b>초등학교</b>,서울특별시 금천구 독산동 182-44,서울특별시 금천구 독산로78다길 89 정심초등학교,303644,541625,"교육,학문>초등학교",,02-856-5188,http://www.jungshim.es.kr/
417,안천<b>초등학교</b>,서울특별시 금천구 독산동 1090,서울특별시 금천구 한내로 69-16,301862,540194,"교육,학문>초등학교",,02-894-0858,http://www.ancheon.es.kr/
418,금천<b>초등학교</b>,서울특별시 금천구 시흥동 704-47,서울특별시 금천구 탑골로5길 60,304004,539736,"교육,학문>초등학교",,02-802-4970,http://www.kumcheon.es.kr/
419,문교<b>초등학교</b>,서울특별시 금천구 독산동 산202-1,서울특별시 금천구 독산로54길 102 문교초등학교,303678,541058,"교육,학문>초등학교",,02-896-0144,http://www.mungyo.es.kr/
420,서울금동<b>초등학교</b>,서울특별시 금천구 시흥동 1013-1,서울특별시 금천구 금하로30길 53 (시흥2동 1013-1번지),304325,538964,"교육,학문>초등학교",,02-809-2129,
421,대동<b>초등학교</b>,서울특별시 영등포구 대림동 702,서울특별시 영등포구 대림로21길 6 대동초등학교,302970,544065,"교육,학문>초등학교",,,http://www.sdaedong.es.kr/
422,우신<b>초등학교</b>,서울특별시 영등포구 신길동 210,서울특별시 영등포구 신길로 190,303996,545859,"교육,학문>초등학교",,02-834-2258,http://www.usin.es.kr/
423,영문<b>초등학교</b>,서울특별시 영등포구 문래동6가 13,서울특별시 영등포구 문래로 56 영문초등학교,301865,546978,"교육,학문>초등학교",,02-2068-5355,http://www.sym.es.kr/
424,여의도<b>초등학교</b>,서울특별시 영등포구 여의도동 40-3,서울특별시 영등포구 여의대방로 439 여의도초등학교,306219,547314,"교육,학문>초등학교",,02-786-7823,http://www.yeouido.es.kr/
425,영동<b>초등학교</b>,서울특별시 영등포구 당산동 121-22,서울특별시 영등포구 국회대로53길 20 영동초등학교,303642,547756,"교육,학문>초등학교",,02-2633-7450,http://www.youngdong.es.kr/
426,영신<b>초등학교</b>,서울특별시 영등포구 신길동 117-2,서울특별시 영등포구 도신로60길 23,304534,545874,"교육,학문>초등학교",,02-848-8560,http://www.youngsin.es.kr/
427,대방<b>초등학교</b>,서울특별시 영등포구 신길동 1444,서울특별시 영등포구 여의대방로35길 14 대방초등학교,304660,545024,"교육,학문>초등학교",,02-833-2860,http://www.sdaebang.es.kr/
428,신영<b>초등학교</b>,서울특별시 영등포구 대림동 781,서울특별시 영등포구 도신로4길 32 신영초등학교,302562,544852,"교육,학문>초등학교",,02-843-2964,http://www.shinyoung.es.kr/
429,영림<b>초등학교</b>,서울특별시 영등포구 대림동 993-16,서울특별시 영등포구 시흥대로173길 14 영림초등학교,303143,543364,"교육,학문>초등학교",,02-834-3181,http://www.younglim.es.kr/
430,윤중<b>초등학교</b>,서울특별시 영등포구 여의도동 38,서울특별시 영등포구 여의나루로2길 14,304996,546965,"교육,학문>초등학교",,02-782-2042,http://www.yunjung.es.kr/
431,당서<b>초등학교</b>,서울특별시 영등포구 당산동5가 5-3,서울특별시 영등포구 당산로 187 당서초등학교,302942,548315,"교육,학문>초등학교",,02-2675-4532,http://www.dangseo.es.kr/
432,도림<b>초등학교</b>,서울특별시 영등포구 신길동 285-1,서울특별시 영등포구 가마산로65길 22,303520,545663,"교육,학문>초등학교",,02-832-0590,http://www.seouldorim.es.kr/
433,영중<b>초등학교</b>,서울특별시 영등포구 영등포동7가 53,서울특별시 영등포구 양산로 185 서울영중초등학교,303314,547414,"교육,학문>초등학교",,02-2633-9428,http://www.youngjoong.es.kr/
434,도신<b>초등학교</b>,서울특별시 영등포구 대림동 741-3,서울특별시 영등포구 도림로53길 32-9 도신초등학교,303033,544646,"교육,학문>초등학교",,02-835-1501,http://www.doshin.es.kr/
435,대길<b>초등학교</b>,서울특별시 영등포구 신길동 4482,서울특별시 영등포구 대방천로 206,304084,544551,"교육,학문>초등학교",,02-842-4500,http://www.idaegil.es.kr/
436,대영<b>초등학교</b>,서울특별시 영등포구 신길동 341-1,서울특별시 영등포구 신길로23길 43 대영초등학교,303487,545077,"교육,학문>초등학교",,02-846-1996,http://www.daeyoung.es.kr/
437,영등포<b>초등학교</b>,서울특별시 영등포구 문래동1가 35-2,서울특별시 영등포구 경인로88길 8-1,302793,546209,"교육,학문>초등학교",,02-2678-6424,http://www.ydp.es.kr/
438,문래<b>초등학교</b>,서울특별시 영등포구 문래동3가 77-7,서울특별시 영등포구 문래로 104 문래초등학교,302365,546805,"교육,학문>초등학교",,02-2677-6861,http://www.mullae.es.kr/
439,신대림<b>초등학교</b>,서울특별시 영등포구 대림동 968,서울특별시 영등포구 대림로8길 25 서울신대림초등학교,303433,543907,"교육,학문>초등학교",,02-849-0737,http://www.sdr.es.kr/
440,영원<b>초등학교</b>,서울특별시 영등포구 영등포동 647-2,서울특별시 영등포구 도영로22길 31 영원초등학교,303137,545968,"교육,학문>초등학교",,02-835-9434,http://www.syw.es.kr/
441,당중<b>초등학교</b>,서울특별시 영등포구 양평동3가 42,서울특별시 영등포구 선유로 131 당중초등학교,302086,547731,"교육,학문>초등학교",,02-2633-1416,http://www.dangjung.es.kr/
442,당산<b>초등학교</b>,서울특별시 영등포구 양평동4가 323,서울특별시 영등포구 선유로55길 32 당산초등학교,302662,549183,"교육,학문>초등학교",,02-2633-1046,http://www.dangsan.es.kr/
443,선유<b>초등학교</b>,서울특별시 영등포구 양평동3가 91,서울특별시 영등포구 선유로43가길 14 서울선유초등학교,302339,548437,"교육,학문>초등학교",,02-2068-7023,http://www.seonyu.es.kr/
444,중앙대<b>학교</b>사범대학부속<b>초등학교</b>,서울특별시 동작구 흑석동 233-2,서울특별시 동작구 서달로 135 중앙대부속초등학교,308235,545313,"교육,학문>초등학교",,02-815-0144,http://www.caude.es.kr/
445,상현<b>초등학교</b>,서울특별시 동작구 상도동 531-1,서울특별시 동작구 상도로58길 21,307585,544160,"교육,학문>초등학교",,02-826-9740,http://www.ssh.es.kr/
446,상도<b>초등학교</b>,서울특별시 동작구 상도동 238-2,서울특별시 동작구 성대로21길 62 상도초등학교,306246,544711,"교육,학문>초등학교",<b>서울특별시 동작구</b> 상도4동 위치.,02-823-2168,http://www.seoulsangdo.es.kr/
447,남성<b>초등학교</b>,서울특별시 동작구 사당동 324-20,서울특별시 동작구 사당로23길 57-14,309604,542973,"교육,학문>초등학교",,02-595-5471,http://www.namsung.es.kr/
448,남사<b>초등학교</b>,서울특별시 동작구 사당동 1011-1,서울특별시 동작구 동작대로13길 22,309899,542777,"교육,학문>초등학교",,02-522-0333,http://www.namsa.es.kr/
449,보라매<b>초등학교</b>,서울특별시 동작구 신대방2동 488-1,서울특별시 동작구 여의대방로16길 30 서울보라매초등학교,304353,544306,"교육,학문>초등학교",,02-836-3001,http://boramae.es.kr/
450,영본<b>초등학교</b>,서울특별시 동작구 본동 441-11,서울특별시 동작구 만양로12가길 69 서울영본초등학교,307243,545906,"교육,학문>초등학교",,02-815-4371,http://www.yeongbon.es.kr/
451,은로<b>초등학교</b>,서울특별시 동작구 흑석동 245-1,서울특별시 동작구 서달로 115 은로초등학교,308241,545082,"교육,학문>초등학교",,02-824-0309,http://www.eunlo.es.kr/
452,강남<b>초등학교</b>,서울특별시 동작구 상도1동 501-1,서울특별시 동작구 강남초등길 15 강남초등학교,307604,545421,"교육,학문>초등학교",,02-824-4471,http://www.kangnam-se.es.kr/
453,신길<b>초등학교</b>,서울특별시 동작구 대방동 351-6,서울특별시 동작구 알마타길 16,305333,545912,"교육,학문>초등학교",,02-813-0475,http://www.singil.es.kr/
454,영화<b>초등학교</b>,서울특별시 동작구 대방동 44-3,서울특별시 동작구 등용로8길 3,305853,545734,"교육,학문>초등학교",,02-824-6051,http://www.youngwha.es.kr/
455,삼일<b>초등학교</b>,서울특별시 동작구 사당동 산18-38,서울특별시 동작구 사당로23나길 27,309571,543398,"교육,학문>초등학교","<b>서울특별시 동작구</b> 사당3동 위치, <b>학교</b>소개, 행사일정, 교육활동 등 안내.",02-3477-9473,http://www.samil.es.kr/
456,노량진<b>초등학교</b>,서울특별시 동작구 노량진동 49-12,서울특별시 동작구 장승배기로 160,306552,546038,"교육,학문>초등학교",,02-815-1274,http://www.noryangjin.es.kr/
457,문창<b>초등학교</b>,서울특별시 동작구 신대방동 640,서울특별시 동작구 신대방2길 14,304137,543527,"교육,학문>초등학교",,02-836-2031,http://www.munchang.es.kr/
458,신상도<b>초등학교</b>,서울특별시 동작구 상도동 204-333,서울특별시 동작구 장승배기로 14 서울신상도초등학교,306834,544770,"교육,학문>초등학교",,02-822-6953,http://www.shinsangdo.es.kr/
459,대림<b>초등학교</b>,서울특별시 동작구 대방동 391-62,서울특별시 동작구 대방동1길 22,305176,544818,"교육,학문>초등학교",,02-822-1984,http://www.seouldaelim.es.kr/
460,동작<b>초등학교</b>,서울특별시 동작구 사당동 산9-1,서울특별시 동작구 동작대로29길 214 서울동작초등학교,309757,544061,"교육,학문>초등학교",,02-537-1773,http://www.dongjak.es.kr/
461,흑석<b>초등학교</b>,서울특별시 동작구 흑석동 7-1,서울특별시 동작구 현충로 87 서울흑석초등학교,308714,545647,"교육,학문>초등학교",,02-815-6922,http://www.heukseok.es.kr/
462,신남성<b>초등학교</b>,서울특별시 동작구 사당동 199-1,서울특별시 동작구 사당로 146,308688,543485,"교육,학문>초등학교",,02-521-6268,http://www.shinnamsung.es.kr/
463,행림<b>초등학교</b>,서울특별시 동작구 사당동 산32-3,서울특별시 동작구 솔밭로 47,308610,542839,"교육,학문>초등학교",,02-523-1352,http://www.hrim.es.kr/
464,본동<b>초등학교</b>,서울특별시 동작구 본동 133,서울특별시 동작구 노량진로26길 16-40 서울본동초등학교,307685,545838,"교육,학문>초등학교",,02-815-1044,http://www.bondong.es.kr/
465,구암<b>초등학교</b>,서울특별시 관악구 봉천동 738-69,서울특별시 관악구 구암길 1 서울구암초등학교,307062,543566,"교육,학문>초등학교",,02-871-6041,http://www.seoulguam.es.kr/
466,은천<b>초등학교</b>,서울특별시 관악구 봉천동 622-1,서울특별시 관악구 은천로 69 서울은천초등학교,306704,543294,"교육,학문>초등학교",,02-883-6321,http://www.euncheon.es.kr/
467,신성<b>초등학교</b>,서울특별시 관악구 신림동 118-1,서울특별시 관악구 신림로 114,306201,541610,"교육,학문>초등학교",,02-875-7611,http://www.sss.es.kr/
468,봉현<b>초등학교</b>,서울특별시 관악구 봉천동 1704,서울특별시 관악구 성현로 117,307810,543736,"교육,학문>초등학교",,02-885-1985,http://www.bonghyun.es.kr/
469,봉천<b>초등학교</b>,서울특별시 관악구 봉천동 28-6,서울특별시 관악구 행운1라길 17,308069,542842,"교육,학문>초등학교",,02-887-1223,http://www.bongcheon.es.kr/
470,신봉<b>초등학교</b>,서울특별시 관악구 봉천동 458,서울특별시 관악구 양녕로6나길 1 서울신봉초등학교,307266,543110,"교육,학문>초등학교",,02-871-9616,http://www.sinbong.es.kr/
471,난우<b>초등학교</b>,서울특별시 관악구 신림동 589-1,서울특별시 관악구 난우길 40,304446,542216,"교육,학문>초등학교",,,http://www.nanwoo.es.kr/
472,삼성<b>초등학교</b>,서울특별시 관악구 신림동 233-1,서울특별시 관악구 대학7길 52,306521,541174,"교육,학문>초등학교",,02-877-9144,http://www.s-samseong.es.kr/
473,미성<b>초등학교</b>,서울특별시 관악구 신림동 768-23,서울특별시 관악구 문성로 79 서울미성초등학교,304027,542338,"교육,학문>초등학교",,02-839-8302,http://www.misung.es.kr/
474,원당<b>초등학교</b>,서울특별시 관악구 봉천동 1669-1,서울특별시 관악구 봉천로 505 원당초등학교,307908,542637,"교육,학문>초등학교",,02-877-4940,http://www.wondang.es.kr/
475,신우<b>초등학교</b>,서울특별시 관악구 신림동 315,서울특별시 관악구 호암로 498,305790,540592,"교육,학문>초등학교",,02-874-9812,http://www.seoulsinwoo.es.kr/
476,사당<b>초등학교</b>,서울특별시 관악구 남현동 1080-1,서울특별시 관악구 남현4길 51,309421,541777,"교육,학문>초등학교",,02-522-4180,http://www.sadang.es.kr/
477,서울남부<b>초등학교</b>,서울특별시 관악구 신림동 467,서울특별시 관악구 남부순환로163길 14 남부초등학교,304871,543110,"교육,학문>초등학교",,02-857-5032,http://www.seoulnambu.es.kr/
478,관악<b>초등학교</b>,서울특별시 관악구 봉천동 920,서울특별시 관악구 청룡4길 49,306707,542588,"교육,학문>초등학교",,02-874-3832,http://www.seoul-kwanak.es.kr/
479,조원<b>초등학교</b>,서울특별시 관악구 신림동 548-2,서울특별시 관악구 조원로 67 서울조원초등학교,303766,543017,"교육,학문>초등학교",,02-869-2235,http://www.seouljowon.es.kr/
480,당곡<b>초등학교</b>,서울특별시 관악구 봉천동 692-8,서울특별시 관악구 보라매로2길 23,305544,543667,"교육,학문>초등학교",,02-872-4683,http://www.danggok.es.kr/
481,인헌<b>초등학교</b>,서울특별시 관악구 봉천동 212-3,서울특별시 관악구 낙성대로 23 서울인헌초등학교,308207,542122,"교육,학문>초등학교",,02-872-8101,http://www.inhun.es.kr/
482,난향<b>초등학교</b>,서울특별시 관악구 신림동 672,서울특별시 관악구 난향길 9,304439,540574,"교육,학문>초등학교",,02-839-0291,http://www.nanhyang.es.kr/
483,신림<b>초등학교</b>,서울특별시 관악구 신림동 418-20,서울특별시 관악구 문성로28길 31 서울신림초등학교,305335,542191,"교육,학문>초등학교",,02-856-3127,http://www.sillim.es.kr/
484,원신<b>초등학교</b>,서울특별시 관악구 신림동 336,서울특별시 관악구 광신길 177 서울원신초등학교,305308,541108,"교육,학문>초등학교",,02-888-1813,http://www.wonshin.es.kr/
485,난곡<b>초등학교</b>,서울특별시 관악구 난곡동 711-136,서울특별시 관악구 난곡로35길 102 난곡초등학교,304372,541350,"교육,학문>초등학교",,02-855-2131,http://www.nangok.es.kr/
486,서울청룡<b>초등학교</b>,서울특별시 관악구 봉천동 390-3,서울특별시 관악구 관악로5길 61,307432,542039,"교육,학문>초등학교",,02-871-5850,http://chungryong.es.kr
487,청룡<b>초등학교</b>,서울특별시 관악구 봉천동 390-3,서울특별시 관악구 관악로5길 61,307432,542039,"교육,학문>초등학교",,,
488,원명<b>초등학교</b>,서울특별시 서초구 서초동 1685-1,서울특별시 서초구 고무래로 90-6 원명초등학교,313251,544763,"교육,학문>초등학교",,02-593-4492,http://www.wonmyong.es.kr/
489,계성<b>초등학교</b>,서울특별시 서초구 반포동 6-1,서울특별시 서초구 신반포로19길 23 계성초등학교,311516,545208,"교육,학문>초등학교",,,http://www.gyeseong1882.es.kr/
490,우면<b>초등학교</b>,서울특별시 서초구 우면동 690,서울특별시 서초구 태봉로 59 우면초등학교,313845,540759,"교육,학문>초등학교",,02-2057-1673,http://www.woomyeon.es.kr/
491,서울교육대<b>학교</b> 부설<b>초등학교</b>,서울특별시 서초구 서초동 1650,서울특별시 서초구 서초중앙로 96 서울교대초등학교,313132,543633,"교육,학문>초등학교",<b>서울특별시 서초구</b> 서초동 위치.,02-3475-2590,http://ps.snue.ac.kr/
492,이수<b>초등학교</b>,서울특별시 서초구 방배동 468-6,서울특별시 서초구 방배천로4길 23 이수초등학교,310382,542301,"교육,학문>초등학교",,02-521-5282,http://www.seoulisu.es.kr/
493,서원<b>초등학교</b>,서울특별시 서초구 반포동 30-8,서울특별시 서초구 고무래로 63,313123,544994,"교육,학문>초등학교",,02-594-5151,http://www.seo-won.es.kr/
494,신중<b>초등학교</b>,서울특별시 서초구 서초동 1466-5,서울특별시 서초구 남부순환로317길 15,312580,542465,"교육,학문>초등학교",,02-521-2811,http://www.sinjung.es.kr/
495,서이<b>초등학교</b>,서울특별시 서초구 서초동 1334-2,서울특별시 서초구 서운로 35 서이초등학교,314049,543709,"교육,학문>초등학교",,02-3474-7021,http://www.seo2.es.kr/
496,방배<b>초등학교</b>,서울특별시 서초구 방배동 861-1,서울특별시 서초구 방배중앙로13길 26 방배초등학교,310685,543272,"교육,학문>초등학교",,02-595-9612,http://www.bangbae.es.kr/
497,신동<b>초등학교</b>,서울특별시 서초구 잠원동 54-5,서울특별시 서초구 나루터로 15,312804,546568,"교육,학문>초등학교",,02-596-8555,http://www.sindong.es.kr/
498,잠원<b>초등학교</b>,서울특별시 서초구 반포동 17,서울특별시 서초구 신반포로16길 15-25,311616,544901,"교육,학문>초등학교",,02-599-4262,http://www.jamwon.es.kr/
499,반원<b>초등학교</b>,서울특별시 서초구 잠원동 72,서울특별시 서초구 잠원로3길 28,312135,545804,"교육,학문>초등학교",,02-599-5662,http://www.banwon.es.kr/
500,원촌<b>초등학교</b>,서울특별시 서초구 반포1동 21,서울특별시 서초구 사평대로45길 26 서울원촌초등학교,312908,545383,"교육,학문>초등학교",,02-536-0816,http://www.wonchon.es.kr/
501,방일<b>초등학교</b>,서울특별시 서초구 방배동 167-4,서울특별시 서초구 방배로18길 52 방일초등학교,311620,543059,"교육,학문>초등학교",,02-3472-5142,http://www.bang-il.es.kr/
502,우암<b>초등학교</b>,서울특별시 서초구 우면동 58,서울특별시 서초구 바우뫼로7길 38,313893,541559,"교육,학문>초등학교",,02-529-3256,http://www.wooam.es.kr/
503,서일<b>초등학교</b>,서울특별시 서초구 서초동 1436-8,서울특별시 서초구 남부순환로339길 38,313731,543008,"교육,학문>초등학교",,02-598-5013,http://www.seoulseoil.es.kr/
504,언남<b>초등학교</b>,서울특별시 서초구 내곡동 122,서울특별시 서초구 헌릉로8길 42 언남초등학교.유치원,317182,539516,"교육,학문>초등학교",,,http://www.eonnam.es.kr/
505,서초<b>초등학교</b>,서울특별시 서초구 서초동 1310-6,서울특별시 서초구 서운로 178 서초초등학교,313880,544598,"교육,학문>초등학교",,02-3482-0830,http://www.seocho.es.kr/
506,서래<b>초등학교</b>,서울특별시 서초구 방배동 771,서울특별시 서초구 방배로 260,310823,544279,"교육,학문>초등학교",,02-595-7512,http://www.seorae.es.kr/
507,반포<b>초등학교</b>,서울특별시 서초구 반포동 937,서울특별시 서초구 신반포로 55-4,311030,545007,"교육,학문>초등학교",,02-599-1349,http://www.seoulbanpo.es.kr/
508,우솔<b>초등학교</b>,서울특별시 서초구 우면동 774,서울특별시 서초구 양재대로2길 74 서울우솔초등학교,313455,539906,"교육,학문>초등학교",,02-3463-9069,http://www.woosol.es.kr/
509,양재<b>초등학교</b>,서울특별시 서초구 양재동 101,서울특별시 서초구 바우뫼로18길 14 양재초등학교,314568,541783,"교육,학문>초등학교",,02-573-4432,http://www.yangjae.es.kr/
510,매헌<b>초등학교</b>,서울특별시 서초구 양재동 311-1,서울특별시 서초구 언남길 8 매헌초등학교,315468,541455,"교육,학문>초등학교",<b>서울특별시 서초구</b> 양재동 위치.,02-578-9767,http://www.maeheon.es.kr/
511,방현<b>초등학교</b>,서울특별시 서초구 방배동 산81-1,서울특별시 서초구 효령로4길 58 방현초등학교,310893,542056,"교육,학문>초등학교",,02-521-9878,http://www.banghyun.es.kr/
512,대곡<b>초등학교</b>,서울특별시 강남구 대치동 510,서울특별시 강남구 남부순환로 3022,317506,544024,"교육,학문>초등학교",,02-565-1942,http://www.seouldaegok.es.kr/
513,도성<b>초등학교</b>,서울특별시 강남구 역삼동 714,서울특별시 강남구 역삼로 313 도성초등학교,316112,544771,"교육,학문>초등학교",,02-567-0039,http://www.seouldoseong.es.kr/
514,도곡<b>초등학교</b>,서울특별시 강남구 대치동 924-10,서울특별시 강남구 선릉로64길 33 도곡초등학교,316593,544573,"교육,학문>초등학교",,02-567-3280,http://www.dogok.es.kr/
515,대치<b>초등학교</b>,서울특별시 강남구 대치동 505,서울특별시 강남구 양재천로 363 대치초등학교,317246,543655,"교육,학문>초등학교",,02-555-2455,http://www.daechi.es.kr/
516,학동<b>초등학교</b>,서울특별시 강남구 논현동 264-7,서울특별시 강남구 선릉로115길 42 학동초등학교,315293,546032,"교육,학문>초등학교",,02-546-5185,http://www.hakdong.es.kr/
517,대도<b>초등학교</b>,서울특별시 강남구 도곡동 106-1,서울특별시 강남구 선릉로 209,316490,543853,"교육,학문>초등학교",,02-3463-5377,http://www.s-daedo.es.kr/
518,양전<b>초등학교</b>,서울특별시 강남구 개포동 183,서울특별시 강남구 개포로 513 양전초등학교,317913,543551,"교육,학문>초등학교",,02-3411-8982,http://www.yangjon.es.kr/
519,구룡<b>초등학교</b>,서울특별시 강남구 개포동 655,서울특별시 강남구 개포로 263 구룡초등학교,316324,542536,"교육,학문>초등학교",,02-573-5017,http://www.kuryong.es.kr/
520,삼릉<b>초등학교</b>,서울특별시 강남구 삼성동 42-1,서울특별시 강남구 봉은사로63길 22 삼릉초등학교,315966,546100,"교육,학문>초등학교",<b>서울특별시 강남구</b> 삼성2동 위치.,02-545-4502,http://www.srng.es.kr/
521,역삼<b>초등학교</b>,서울특별시 강남구 역삼동 833-7,서울특별시 강남구 강남대로66길 21 역삼초등학교,314653,543891,"교육,학문>초등학교",,02-563-9168,http://www.yeoksam.es.kr/
522,왕북<b>초등학교</b>,서울특별시 강남구 수서동 745,서울특별시 강남구 광평로31길 74 왕북초등학교,319376,543098,"교육,학문>초등학교",,02-451-7032,http://www.wangbuk.es.kr/
523,논현<b>초등학교</b>,서울특별시 강남구 논현동 168,서울특별시 강남구 강남대로120길 33 논현초등학교,314116,545593,"교육,학문>초등학교",,02-514-6636,http://www.nonhyun.es.kr/
524,대현<b>초등학교</b>,서울특별시 강남구 대치동 969,서울특별시 강남구 역삼로98길 16,317412,545053,"교육,학문>초등학교",,02-553-6922,http://www.daehyun-e.es.kr/
525,대청<b>초등학교</b>,서울특별시 강남구 일원동 712,서울특별시 강남구 양재대로55길 28 대청초등학교,319525,543833,"교육,학문>초등학교",,02-459-2152,http://www.daecheong.es.kr/
526,율현<b>초등학교</b>,서울특별시 강남구 자곡동 56-89,서울특별시 강남구 밤고개로21길 15 율현초등학교,321328,541755,"교육,학문>초등학교",,02-3413-8804,http://www.yulhyeon.es.kr/index/index.do
527,신구<b>초등학교</b>,서울특별시 강남구 신사동 550-11,서울특별시 강남구 압구정로18길 28 신구초등학교,313933,547257,"교육,학문>초등학교",,02-549-6812,http://www.shingu.es.kr/
528,언주<b>초등학교</b>,서울특별시 강남구 도곡동 935-3,서울특별시 강남구 남부순환로363길 19 언주초등학교,315015,543180,"교육,학문>초등학교",,02-3462-5285,http://www.eonju.es.kr/
529,언북<b>초등학교</b>,서울특별시 강남구 청담동 27,서울특별시 강남구 삼성로135길 42 언북초등학교,315791,546838,"교육,학문>초등학교",,02-514-5985,http://www.eonbuk.es.kr/
530,포이<b>초등학교</b>,서울특별시 강남구 개포동 1273,서울특별시 강남구 개포로22길 87 포이초등학교,316419,541970,"교육,학문>초등학교",,02-571-0951,http://www.poi.es.kr/
531,영희<b>초등학교</b>,서울특별시 강남구 일원동 617,서울특별시 강남구 일원로 21,318930,543743,"교육,학문>초등학교",,02-2226-6016,http://www.younghee.es.kr/
532,대왕<b>초등학교</b>,서울특별시 강남구 세곡동 517,서울특별시 강남구 헌릉로618길 8 대왕초등학교,321085,540657,"교육,학문>초등학교",,02-3412-0125,http://www.daewang.es.kr/
533,청담<b>초등학교</b>,서울특별시 강남구 청담동 142,서울특별시 강남구 압구정로71길 9 청담초등학교,315809,547772,"교육,학문>초등학교",,02-544-2107,http://www.cheongdam.es.kr/
534,압구정<b>초등학교</b>,서울특별시 강남구 압구정동 461,서울특별시 강남구 압구정로39길 29 압구정초등학교,314546,548174,"교육,학문>초등학교",,02-3446-9646,http://www.apgujong.es.kr/
535,대진<b>초등학교</b>,서울특별시 강남구 개포동 13,서울특별시 강남구 개포로109길 74 대진초등학교,318675,544289,"교육,학문>초등학교",,02-3412-0472,http://www.seouldaejin.es.kr/
536,대모<b>초등학교</b>,서울특별시 강남구 일원동 736,서울특별시 강남구 광평로20길 27 대모초등학교,319384,542538,"교육,학문>초등학교",,02-2226-3715,http://www.daemo.es.kr/
537,수서<b>초등학교</b>,서울특별시 강남구 수서동 709,서울특별시 강남구 광평로51길 46 수서초등학교,320722,543612,"교육,학문>초등학교",,02-459-1334,http://www.suseo.es.kr/
538,개포<b>초등학교</b>(휴교),서울특별시 강남구 개포동 188,서울특별시 강남구 영동대로3길 45 개포초등학교,317984,543150,"교육,학문>초등학교",<b>서울특별시 강남구</b> 개포2동 위치.,02-445-9321,http://www.kaepo.es.kr/
539,개일<b>초등학교</b>,서울특별시 강남구 개포동 174,서울특별시 강남구 개포로 401 개일초등학교,316869,543094,"교육,학문>초등학교",,02-571-8320,http://www.gaeil.es.kr/
540,세명<b>초등학교</b>,서울특별시 강남구 세곡동 529,서울특별시 강남구 자곡로 55 세명초등학교,319786,541132,"교육,학문>초등학교","<b>서울특별시 강남구</b> 세곡동 위치, <b>학교</b>소개, 교육과정 등 안내.",,http://www.semyung.es.kr/
541,일원<b>초등학교</b>,서울특별시 강남구 일원동 691,서울특별시 강남구 영동대로4길 20 일원초등학교,318503,543476,"교육,학문>초등학교",,02-445-7813,http://www.ilwon.es.kr/
542,개원<b>초등학교</b>,서울특별시 강남구 개포동 660-10,서울특별시 강남구 선릉로 29 개원초등학교,316978,542605,"교육,학문>초등학교",,02-574-3587,http://www.gaewon.es.kr/
543,자곡<b>초등학교</b>,서울특별시 강남구 자곡동 642,서울특별시 강남구 자곡로 150 자곡초등학교,320540,541504,"교육,학문>초등학교",,02-3413-8700,http://www.jagok.es.kr/
544,봉은<b>초등학교</b>,서울특별시 강남구 삼성동 79-2,서울특별시 강남구 학동로 610,317203,546869,"교육,학문>초등학교",,,http://www.bongeun.es.kr/
545,문정<b>초등학교</b>,서울특별시 송파구 문정동 12,서울특별시 송파구 문정로5길 20 서울문정초등학교,323176,543367,"교육,학문>초등학교",,02-404-8501,http://www.moonjung.es.kr/
546,가동<b>초등학교</b>,서울특별시 송파구 가락동 163,서울특별시 송파구 중대로20길 47,323275,544284,"교육,학문>초등학교",,02-448-5766,http://www.gadong.es.kr/
547,송전<b>초등학교</b>,서울특별시 송파구 잠실동 44-2,서울특별시 송파구 석촌호수로 159 서울송전초등학교,320179,545552,"교육,학문>초등학교",,,http://www.ssj.es.kr/
548,잠일<b>초등학교</b>,서울특별시 송파구 잠실동 19-1,서울특별시 송파구 올림픽로 95 서울잠일초등학교,319010,546275,"교육,학문>초등학교",,02-413-2853,http://www.jamil.es.kr/
549,잠동<b>초등학교</b>,서울특별시 송파구 신천동 7-2,서울특별시 송파구 올림픽로35길 122 잠동초등학교,320636,546626,"교육,학문>초등학교",,02-419-5464,http://www.jamdong.es.kr/
550,중대<b>초등학교</b>,서울특별시 송파구 송파2동 191,서울특별시 송파구 송파대로36길 8 서울중대초등학교,321823,544552,"교육,학문>초등학교",<b>서울특별시 송파구</b> 송파2동 위치.,02-422-7236,http://www.joongdae.es.kr/
551,남천<b>초등학교</b>,서울특별시 송파구 마천동 53,서울특별시 송파구 성내천로 207,325080,544663,"교육,학문>초등학교",,,http://www.s-namcheon.es.kr/
552,토성<b>초등학교</b>,서울특별시 송파구 풍납동 251,서울특별시 송파구 풍성로20길 44,322058,548131,"교육,학문>초등학교",,02-475-5036,http://www.stosung.es.kr/
553,방산<b>초등학교</b>,서울특별시 송파구 방이동 220-4,서울특별시 송파구 오금로27길 42,322476,545650,"교육,학문>초등학교",,,http://www.sbangsan.es.kr/
554,송파<b>초등학교</b>,서울특별시 송파구 송파1동 114,서울특별시 송파구 백제고분로 400 송파초등학교,321621,545389,"교육,학문>초등학교",<b>서울특별시 송파구</b> 송파1동 위치.,02-414-7372,http://www.songpa.es.kr/
555,삼전<b>초등학교</b>,서울특별시 송파구 삼전동 63,서울특별시 송파구 백제고분로28길 19,319990,544783,"교육,학문>초등학교",,02-415-8701,http://www.samjeon.es.kr/
556,가원<b>초등학교</b>,서울특별시 송파구 문정동 150-10,서울특별시 송파구 중대로4길 8 가원초등학교,321607,543405,"교육,학문>초등학교",,02-405-4555,http://www.gawon.es.kr/
557,신가<b>초등학교</b>,서울특별시 송파구 가락동 43-1,서울특별시 송파구 송이로 75,322368,544612,"교육,학문>초등학교",,,http://singa.es.kr/
558,신천<b>초등학교</b>,서울특별시 송파구 잠실동 27-5,서울특별시 송파구 올림픽로 215 주공아파트,320213,546151,"교육,학문>초등학교",,02-422-0289,http://www.sh.es.kr/
559,석촌<b>초등학교</b>,서울특별시 송파구 석촌동 267,서울특별시 송파구 가락로11길 26,321027,544909,"교육,학문>초등학교",,02-416-4075,http://www.seokchon.es.kr/
560,서울송례<b>초등학교</b>,서울특별시 송파구 장지동 898,서울특별시 송파구 위례순환로 439 서울송례초등학교,323998,542117,"교육,학문>초등학교",,02-2144-3888,http://www.sree.es.kr/
561,가주<b>초등학교</b>,서울특별시 송파구 가락2동 140-6,서울특별시 송파구 오금로40길 37 가주초등학교,323201,544199,"교육,학문>초등학교",,,http://www.gaju.es.kr/
562,잠전<b>초등학교</b>,서울특별시 송파구 잠실동 229,서울특별시 송파구 올림픽로12길 51,319246,545391,"교육,학문>초등학교",,02-423-5625,http://www.jamjeon.es.kr/
563,서울잠신<b>초등학교</b>,서울특별시 송파구 잠실동 22-4,서울특별시 송파구 잠실로 32 서울잠신초등학교,319569,546164,"교육,학문>초등학교",,02-412-3286,http://www.jamshin.es.kr/
564,잠현<b>초등학교</b>,서울특별시 송파구 신천동 17-2,서울특별시 송파구 올림픽로37길 109 잠현초등학교,321065,547089,"교육,학문>초등학교",,02-415-8105,http://www.jamhyun.es.kr/
565,서울위례별<b>초등학교</b>,서울특별시 송파구 장지동 886,서울특별시 송파구 위례광장로 243 위례별초등학교,324566,542233,"교육,학문>초등학교",,02-409-2112,http://www.westar.es.kr/
566,방이<b>초등학교</b>,서울특별시 송파구 방이동 167,서울특별시 송파구 위례성대로10길 4,322446,546063,"교육,학문>초등학교",,,http://www.bangi.es.kr/
567,문현<b>초등학교</b>,서울특별시 송파구 장지동 836,서울특별시 송파구 충민로 137 서울문현초등학교,323277,542652,"교육,학문>초등학교",,02-402-9170,http://www.s-mh.es.kr/
568,잠실<b>초등학교</b>,서울특별시 송파구 신천동 20-2,서울특별시 송파구 올림픽로35길 20 잠실초등학교,321630,546832,"교육,학문>초등학교",,02-3432-3571,http://www.jamsil.es.kr/
569,영풍<b>초등학교</b>,서울특별시 송파구 거여동 12,서울특별시 송파구 오금로57길 15,324434,544133,"교육,학문>초등학교",,02-407-2252,http://www.youngpung.es.kr/
570,아주<b>초등학교</b>,서울특별시 송파구 잠실동 115,서울특별시 송파구 올림픽로4길 59,318472,545263,"교육,학문>초등학교",,02-416-8388,http://www.aju.es.kr/
571,문덕<b>초등학교</b>,서울특별시 송파구 문정동 90-3,서울특별시 송파구 송이로34길 60,323075,542906,"교육,학문>초등학교",,02-409-9817,http://www.moondeok.es.kr/
572,오금<b>초등학교</b>,서울특별시 송파구 오금동 7,서울특별시 송파구 위례성대로22길 11,323415,545617,"교육,학문>초등학교",,02-449-9902,http://www.ogum.es.kr/
573,풍납<b>초등학교</b>,서울특별시 송파구 풍납동 165,서울특별시 송파구 풍성로 43,322243,548486,"교육,학문>초등학교",,02-477-8151,http://www.poongnap.es.kr/
574,풍성<b>초등학교</b>,서울특별시 송파구 풍납동 388-8,서울특별시 송파구 강동대로2길 13 풍성초등학교,321840,547497,"교육,학문>초등학교",,02-485-9957,http://www.poongsung.es.kr/
575,버들<b>초등학교</b>,서울특별시 송파구 잠실동 35-6,서울특별시 송파구 석촌호수로 81 버들초등학교,319668,545754,"교육,학문>초등학교",,02-2203-6412,http://www.seoulbeodle.es.kr/
576,거여<b>초등학교</b>,서울특별시 송파구 오금동 108,서울특별시 송파구 마천로25길 18,324270,545061,"교육,학문>초등학교",,,http://www.geo-yeo.es.kr/
577,마천<b>초등학교</b>,서울특별시 송파구 마천동 183-4,서울특별시 송파구 마천로61다길 24,325208,544052,"교육,학문>초등학교",,,http://www.smacheon.es.kr/
578,거원<b>초등학교</b>,서울특별시 송파구 거여동 296-1,서울특별시 송파구 양산로2길 26,324568,543180,"교육,학문>초등학교",,02-6919-3700,http://www.guhwon.es.kr/
579,오륜<b>초등학교</b>,서울특별시 송파구 방이동 89-16,서울특별시 송파구 양재대로 1196,323683,545945,"교육,학문>초등학교",,02-403-8823,http://www.oryun.es.kr/
580,서울평화<b>초등학교</b>,서울특별시 송파구 가락본동 106,서울특별시 송파구 송파대로26길 22 평화초등학교,322617,543646,"교육,학문>초등학교",,02-443-5698,http://www.pyunghwa.es.kr/
581,개롱<b>초등학교</b>,서울특별시 송파구 오금동 159,서울특별시 송파구 문정로 211,324141,544256,"교육,학문>초등학교",,,http://www.gaerong.es.kr/
582,세륜<b>초등학교</b>,서울특별시 송파구 방이동 89-23,서울특별시 송파구 양재대로 1264,323674,546639,"교육,학문>초등학교",<b>서울특별시 송파구</b> 오륜동 위치.,02-443-9561,http://www.seryun.es.kr/
583,가락<b>초등학교</b>,서울특별시 송파구 가락동 477,서울특별시 송파구 송파대로37길 45 가락초등학교,321298,544604,"교육,학문>초등학교",,,
584,거암<b>초등학교</b>(2020년예정),서울특별시 송파구 거여동 50,,325088,543108,"교육,학문>초등학교",,,
585,산빛<b>초등학교</b>(2020년예정),서울특별시 송파구 거여동 395-25,,324102,542728,"교육,학문>초등학교",,,
586,상일<b>초등학교</b>,서울특별시 강동구 상일동 325-1,서울특별시 강동구 천호대로 1477 서울상일초등학교,327051,549774,"교육,학문>초등학교",,02-428-0348,http://www.seoulsangil.es.kr/
587,천동<b>초등학교</b>,서울특별시 강동구 길동 371-1,서울특별시 강동구 성안로 200 천동초등학교,323989,549084,"교육,학문>초등학교",,02-483-4445,http://www.scd.es.kr/
588,천호<b>초등학교</b>,서울특별시 강동구 천호동 230-9,서울특별시 강동구 구천면로 310-11,323897,549812,"교육,학문>초등학교",,,http://www.chunho.es.kr/
589,명덕<b>초등학교</b>,서울특별시 강동구 고덕동 487-15,서울특별시 강동구 양재대로156길 11 서울명덕초등학교,324800,550869,"교육,학문>초등학교",,02-441-2156,http://www.myungduk.es.kr/
590,한산<b>초등학교</b>,서울특별시 강동구 둔촌동 149,서울특별시 강동구 풍성로 261,324316,547714,"교육,학문>초등학교",,02-475-5761,http://www.hansan.es.kr/
591,신암<b>초등학교</b>,서울특별시 강동구 암사동 517,서울특별시 강동구 올림픽로93길 33-16 신암초등학교,322840,550098,"교육,학문>초등학교",,02-3427-0351,http://www.shinam.es.kr/
592,강일<b>초등학교</b>,서울특별시 강동구 강일동 685,서울특별시 강동구 아리수로98길 24 서울강일초등학교,327512,551786,"교육,학문>초등학교",,02-3426-6472,http://www.gangil.es.kr/
593,성일<b>초등학교</b>,서울특별시 강동구 성내동 531,서울특별시 강동구 성내로15길 33,323171,547841,"교육,학문>초등학교",,02-475-4641,http://www.seongil.es.kr/
594,성내<b>초등학교</b>,서울특별시 강동구 성내동 300-3,서울특별시 강동구 성내로3길 19,322639,548052,"교육,학문>초등학교",,,http://www.soungnae.es.kr/
595,강동<b>초등학교</b>,서울특별시 강동구 천호동 306,서울특별시 강동구 상암로14길 77,323333,549702,"교육,학문>초등학교",,02-489-3211,http://www.gangdong.es.kr/
596,묘곡<b>초등학교</b>,서울특별시 강동구 고덕동 498,서울특별시 강동구 동남로79길 46 서울묘곡초등학교,325386,551047,"교육,학문>초등학교",,02-427-4167,http://www.myogok.es.kr/
597,고명<b>초등학교</b>,서울특별시 강동구 명일동 296-1,서울특별시 강동구 고덕로46길 53 서울고명초등학교,324815,550436,"교육,학문>초등학교",,02-3428-5112,http://www.gomyung.es.kr/
598,천일<b>초등학교</b>,서울특별시 강동구 천호동 217-70,서울특별시 강동구 구천면로 266 서울천일초등학교,323608,549473,"교육,학문>초등학교",,02-472-8700,http://www.chunil.es.kr/
599,신명<b>초등학교</b>,서울특별시 강동구 길동 42,서울특별시 강동구 명일로24길 33 서울신명초등학교,325079,549095,"교육,학문>초등학교",,02-489-4073,http://www.shinmyung.es.kr/
600,강덕<b>초등학교</b>,서울특별시 강동구 고덕동 222,서울특별시 강동구 동남로82길 94-54 서울강덕초등학교,326052,551120,"교육,학문>초등학교",,02-427-8207,http://gangdeok.es.kr/
601,명일<b>초등학교</b>,서울특별시 강동구 암사동 418-18,서울특별시 강동구 고덕로38길 8 서울명일초등학교,324396,550594,"교육,학문>초등학교",,02-441-5313,http://www.myeongil.es.kr/
602,선사<b>초등학교</b>,서울특별시 강동구 암사동 186-1,서울특별시 강동구 올림픽로 837 서울선사초등학교,323214,550803,"교육,학문>초등학교",,02-441-3492,http://www.sunsa.es.kr/
603,고일<b>초등학교</b>,서울특별시 강동구 상일동 125,서울특별시 강동구 구천면로93길 20 서울고일초등학교,326760,550370,"교육,학문>초등학교",,02-428-9088,
604,강명<b>초등학교</b>,서울특별시 강동구 상일동 480,서울특별시 강동구 상일로 74-1 서울강명초등학교,327161,550585,"교육,학문>초등학교",,02-426-0678,http://www.gme.es.kr/
605,고이<b>초등학교</b>(2020년3월예정),서울특별시 강동구 상일동 121,서울특별시 강동구 상일로 91,326505,550568,"교육,학문>초등학교",,,
606,대명<b>초등학교</b>,서울특별시 강동구 명일동 234 서울대명초등학교,서울특별시 강동구 상암로 271 서울대명초등학교,325334,549784,"교육,학문>초등학교",,02-481-7871,http://www.daemyeong.es.kr/
607,길동<b>초등학교</b>,서울특별시 강동구 길동 362,서울특별시 강동구 양재대로116길 69 길동초등학교,324619,548827,"교육,학문>초등학교",,02-475-5591,http://www.gildong.es.kr/
608,고덕<b>초등학교</b>,서울특별시 강동구 고덕동 158,서울특별시 강동구 아리수로82길 42 서울고덕초등학교,326560,551319,"교육,학문>초등학교",,02-427-0525,http://www.goduk.es.kr/
609,선린<b>초등학교</b>,서울특별시 강동구 둔촌동 91-17,서울특별시 강동구 진황도로61길 29 선린초등학교,324702,547837,"교육,학문>초등학교",,02-471-9800,http://www.sunrin.es.kr/
610,명원<b>초등학교</b>,서울특별시 강동구 명일동 39,서울특별시 강동구 명일로 364 서울명원초등학교,325137,550239,"교육,학문>초등학교",,02-428-2433,http://www.myongwon.es.kr/
611,서울강솔<b>초등학교</b>,서울특별시 강동구 강일동 694,서울특별시 강동구 고덕로97길 80,327777,551391,"교육,학문>초등학교",,02-2147-5700,http://gangsol.es.kr/
612,위례<b>초등학교</b>(휴교),서울특별시 강동구 둔촌동 176-2,서울특별시 강동구 명일로 23,324124,547042,"교육,학문>초등학교",,,
613,둔촌<b>초등학교</b>(휴교),서울특별시 강동구 둔촌동 170-2,서울특별시 강동구 양재대로88길 27 둔촌초등학교,323951,547468,"교육,학문>초등학교",,,
614,강솔<b>초등학교</b>,서울특별시 강동구 강일동 694,서울특별시 강동구 고덕로97길 80,327796,551433,"교육,학문>초등학교",,,
