,title,address,roadAddress,mapx,mapy,category,description,telephone,link
0,<b>미니스톱</b> 종로삼일점,서울특별시 종로구 관철동 11-3,서울특별시 종로구 종로14길 32 1층,310694,552302,"생활,편의>편의점",,1577-9621,http://www.ministop.co.kr/
1,<b>미니스톱</b> 종로충신점,서울특별시 종로구 충신동 52-2,서울특별시 종로구 율곡로 235,312312,553095,"생활,편의>편의점",,1577-9621,http://www.ministop.co.kr/
2,<b>미니스톱</b> 청계센터점,서울특별시 종로구 관철동 43-8,서울특별시 종로구 청계천로 61 관철동 빌딩,310479,552339,"생활,편의>편의점",,1577-9621,
3,<b>미니스톱</b> 종각중앙점,서울특별시 종로구 견지동 110,서울특별시 종로구 삼봉로 95 종로1가 대성 스카이렉스,310323,552711,"생활,편의>편의점",,1577-9621,
4,<b>미니스톱</b> 동대문역점,서울특별시 종로구 창신동 154-1,서울특별시 종로구 종로 313-1,312975,552692,"생활,편의>편의점",,02-745-3206,http://www.ministop.co.kr/
5,<b>미니스톱</b> 세종문화회관점,서울특별시 종로구 당주동 2-2,서울특별시 종로구 새문안로5가길 3-1,309595,552754,"생활,편의>편의점",,,http://www.ministop.co.kr/
6,<b>미니스톱</b> 인왕산파크점,서울특별시 종로구 무악동 60,서울특별시 종로구 통일로18길 9,308012,553221,"생활,편의>편의점",,02-734-8256,http://www.ministop.co.kr/
7,<b>미니스톱</b> 경희궁점,서울특별시 종로구 내수동 72,서울특별시 종로구 사직로8길 34 경희궁의아침 3단지,309440,552849,"생활,편의>편의점",,1577-9621,
8,<b>미니스톱</b> 종로북촌점,서울특별시 종로구 계동 115-1,서울특별시 종로구 북촌로4길 27,310693,553503,"생활,편의>편의점",,1577-9621,http://www.ministop.co.kr/
9,<b>미니스톱</b> 종로육의전점,서울특별시 종로구 낙원동 200-4,서울특별시 종로구 수표로 105 육의전빌딩,310913,552531,"생활,편의>편의점",,02-747-1772,http://www.ministop.co.kr/
10,<b>미니스톱</b> 종로6가점,서울특별시 종로구 종로6가 247-1,서울특별시 종로구 종로41길 3,312440,552603,"생활,편의>편의점",,02-742-3836,
11,<b>미니스톱</b> 종로효제점,서울특별시 종로구 종로6가 238-6,서울특별시 종로구 종로39길 40 현마빌딩,312294,552731,"생활,편의>편의점",,02-766-7498,
12,<b>미니스톱</b> 서울시청역점,서울특별시 중구 서소문동 21-1 MIES빌딩 1층,서울특별시 중구 서소문로 135 연호빌딩,309716,551799,"생활,편의>편의점",,1577-9621,http://www.ministop.co.kr/
13,<b>미니스톱</b> 신당점,서울특별시 중구 신당동 348-135,서울특별시 중구 동호로10길 21 광영빌딩,312893,550759,"생활,편의>편의점",,02-2256-8513,http://www.ministop.co.kr/
14,<b>미니스톱</b> 약수역점,서울특별시 중구 신당동 368-67,서울특별시 중구 다산로 110,312743,550614,"생활,편의>편의점",,02-2253-6270,http://www.ministop.co.kr/
15,<b>미니스톱</b> 남산점,서울특별시 중구 남산동2가 27-1,서울특별시 중구 퇴계로20길 32,310603,551218,"생활,편의>편의점",,02-756-7891,http://www.ministop.co.kr/
16,<b>미니스톱</b> 충무로역점,서울특별시 중구 필동1가 40-1,서울특별시 중구 퇴계로 187-1,311221,551482,"생활,편의>편의점",,1577-9621,http://www.ministop.co.kr/
17,<b>미니스톱</b> 명동세종점,서울특별시 중구 충무로2가 62-8,서울특별시 중구 퇴계로 141,310754,551488,"생활,편의>편의점",,02-774-5701,http://www.ministop.co.kr/
18,<b>미니스톱</b> 중구매크로점,서울특별시 중구 저동2가 7-2,"서울특별시 중구 을지로12길 28 105호, 106호",311022,551921,"생활,편의>편의점",,,http://www.ministop.co.kr/
19,<b>미니스톱</b> 국도호텔점,서울특별시 중구 을지로4가 310 베스트웨스턴호텔국도 1층,서울특별시 중구 을지로 164 베스트웨스턴호텔국도 1층,311520,552046,"생활,편의>편의점",,1577-9621,
20,<b>미니스톱</b> 청계수표점,서울특별시 중구 수표동 56-16,서울특별시 중구 삼일대로12길 21,310885,552140,"생활,편의>편의점",,1577-9621,http://www.ministop.co.kr/
21,<b>미니스톱</b> 신당현대점,서울특별시 중구 신당동 41-51,서울특별시 중구 다산로36길 97,313579,551343,"생활,편의>편의점",,1577-9621,http://www.ministop.co.kr/
22,<b>미니스톱</b> 동부이촌점,"서울특별시 용산구 이촌동 301-160 현대아파트 21동 104-나호, 105-가호","서울특별시 용산구 이촌로 303 현대아파트 21동 104-나호, 105-가호",310107,546704,"생활,편의>편의점",,02-749-1371,http://www.ministop.co.kr/
23,<b>미니스톱</b> 한강견우점,서울특별시 용산구 이촌동 361-1,서울특별시 용산구 양녕로 496,308393,547066,"생활,편의>편의점",,1577-9621,http://www.ministop.co.kr/
24,<b>미니스톱</b>서울역점,서울특별시 용산구 서계동 219-1 창성빌딩 1층,서울특별시 용산구 청파로 395,309083,550803,"생활,편의>편의점",,02-3275-3220,http://www.ministop.co.kr/
25,<b>미니스톱</b> 용산시티점,서울특별시 용산구 한강로3가 63-389 102동,서울특별시 용산구 서빙고로 35 용산 시티파크,309065,547510,"생활,편의>편의점",,02-3785-1175,http://www.ministop.co.kr/
26,<b>미니스톱</b> 용산후암점,서울특별시 용산구 후암동 265-11,서울특별시 용산구 두텁바위로37길 7-3 1층,310186,549950,"생활,편의>편의점",,1577-9621,http://www.ministop.co.kr/
27,<b>미니스톱</b> 이태원본점,서울특별시 용산구 이태원동 137-56,서울특별시 용산구 우사단로 34,311438,548369,"생활,편의>편의점",,1577-9621,http://www.ministop.co.kr/
28,<b>미니스톱</b> 원효로점,서울특별시 용산구 원효로2가 80-19,서울특별시 용산구 원효로53길 8,308474,548705,"생활,편의>편의점",,02-711-3073,http://www.ministop.co.kr/
29,<b>미니스톱</b> 용산해방촌점,서울특별시 용산구 용산동2가 15-9,서울특별시 용산구 신흥로16길 3,310658,549654,"생활,편의>편의점",,1577-9621,http://www.ministop.co.kr/
30,<b>미니스톱</b> 남산소월점,서울특별시 용산구 용산동2가 1-531,서울특별시 용산구 신흥로20길 1 세명치과,310515,549785,"생활,편의>편의점",,02-773-5526,http://www.ministop.co.kr/
31,<b>미니스톱</b> 숙대입구점,서울특별시 용산구 청파동2가 93,서울특별시 용산구 청파로 287,309204,549737,"생활,편의>편의점",,1577-9621,
32,<b>미니스톱</b> 한양대공학관점,서울특별시 성동구 사근동 110,서울특별시 성동구 왕십리로 222 한양대학교 신소재공학관 지하1층,315971,551026,"생활,편의>편의점",,1577-9621,http://www.ministop.co.kr/
33,<b>미니스톱</b> 한양스퀘어점,서울특별시 성동구 사근동 110,서울특별시 성동구 살곶이길 200 행원스퀘어 지하 1층,316255,551085,"생활,편의>편의점",,1577-9621,http://www.ministop.co.kr/
34,<b>미니스톱</b> 성수2가점,서울특별시 성동구 성수동2가 289-1,서울특별시 성동구 광나루로 238,316795,550095,"생활,편의>편의점",,02-497-3110,http://www.ministop.co.kr/
35,<b>미니스톱</b> 뚝섬점,서울특별시 성동구 성수동1가 13-104,서울특별시 성동구 상원8길 1,316097,550064,"생활,편의>편의점",,1577-9621,http://www.ministop.co.kr/
36,<b>미니스톱</b> 성동도선점,서울특별시 성동구 도선동 4-3,서울특별시 성동구 왕십리로20길 26,315002,551751,"생활,편의>편의점",,1577-9621,http://www.ministop.co.kr/
37,<b>미니스톱</b> 한양대학사점,서울특별시 성동구 행당동 1-22,서울특별시 성동구 마조로11길 19,315331,551489,"생활,편의>편의점",,1577-9621,http://www.ministop.co.kr/
38,<b>미니스톱</b> 한양대원룸점,서울특별시 성동구 마장동 339-11,서울특별시 성동구 마조로14길 2,315565,551649,"생활,편의>편의점",,1577-9621,http://www.ministop.co.kr/
39,<b>미니스톱</b> 디지털타워점,서울특별시 성동구 성수동2가 308-4,서울특별시 성동구 성수일로4길 25 서울숲코오롱디지털타워,316411,549329,"생활,편의>편의점",,1577-9621,http://www.ministop.co.kr/
40,<b>미니스톱</b> 용답중앙점,서울특별시 성동구 용답동 152-9,서울특별시 성동구 용답9길 7-1,316345,551875,"생활,편의>편의점",,1577-9621,http://www.ministop.co.kr/
41,<b>미니스톱</b> 성수성덕점,서울특별시 성동구 성수동2가 506,서울특별시 성동구 성덕정길 84,316485,548824,"생활,편의>편의점",,1577-9621,http://www.ministop.co.kr/
42,<b>미니스톱</b> 한양대정보관점,서울특별시 성동구 사근동 110,서울특별시 성동구 왕십리로 222 한양대학교 학술정보관 앞,315886,550920,"생활,편의>편의점",,1577-9621,http://www.ministop.co.kr/
43,<b>미니스톱</b> 성수경수점,서울특별시 성동구 성수동2가 269-223,서울특별시 성동구 성수이로16길 21 1층,317040,549132,"생활,편의>편의점",,1577-9621,http://www.ministop.co.kr/
44,<b>미니스톱</b> 뚝섬2점,서울특별시 광진구 자양동 427-28,,317698,548022,"생활,편의>편의점",,02-444-5189,http://www.ministop.co.kr/
45,<b>미니스톱</b> 구의중앙점,서울특별시 광진구 구의동 222-1,서울특별시 광진구 구의로 39 21세기독서실,319758,549193,"생활,편의>편의점",,,http://www.ministop.co.kr/
46,<b>미니스톱</b> 건대현대점,서울특별시 광진구 화양동 234,서울특별시 광진구 아차산로21길 47 화양동현대아파트,317649,549507,"생활,편의>편의점",,1577-9621,http://www.ministop.co.kr/
47,<b>미니스톱</b> 구의명성점,서울특별시 광진구 구의동 248-138,서울특별시 광진구 아차산로51길 62,319336,549008,"생활,편의>편의점",,02-3436-5966,http://www.ministop.co.kr/
48,<b>미니스톱</b> 뚝섬3점,서울특별시 광진구 자양동 99-2,,317426,548081,"생활,편의>편의점",,02-461-1989,http://www.ministop.co.kr/
49,<b>미니스톱</b> 아차산르블랑점,서울특별시 광진구 중곡동 93-49,서울특별시 광진구 천호대로127길 13,319765,550562,"생활,편의>편의점",,1577-9621,
50,<b>미니스톱</b> 동부센터점,서울특별시 광진구 능동 283-15,서울특별시 광진구 능동로 268 동산빌딩,318727,550579,"생활,편의>편의점",,1577-9621,
51,<b>미니스톱</b> 군자하나점,서울특별시 광진구 중곡동 341-1,서울특별시 광진구 천호대로109길 10 참피온태권도체육관,319013,550966,"생활,편의>편의점",,02-444-5384,http://www.ministop.co.kr/
52,<b>미니스톱</b> 아차산새길점,서울특별시 광진구 중곡동 98-22,서울특별시 광진구 자양로53길 70,319876,550803,"생활,편의>편의점",,02-456-1419,
53,<b>미니스톱</b> 광진구청점,서울특별시 광진구 자양동 779-8,"서울특별시 광진구 자양로 109 현대홈시티 108호,109호",319173,548777,"생활,편의>편의점",,1577-9621,http://www.ministop.co.kr/
54,<b>미니스톱</b> 뚝섬유원지점,서울특별시 광진구 자양동 553-376,서울특별시 광진구 능동로4길 17 원우상가,317887,548331,"생활,편의>편의점",,1577-9621,
55,<b>미니스톱</b> 아차산생태공원점,서울특별시 광진구 광장동 5-117,서울특별시 광진구 워커힐로 127 만남의광장,320787,550349,"생활,편의>편의점",,1577-9621,http://www.ministop.co.kr/
56,<b>미니스톱</b> 자양광양점,서울특별시 광진구 자양동 669-10,서울특별시 광진구 자양로3가길 36,319314,547778,"생활,편의>편의점",,1577-9621,http://www.ministop.co.kr/
57,<b>미니스톱</b> 신아차산입구점,서울특별시 광진구 중곡동 102-11,서울특별시 광진구 영화사로3가길 25,320120,550969,"생활,편의>편의점",,1577-9621,
58,<b>미니스톱</b> 아차산생태공원점,서울특별시 광진구 광장동 244-28,서울특별시 광진구 천호대로 805 501호,320958,549663,"생활,편의>편의점",,,http://www.ministop.co.kr/
59,<b>미니스톱</b> 장안벤처빌점,서울특별시 동대문구 장안동 374-11,서울특별시 동대문구 한천로24길 74-1 진성빌딩,317935,552265,"생활,편의>편의점",,02-2215-7717,http://www.ministop.co.kr/
60,<b>미니스톱</b> 장안3점,서울특별시 동대문구 장안동 403-1,서울특별시 동대문구 천호대로77길 84,317448,551888,"생활,편의>편의점",,02-2215-4237,http://www.ministop.co.kr/
61,<b>미니스톱</b>신설진흥점,서울특별시 동대문구 신설동 104-1,서울특별시 동대문구 천호대로2길 15,313997,552914,"생활,편의>편의점",,02-2235-5496,http://www.ministop.co.kr/
62,<b>미니스톱</b> 신이문역점,서울특별시 동대문구 이문동 217-28,서울특별시 동대문구 한천로 479,317823,556097,"생활,편의>편의점",,1577-9621,
63,<b>미니스톱</b> 장안본점,서울특별시 동대문구 장안동 298-14,서울특별시 동대문구 장한로31길 20,318106,552986,"생활,편의>편의점",,1577-9621,http://www.ministop.co.kr/
64,<b>미니스톱</b> 장안삼거리점,서울특별시 동대문구 장안동 286-1,서울특별시 동대문구 사가정로 230,318082,553339,"생활,편의>편의점",,1577-9621,
65,<b>미니스톱</b> 장안쉐르빌점,서울특별시 동대문구 장안동 383-3,서울특별시 동대문구 장한로21길 16,317984,552407,"생활,편의>편의점",,,http://www.ministop.co.kr/
66,<b>미니스톱</b> 휘경주공점,서울특별시 동대문구 휘경동 57-3 주공아파트 상가 103호,서울특별시 동대문구 한천로 250 주공아파트,317933,553836,"생활,편의>편의점",,02-2215-0617,http://www.ministop.co.kr/
67,<b>미니스톱</b> 면목센터점,서울특별시 중랑구 면목동 720-6,서울특별시 중랑구 동일로 492 센타빌딩,318955,552847,"생활,편의>편의점",,1577-9621,
68,<b>미니스톱</b> 먹골역점,서울특별시 중랑구 묵동 240-47,서울특별시 중랑구 동일로157길 32,318601,556793,"생활,편의>편의점",,1577-9621,http://www.ministop.co.kr/
69,<b>미니스톱</b> 상봉점,서울특별시 중랑구 상봉동 88-25,서울특별시 중랑구 봉우재로33길 92,319850,555220,"생활,편의>편의점",,02-435-8185,http://www.ministop.co.kr/
70,<b>미니스톱</b> 상봉건영점,서울특별시 중랑구 상봉동 1,서울특별시 중랑구 봉화산로48길 62 건영아파트,320172,556231,"생활,편의>편의점",,1577-9621,http://www.ministop.co.kr/
71,<b>미니스톱</b> 면목대명점,서울특별시 중랑구 면목동 186-11 대명빌딩 1층,서울특별시 중랑구 동일로109길 90 대명빌딩 1층,318538,554707,"생활,편의>편의점",,1577-9621,http://www.ministop.co.kr/
72,<b>미니스톱</b> 신내점,서울특별시 중랑구 신내동 613-71,서울특별시 중랑구 봉화산로 217 부영빌딩,320462,556549,"생활,편의>편의점",,02-3423-2748,http://www.ministop.co.kr/
73,<b>미니스톱</b> 녹색병원점,서울특별시 중랑구 면목동 568-1,서울특별시 중랑구 사가정로49길 53 원진재단부설녹색병원,319464,553876,"생활,편의>편의점",,1577-9621,http://www.ministop.co.kr/
74,<b>미니스톱</b> 성신여대입구역점,서울특별시 성북구 동선동4가 87,서울특별시 성북구 동소문로23길 7,313439,555078,"생활,편의>편의점",,1577-9621,http://www.ministop.co.kr/
75,<b>미니스톱</b> 국민대후문점,서울특별시 성북구 정릉동 884-1,서울특별시 성북구 정릉로9길 26,311857,556862,"생활,편의>편의점",,1577-9621,
76,<b>미니스톱</b>보문점,서울특별시 성북구 보문동5가 156-1,서울특별시 성북구 보문로 73,313735,553745,"생활,편의>편의점",,02-922-7088,http://www.ministop.co.kr/
77,<b>미니스톱</b> 정릉타운점,서울특별시 성북구 정릉동 227-164,서울특별시 성북구 서경로18길 6 B1,313235,556910,"생활,편의>편의점",,1577-9621,http://www.ministop.co.kr/
78,<b>미니스톱</b> 장위점,서울특별시 성북구 장위동 238-122,서울특별시 성북구 장월로 113,316184,557508,"생활,편의>편의점",,02-918-2306,
79,<b>미니스톱</b> 안암역점,서울특별시 성북구 안암동5가 100-9,서울특별시 성북구 고려대로 95,314532,554247,"생활,편의>편의점",,02-929-2980,http://www.ministop.co.kr/
80,<b>미니스톱</b> 성북보문점,서울특별시 성북구 보문동3가 230,서울특별시 성북구 낙산길 255,313272,553866,"생활,편의>편의점",,1577-9621,http://www.ministop.co.kr/
81,<b>미니스톱</b> 종암아이파크점,서울특별시 성북구 종암동 62-8,서울특별시 성북구 종암로19길 50,314713,555523,"생활,편의>편의점",,1577-9621,http://www.ministop.co.kr/
82,<b>미니스톱</b> 보문파크점,서울특별시 성북구 보문동7가 56,서울특별시 성북구 보문로13길 24,313697,553529,"생활,편의>편의점",,1577-9621,
83,<b>미니스톱</b> 정릉서경대점,서울특별시 성북구 정릉동 266-390,서울특별시 성북구 보국문로16길 48,312774,557105,"생활,편의>편의점",,02-998-8580,http://www.ministop.co.kr/
84,<b>미니스톱</b>고대사이언스점,서울특별시 성북구 안암동5가 126-16,서울특별시 성북구 안암로 145,314169,554077,"생활,편의>편의점",,,http://www.ministop.co.kr/
85,<b>미니스톱</b> 고대경영관점,서울특별시 성북구 안암동5가 1-2 고려대학교 경영관,서울특별시 성북구 안암로 145 고려대학교 경영관(현대자동차),314758,554484,"생활,편의>편의점",,02-921-4790,http://www.ministop.co.kr/
86,<b>미니스톱</b> 동소문점,서울특별시 성북구 동소문동4가 267,서울특별시 성북구 동소문로 65-2 삼송빌딩,313000,554848,"생활,편의>편의점",,02-921-1352,http://www.ministop.co.kr/
87,<b>미니스톱</b> 상월곡역점,서울특별시 성북구 석관동 341-16,서울특별시 성북구 화랑로 186 수정빌딩,316403,556553,"생활,편의>편의점",,02-967-3233,http://www.ministop.co.kr/
88,<b>미니스톱</b> 종암점,서울특별시 성북구 종암동 3-1237,서울특별시 성북구 종암로 120 금강빌딩,314893,555847,"생활,편의>편의점",,1577-9621,
89,<b>미니스톱</b> 고대원룸점,서울특별시 성북구 종암동 24-20,서울특별시 성북구 북악산로29길 24,314972,555009,"생활,편의>편의점",,1577-9621,http://www.ministop.co.kr/
90,<b>미니스톱</b> 장위중앙점,서울특별시 성북구 장위동 231-590,서울특별시 성북구 장위로 38 장성빌딩,315518,557322,"생활,편의>편의점",,1577-9621,http://www.ministop.co.kr/
91,<b>미니스톱</b> 고대사이언스점,서울특별시 성북구 안암동5가 1-2,서울특별시 성북구 안암로 145 고려대학교안암캠퍼스(인문사회계),314758,554484,"생활,편의>편의점",,02-921-4870,http://www.ministop.co.kr/
92,<b>미니스톱</b> 성북종암점,서울특별시 성북구 종암동 10-56,서울특별시 성북구 종암로10길 11,315106,555304,"생활,편의>편의점",,1577-9621,http://www.ministop.co.kr/
93,<b>미니스톱</b> 고대타이거점,서울특별시 성북구 안암동5가 1-2,서울특별시 성북구 안암로 145 고려대학교안암캠퍼스(인문사회계),314581,554387,"생활,편의>편의점",,02-926-9320,
94,<b>미니스톱</b> 수유점,서울특별시 강북구 수유동 223-1,서울특별시 강북구 노해로 38,313975,560085,"생활,편의>편의점",,02-908-9303,http://www.ministop.co.kr/
95,<b>미니스톱</b> 수유노해점,서울특별시 강북구 수유동 220-29,서울특별시 강북구 노해로 56,313952,560267,"생활,편의>편의점",,,http://www.ministop.co.kr/
96,<b>미니스톱</b> 삼각산SK점,서울특별시 강북구 미아동 1353-7,서울특별시 강북구 삼양로19길 214 금강빌딩,313278,557955,"생활,편의>편의점",,1577-9621,
97,<b>미니스톱</b> 미아삼성점,서울특별시 강북구 미아동 693,서울특별시 강북구 삼양로27길 20 광야교회,313697,557863,"생활,편의>편의점",,1577-9621,http://www.ministop.co.kr/
98,<b>미니스톱</b> 수유인텔리안점,서울특별시 강북구 수유동 230-7,서울특별시 강북구 도봉로 313,314018,559792,"생활,편의>편의점",,,http://www.ministop.co.kr/
99,<b>미니스톱</b> 번동주공점,서울특별시 강북구 번동 242-1,서울특별시 강북구 한천로105길 33,315985,558581,"생활,편의>편의점",,02-987-2220,http://www.ministop.co.kr/
100,<b>미니스톱</b> 수유포엠빌점,서울특별시 강북구 수유동 190-18,서울특별시 강북구 한천로139가길 26 포엠빌아파트,314153,560256,"생활,편의>편의점",,1577-9621,http://www.ministop.co.kr/
101,<b>미니스톱</b> 수유역점,서울특별시 강북구 번동 446-1,서울특별시 강북구 오패산로 413,314266,559901,"생활,편의>편의점",,1577-9621,http://www.ministop.co.kr/
102,<b>미니스톱</b> 수유센터점,서울특별시 강북구 수유동 561-20,서울특별시 강북구 인수봉로77길 22,312790,560716,"생활,편의>편의점",,1577-9621,
103,<b>미니스톱</b> 솔밭공원점,서울특별시 강북구 우이동 72-133,서울특별시 강북구 삼양로 531,313115,561342,"생활,편의>편의점",,1577-9621,http://www.ministop.co.kr/
104,<b>미니스톱</b> 수유사랑점,서울특별시 강북구 번동 447-51,서울특별시 강북구 오패산로77길 17,314220,559830,"생활,편의>편의점",,1577-9621,http://www.ministop.co.kr/
105,<b>미니스톱</b> 수유타운점,서울특별시 강북구 수유동 254-3,서울특별시 강북구 노해로23길 53,313750,560801,"생활,편의>편의점",,1577-9621,http://www.ministop.co.kr/
106,<b>미니스톱</b> 수유대한점,서울특별시 강북구 수유동 1-60,서울특별시 강북구 수유로 79,313911,559799,"생활,편의>편의점",,02-905-1325,http://www.ministop.co.kr/
107,<b>미니스톱</b> 도봉쌍문점,서울특별시 도봉구 창동 650-1,서울특별시 도봉구 도봉로110길 12,314967,560867,"생활,편의>편의점",,02-994-7330,http://www.ministop.co.kr/
108,<b>미니스톱</b> 방학2점,서울특별시 도봉구 방학동 280-6,서울특별시 도봉구 방학로 192,314696,562663,"생활,편의>편의점",,,http://www.ministop.co.kr/
109,<b>미니스톱</b> 창동상아점,서울특별시 도봉구 창동 301-30,서울특별시 도봉구 해등로16다길 14,315801,561763,"생활,편의>편의점",,1577-9621,http://www.ministop.co.kr/
110,<b>미니스톱</b> 방학본점,서울특별시 도봉구 방학동 682-20,서울특별시 도봉구 방학로2길 40,315593,562921,"생활,편의>편의점",,02-3491-0917,http://www.ministop.co.kr/
111,<b>미니스톱</b> 도봉구청점,서울특별시 도봉구 도봉동 636-12,서울특별시 도봉구 마들로 664 킴스타워,316073,563437,"생활,편의>편의점",,02-956-1463,http://www.ministop.co.kr/
112,<b>미니스톱</b> 도봉월드점,서울특별시 도봉구 방학동 720-33,서울특별시 도봉구 마들로 650,316131,563294,"생활,편의>편의점",,,http://www.ministop.co.kr/
113,<b>미니스톱</b> 창동신한점,서울특별시 도봉구 창동 3-4 신한빌딩,서울특별시 도봉구 마들로11길 71,316322,561646,"생활,편의>편의점",,02-992-6451,http://www.ministop.co.kr/
114,<b>미니스톱</b> 쌍문역점,서울특별시 도봉구 창동 659-29 삼성쉐르빌 102호,서울특별시 도봉구 도봉로 476,315017,561075,"생활,편의>편의점",,,http://www.ministop.co.kr/
115,<b>미니스톱</b> 도봉방학점,서울특별시 도봉구 방학동 635-3,서울특별시 도봉구 도당로13길 38,315042,563097,"생활,편의>편의점",,02-955-1891,http://www.ministop.co.kr/
116,<b>미니스톱</b> 불암아이파크점,서울특별시 도봉구 창동 659-29,서울특별시 도봉구 도봉로 476 삼성쉐르빌퍼스티,315013,561066,"생활,편의>편의점",,1577-9621,
117,<b>미니스톱</b> 노원2점,서울특별시 노원구 상계동 693-4,서울특별시 노원구 상계로 59 동익빌딩,317393,561968,"생활,편의>편의점",,02-934-8216,http://www.ministop.co.kr/
118,<b>미니스톱</b> 공릉풍림점,서울특별시 노원구 공릉동 726,"서울특별시 노원구 섬밭로 139 104, 105, 106호",317930,558887,"생활,편의>편의점",,1577-9621,http://www.ministop.co.kr/
119,<b>미니스톱</b> 중계건영점,서울특별시 노원구 중계동 360-15 건영아파트상가 104호,서울특별시 노원구 노원로22길 77 건영아파트,318517,561037,"생활,편의>편의점",,02-933-8628,http://www.ministop.co.kr/
120,<b>미니스톱</b>을지병원1점,서울특별시 노원구 하계동 280-1,서울특별시 노원구 한글비석로 68,318125,559770,"생활,편의>편의점",,,http://www.ministop.co.kr/
121,<b>미니스톱</b> 수락은빛점,"서울특별시 노원구 상계동 1262 하이베라스 117,118호",서울특별시 노원구 동일로 1689 하이베라스,316829,564540,"생활,편의>편의점",,02-931-7562,http://www.ministop.co.kr/
122,<b>미니스톱</b> 을지병원2점,서울특별시 노원구 하계동 280-1 지하 1층,서울특별시 노원구 한글비석로 68 을지병원,318125,559758,"생활,편의>편의점",,,http://www.ministop.co.kr/
123,<b>미니스톱</b> 상계청송점,서울특별시 노원구 중계동 154-8,서울특별시 노원구 덕릉로83길 12 우일빌딩,318559,562370,"생활,편의>편의점",,02-935-6677,http://www.ministop.co.kr/
124,<b>미니스톱</b> 상계점,서울특별시 노원구 상계동 389-125,서울특별시 노원구 한글비석로 411,318207,562513,"생활,편의>편의점",,02-938-2825,
125,<b>미니스톱</b> 마들스타점,"서울특별시 노원구 상계동 648 유치원상가 103호,104호",서울특별시 노원구 한글비석로 530 상계주공12단지아파트,317209,562941,"생활,편의>편의점",,1577-9621,http://www.ministop.co.kr/
126,<b>미니스톱</b> 광운스퀘어점,서울특별시 노원구 월계동 447-1 광운대학교 80주년 기념관 L층,서울특별시 노원구 광운로 20 광운대학교 80주년 기념관  L층,317094,557932,"생활,편의>편의점",,1577-9621,
127,<b>미니스톱</b> 원자력병원점,서울특별시 노원구 공릉동 421-15 윤탁노블레스 104호,서울특별시 노원구 공릉로46길 18 윤탁노블레스,318983,558727,"생활,편의>편의점",,1577-9621,http://www.ministop.co.kr/
128,<b>미니스톱</b> 상계당현점,서울특별시 노원구 상계동 767-4,서울특별시 노원구 동일로213길 77,317065,561030,"생활,편의>편의점",,1577-9621,
129,<b>미니스톱</b> 마들역점,서울특별시 노원구 상계동 651-4,서울특별시 노원구 동일로 1547 동남빌딩,317007,563112,"생활,편의>편의점",,1577-9621,http://www.ministop.co.kr/
130,<b>미니스톱</b> 대조타운점,서울특별시 은평구 대조동 172-1,서울특별시 은평구 역말로 131 1층,304979,557049,"생활,편의>편의점",,1577-9621,http://www.ministop.co.kr/
131,<b>미니스톱</b> 은평우물골점,서울특별시 은평구 진관동 81 은평뉴타운 우물골마을 253동 상가 B109호,서울특별시 은평구 진관2로 57-7 은평뉴타운 우물골마을 253동 상가 B109호,305189,559669,"생활,편의>편의점",,1577-9621,
132,<b>미니스톱</b> 연신내동명점,서울특별시 은평구 대조동 196-8 1층,서울특별시 은평구 연서로28길 20-1 1층,305017,557749,"생활,편의>편의점",,,http://www.ministop.co.kr/
133,<b>미니스톱</b> 갈현타운점,서울특별시 은평구 갈현동 506-1,서울특별시 은평구 갈현로23길 9,304230,557681,"생활,편의>편의점",,1577-9621,http://www.ministop.co.kr/
134,<b>미니스톱</b> 연신내역점,서울특별시 은평구 불광동 308-10,서울특별시 은평구 연서로 246,305086,557976,"생활,편의>편의점",,,http://www.ministop.co.kr/
135,<b>미니스톱</b> 구산씨앤빌점,서울특별시 은평구 구산동 14-40,서울특별시 은평구 갈현로 141,304056,557038,"생활,편의>편의점",,1577-9621,
136,<b>미니스톱</b> 파발점,서울특별시 은평구 진관동 70,서울특별시 은평구 진관2로 15-46,304782,560144,"생활,편의>편의점",,,http://www.ministop.co.kr/
137,<b>미니스톱</b> 불광역점,서울특별시 은평구 대조동 15-30,서울특별시 은평구 통일로65길 5,305755,556842,"생활,편의>편의점",,1577-9621,http://www.ministop.co.kr/
138,<b>미니스톱</b> 은평푸르지오점,서울특별시 은평구 진관동 143-12,,306250,559989,"생활,편의>편의점",,1577-9621,http://www.ministop.co.kr/
139,<b>미니스톱</b> 역촌행운점,서울특별시 은평구 역촌동 56-1,서울특별시 은평구 역말로 20,304189,556473,"생활,편의>편의점",,1577-9621,http://www.ministop.co.kr/
140,<b>미니스톱</b> 은평신성점,서울특별시 은평구 신사동 151-1,서울특별시 은평구 증산로15길 69,303560,554825,"생활,편의>편의점",,1577-9621,
141,<b>미니스톱</b> 서북병원점,서울특별시 은평구 역촌동 산31-1,서울특별시 은평구 갈현로7길 49,303464,556338,"생활,편의>편의점",,1577-9621,http://www.ministop.co.kr/
142,<b>미니스톱</b> 홍제역점,서울특별시 서대문구 홍제동 306-8 충성교회 1층,서울특별시 서대문구 통일로37길 18 충성교회,306931,554441,"생활,편의>편의점",,02-391-5140,http://www.ministop.co.kr/
143,<b>미니스톱</b> 연대점,서울특별시 서대문구 창천동 29-111 1층,서울특별시 서대문구 연세로4길 12 동성빌딩,306337,551063,"생활,편의>편의점",,02-365-1797,http://www.ministop.co.kr/
144,<b>미니스톱</b> 명지대점,서울특별시 서대문구 홍은동 409-1,서울특별시 서대문구 거북골로 9,305346,553731,"생활,편의>편의점",,02-3152-0809,
145,<b>미니스톱</b> 이대역점,서울특별시 서대문구 대현동 40-4,서울특별시 서대문구 이화여대길 7 월성빌딩,307054,551090,"생활,편의>편의점",,1577-9621,http://www.ministop.co.kr/
146,<b>미니스톱</b> 북아현푸르지오점,서울특별시 서대문구 북아현동 1012,"서울특별시 서대문구 북아현로1길 50 제상가2동 208,209,210호",307745,551345,"생활,편의>편의점",,1577-9621,http://www.ministop.co.kr/
147,<b>미니스톱</b> 연대동문점,서울특별시 서대문구 대신동 84-5,서울특별시 서대문구 연대동문길 37 대신빌딩,306919,551848,"생활,편의>편의점",,1577-9621,http://www.ministop.co.kr/
148,<b>미니스톱</b> 충정로삼창점,서울특별시 서대문구 충정로3가 63-1,서울특별시 서대문구 충정로 13 삼창빌딩,308560,551442,"생활,편의>편의점",,1577-9621,
149,<b>미니스톱</b> 난지2점,서울특별시 마포구 상암동 482-178,서울특별시 마포구 마포나루길 216,301197,551991,"생활,편의>편의점",,02-3151-0710,http://www.ministop.co.kr/
150,<b>미니스톱</b> 한강난지1점,서울특별시 마포구 상암동 487-140,서울특별시 마포구 마포나루길 316 난지1호점,301971,551462,"생활,편의>편의점",,1577-9621,http://www.ministop.co.kr/
151,<b>미니스톱</b> 홍익대기숙사점,서울특별시 마포구 상수동 72-1,서울특별시 마포구 와우산로 94 홍익대학교,305193,550242,"생활,편의>편의점",,1577-9621,
152,<b>미니스톱</b> 홍대그린점,서울특별시 마포구 서교동 363-11,서울특별시 마포구 잔다리로 12,304933,550413,"생활,편의>편의점",,1577-9621,http://www.ministop.co.kr/
153,<b>미니스톱</b> 마포센터점,서울특별시 마포구 도화동 565,서울특별시 마포구 새창로 7 서울대학교 총동창회 장학빌딩,307484,549432,"생활,편의>편의점",,1577-9621,http://www.ministop.co.kr/
154,<b>미니스톱</b> 마포성원점,서울특별시 마포구 성산동 160-4,서울특별시 마포구 월드컵로36길 50,303515,552348,"생활,편의>편의점",,1577-9621,
155,<b>미니스톱</b> 홍대입구역점,서울특별시 마포구 동교동 158-8 1층 3호,서울특별시 마포구 월드컵북로2길 29,304985,551037,"생활,편의>편의점",,1577-9621,http://www.ministop.co.kr/
156,<b>미니스톱</b> 서강대점,서울특별시 마포구 신수동 1-1,서울특별시 마포구 백범로 35 서강대학교,306430,550252,"생활,편의>편의점",,02-703-5217,http://www.ministop.co.kr/
157,<b>미니스톱</b> 한강난지2점,서울특별시 마포구 상암동 482-454,서울특별시 마포구 마포나루길 216,301166,551994,"생활,편의>편의점",,,http://www.ministop.co.kr/
158,<b>미니스톱</b> MBC파크엠점,서울특별시 마포구 상암동 1615,서울특별시 마포구 매봉산로 80,302527,553473,"생활,편의>편의점",,1577-9621,http://www.ministop.co.kr/
159,<b>미니스톱</b> 홍대잔다리점,서울특별시 마포구 서교동 369-26,서울특별시 마포구 잔다리로6길 23,304801,550561,"생활,편의>편의점",,,http://www.ministop.co.kr/
160,<b>미니스톱</b> 서교2점,서울특별시 마포구 서교동 460-27,서울특별시 마포구 월드컵북로5길 29,304539,551056,"생활,편의>편의점",,02-322-1280,http://www.ministop.co.kr/
161,<b>미니스톱</b> M아현역점,서울특별시 마포구 아현동 329-1,서울특별시 마포구 신촌로 270,307933,551060,"생활,편의>편의점",,1577-9621,
162,<b>미니스톱</b> 망원현대점,서울특별시 마포구 망원동 409-41,서울특별시 마포구 희우정로20길 54,303305,550982,"생활,편의>편의점",,1577-9621,
163,<b>미니스톱</b> 마포서강점,"서울특별시 마포구 대흥동 804 마포자이2차아파트 상가동 1층 101, 102호","서울특별시 마포구 서강대길 40 마포자이2차아파트 상가동 1층 101, 102호",306680,550236,"생활,편의>편의점",,1577-9621,http://www.ministop.co.kr/
164,<b>미니스톱</b> 상암월드시티점,서울특별시 마포구 성산동 590-5,"서울특별시 마포구 월드컵로34길 13 101,102호",303325,552030,"생활,편의>편의점",,1577-9621,http://www.ministop.co.kr/
165,<b>미니스톱</b> 서교동명점,서울특별시 마포구 서교동 479-9 1층,서울특별시 마포구 월드컵로10길 28,304185,550850,"생활,편의>편의점",,1577-9621,http://www.ministop.co.kr/
166,<b>미니스톱</b> 동교스텔라점,서울특별시 마포구 동교동 205-9,서울특별시 마포구 월드컵북로 20,304787,551044,"생활,편의>편의점",,1577-9621,http://www.ministop.co.kr/
167,<b>미니스톱</b> 밤섬자이행복점,서울특별시 마포구 상수동 50-1,서울특별시 마포구 토정로 149,305445,549837,"생활,편의>편의점",,02-337-1444,http://www.ministop.co.kr/
168,<b>미니스톱</b> 광흥창역점,서울특별시 마포구 구수동 6-8,서울특별시 마포구 독막로 176,305918,549990,"생활,편의>편의점",,1577-9621,http://www.ministop.co.kr/
169,<b>미니스톱</b> 상암미르웰점,서울특별시 마포구 성산동 593-5,서울특별시 마포구 모래내로3길 11 101호,303435,552012,"생활,편의>편의점",,1577-9621,http://www.ministop.co.kr/
170,<b>미니스톱</b>상암센트럴점,서울특별시 마포구 상암동 1654,서울특별시 마포구 월드컵북로 375,302218,553361,"생활,편의>편의점",,,http://www.ministop.co.kr/
171,<b>미니스톱</b>목동파라곤점,서울특별시 양천구 목동 917 상가6호,서울특별시 양천구 목동서로 155 목동파라곤,300799,548056,"생활,편의>편의점",,02-2651-9835,http://www.ministop.co.kr/
172,<b>미니스톱</b>목동역점,서울특별시 양천구 신정동 904-8,서울특별시 양천구 신정중앙로 88,299557,547757,"생활,편의>편의점",,,http://www.ministop.co.kr/
173,<b>미니스톱</b> 목동성원점,서울특별시 양천구 목동 709-2 상가 111호,서울특별시 양천구 목동중앙남로 100 상가 111호,299760,549486,"생활,편의>편의점",,1577-9621,http://www.ministop.co.kr/
174,<b>미니스톱</b> 목동13단지점,서울특별시 양천구 신정동 327,서울특별시 양천구 목동동로 100 목동신시가지아파트13단지,299750,546297,"생활,편의>편의점",,1577-9621,
175,<b>미니스톱</b> 신월우영점,서울특별시 양천구 신월동 136-8,서울특별시 양천구 남부순환로59길 3 우영아파트,296938,548411,"생활,편의>편의점",,1577-9621,http://www.ministop.co.kr/
176,<b>미니스톱</b> 신월에이스점,서울특별시 양천구 신월동 12-1,서울특별시 양천구 화곡로3길 23 1층,296562,549463,"생활,편의>편의점",,1577-9621,http://www.ministop.co.kr/
177,<b>미니스톱</b> 신월우창점,서울특별시 양천구 신월동 530-7,서울특별시 양천구 신월로17길 21 우창아파트,297819,547145,"생활,편의>편의점",,1577-9621,http://www.ministop.co.kr/
178,<b>미니스톱</b> 발산역점,서울특별시 강서구 등촌동 674-1,서울특별시 강서구 강서로 378,297595,551418,"생활,편의>편의점",,02-2668-5035,http://www.ministop.co.kr/
179,<b>미니스톱</b> 가양점,서울특별시 강서구 가양동 1480-8,서울특별시 강서구 양천로 461 주영빌딩,298784,551819,"생활,편의>편의점",,02-3661-9301,http://www.ministop.co.kr/
180,<b>미니스톱</b> 등촌청림점,서울특별시 강서구 등촌동 641-13,서울특별시 강서구 공항대로45길 44,299088,551125,"생활,편의>편의점",,02-3662-0707,http://www.ministop.co.kr/
181,<b>미니스톱</b> 공항입구점,서울특별시 강서구 공항동 45-39,서울특별시 강서구 공항대로 23 주약국,295054,551719,"생활,편의>편의점",,1577-9621,http://www.ministop.co.kr/
182,<b>미니스톱</b> 까치산점,서울특별시 강서구 화곡동 902-10,서울특별시 강서구 강서로7길 19,298253,548106,"생활,편의>편의점",,02-2697-2810,http://www.ministop.co.kr/
183,<b>미니스톱</b> 화곡공원점,서울특별시 강서구 화곡동 98-253,서울특별시 강서구 까치산로4길 34,298126,549419,"생활,편의>편의점",,,http://www.ministop.co.kr/
184,<b>미니스톱</b> 강서우장산점,서울특별시 강서구 내발산동 674-3,서울특별시 강서구 강서로48길 47,297619,550667,"생활,편의>편의점",,1577-9621,
185,<b>미니스톱</b> 방화사거리점,서울특별시 강서구 방화동 450-15,서울특별시 강서구 양천로 73 방화동멤브로메디컬센터,295232,553046,"생활,편의>편의점",,1577-9621,http://www.ministop.co.kr/
186,<b>미니스톱</b> 화곡엠파이어시티점,서울특별시 강서구 화곡동 1051-1,서울특별시 강서구 강서로 187,297586,549603,"생활,편의>편의점",,1577-9621,http://www.ministop.co.kr/
187,<b>미니스톱</b> 화곡명월점,서울특별시 강서구 화곡동 918-21,서울특별시 강서구 곰달래로 104,298053,548203,"생활,편의>편의점",,1577-9621,http://www.ministop.co.kr/
188,<b>미니스톱</b> 비즈메트로점,서울특별시 강서구 가양동 449-16,서울특별시 강서구 양천로 551-17 한화비즈메트로1차,299583,551375,"생활,편의>편의점",,1577-9621,http://www.ministop.co.kr/
189,<b>미니스톱</b> 강서등촌점,서울특별시 강서구 등촌동 632-9,서울특별시 강서구 양천로 606,299945,550937,"생활,편의>편의점",,1577-9621,http://www.ministop.co.kr/
190,<b>미니스톱</b> 개화산역점,서울특별시 강서구 방화동 557-7,서울특별시 강서구 양천로 50 1층,295015,552961,"생활,편의>편의점",,1577-9621,http://www.ministop.co.kr/
191,<b>미니스톱</b> 화곡사거리점,서울특별시 강서구 화곡동 898-1,서울특별시 강서구 강서로 27,298309,548216,"생활,편의>편의점",,02-2607-2193,http://www.ministop.co.kr/
192,<b>미니스톱</b> 가양대교점,서울특별시 강서구 등촌동 78-7,서울특별시 강서구 양천로 492 길훈엔트런스빌,299014,551569,"생활,편의>편의점",,1577-9621,http://www.ministop.co.kr/
193,<b>미니스톱</b> 강서드림점,서울특별시 강서구 화곡동 1116-3,서울특별시 강서구 화곡로 330,298685,550739,"생활,편의>편의점",,1577-9621,http://www.ministop.co.kr/
194,<b>미니스톱</b> 서울신주점,서울특별시 강서구 화곡동 863-8,서울특별시 강서구 곰달래로31가길 80 1층,299080,548414,"생활,편의>편의점",,1577-9621,http://www.ministop.co.kr/
195,<b>미니스톱</b> 신방화점,서울특별시 강서구 방화동 249-28,서울특별시 강서구 방화동로 80,295330,552355,"생활,편의>편의점",,1577-9621,http://www.ministop.co.kr/
196,<b>미니스톱</b> 강서공항점,서울특별시 강서구 공항동 55-156,서울특별시 강서구 공항대로8길 55 알지빌딩,295272,551368,"생활,편의>편의점",,1577-9621,http://www.ministop.co.kr/
197,<b>미니스톱</b> 우리동네점,서울특별시 강서구 화곡동 926-1,서울특별시 강서구 강서로7길 89,297914,548067,"생활,편의>편의점",,,http://www.ministop.co.kr/
198,<b>미니스톱</b> 화곡재성점,서울특별시 강서구 화곡동 938-2,서울특별시 강서구 월정로20길 25,297667,548150,"생활,편의>편의점",,1577-9621,http://www.ministop.co.kr/
199,<b>미니스톱</b> 서울희망점,서울특별시 강서구 공항동 1356-10,서울특별시 강서구 방화대로6길 33,295819,550966,"생활,편의>편의점",,1577-9621,http://www.ministop.co.kr/
200,<b>미니스톱</b> 개봉역점,서울특별시 구로구 개봉동 418,,299247,544215,"생활,편의>편의점",,02-2688-8093,http://www.ministop.co.kr/
201,<b>미니스톱</b>구로공단역점,서울특별시 구로구 구로동 1124-44,서울특별시 구로구 디지털로32나길 35,303006,543088,"생활,편의>편의점",,,http://www.ministop.co.kr/
202,<b>미니스톱</b> 오류역점,서울특별시 구로구 오류동 51-38,서울특별시 구로구 경인로20길 8 오류동광장타워,297950,544329,"생활,편의>편의점",,1577-9621,http://www.ministop.co.kr/
203,<b>미니스톱</b> 구로스타점,서울특별시 구로구 구로동 603-9,서울특별시 구로구 경인로 572 스타팰리스,301255,545167,"생활,편의>편의점",,02-2635-5977,http://www.ministop.co.kr/
204,<b>미니스톱</b> 구로대륭점,서울특별시 구로구 구로동 182-4,서울특별시 구로구 디지털로34길 27 대륭포스트타워3차,302743,543151,"생활,편의>편의점",,1577-9621,
205,<b>미니스톱</b> 구로포스트점,서울특별시 구로구 구로동 212-8,서울특별시 구로구 디지털로 288 대륭포스트타워1차,302488,542962,"생활,편의>편의점",,1577-9621,
206,<b>미니스톱</b> 구로대림점,서울특별시 구로구 구로동 1257,서울특별시 구로구 도림로 107 럭키아파트,302458,543871,"생활,편의>편의점",,1577-9621,http://www.ministop.co.kr/
207,<b>미니스톱</b> 구로개봉점,서울특별시 구로구 개봉동 351-26,서울특별시 구로구 개봉로11길 35,298863,543483,"생활,편의>편의점",,1577-9621,http://www.ministop.co.kr/
208,<b>미니스톱</b> 구일역점,서울특별시 구로구 구로동 685-154,서울특별시 구로구 구일로10길 49 다원그린빌,300682,544317,"생활,편의>편의점",,1577-9621,
209,<b>미니스톱</b> 오류북부점,서울특별시 구로구 오류동 81-26,서울특별시 구로구 고척로1길 23,297584,544275,"생활,편의>편의점",,1577-9621,
210,<b>미니스톱</b> 구로지플러스점,서울특별시 구로구 구로동 222-31 지플러스코오롱디지털타워 상가 12호,서울특별시 구로구 디지털로26길 123 지플러스코오롱디지털타워 상가 12호,302719,542898,"생활,편의>편의점",,1577-9621,http://www.ministop.co.kr/
211,<b>미니스톱</b> 구로구청점,서울특별시 구로구 구로동 84,서울특별시 구로구 가마산로22길 9,301836,544122,"생활,편의>편의점",,02-859-1390,http://www.ministop.co.kr/
212,<b>미니스톱</b> 구로빌란트점,서울특별시 구로구 구로동 222-8,서울특별시 구로구 디지털로30길 31 코오롱디지털타워빌란트Ⅱ,302578,542874,"생활,편의>편의점",,1577-9621,
213,<b>미니스톱</b> 구로하이엔드점,서울특별시 구로구 구로동 235-2 에이스하이엔드 1차 104호,서울특별시 구로구 디지털로26길 5 에이스 하이-엔드타워,302315,542751,"생활,편의>편의점",,1577-9621,http://www.ministop.co.kr/
214,<b>미니스톱</b> 천왕역점,서울특별시 구로구 오류동 183-8,서울특별시 구로구 오리로 1154-7,297512,543462,"생활,편의>편의점",,1577-9621,http://www.ministop.co.kr/
215,<b>미니스톱</b> 오류남부점,서울특별시 구로구 오류동 135-88,서울특별시 구로구 서해안로 2336,297964,544108,"생활,편의>편의점",,1577-9621,http://www.ministop.co.kr/
216,<b>미니스톱</b> 벽산밸리점,서울특별시 구로구 구로동 212-13,서울특별시 구로구 디지털로 271 벽산디지털밸리III,302366,542917,"생활,편의>편의점",,1577-9621,http://www.ministop.co.kr/
217,<b>미니스톱</b> 동양미래점,서울특별시 구로구 고척동 76-88,서울특별시 구로구 경인로47길 31 동양빌딩,299952,544883,"생활,편의>편의점",,1577-9621,http://www.ministop.co.kr/
218,<b>미니스톱</b> 구로중앙점,서울특별시 구로구 신도림동 293-26,서울특별시 구로구 신도림로11라길 31,301119,545974,"생활,편의>편의점",,1577-9621,http://www.ministop.co.kr/
219,<b>미니스톱</b> 구로888점,서울특별시 구로구 구로동 719-6,서울특별시 구로구 구로동로15길 24,301456,543453,"생활,편의>편의점",,1577-9621,http://www.ministop.co.kr/
220,<b>미니스톱</b> 구로이앤씨점,서울특별시 구로구 구로동 197-33,서울특별시 구로구 디지털로31길 38-21 이앤씨벤처드림타워3차,302368,543272,"생활,편의>편의점",,02-859-7008,
221,<b>미니스톱</b> 구로로제리움점,서울특별시 구로구 구로동 97,서울특별시 구로구 가마산로26길 5 로제리움2차,302130,544354,"생활,편의>편의점",,1577-9621,http://www.ministop.co.kr/
222,<b>미니스톱</b>구로벽산점,서울특별시 구로구 구로동 212-16,서울특별시 구로구 디지털로27길 24,302306,542964,"생활,편의>편의점",,,http://www.ministop.co.kr/
223,<b>미니스톱</b> 가산한라점,서울특별시 금천구 가산동 345-90,서울특별시 금천구 가산디지털2로 53 한라시그마밸리,301249,541798,"생활,편의>편의점",,1577-9621,http://www.ministop.co.kr/
224,<b>미니스톱</b> 금천가산점,서울특별시 금천구 가산동 145-27,서울특별시 금천구 가산로 134,302174,542289,"생활,편의>편의점",,1577-9621,http://www.ministop.co.kr/
225,<b>미니스톱</b> 독산로하스점,서울특별시 금천구 독산동 959,서울특별시 금천구 남부순환로124길 17 로하스타워,303167,542438,"생활,편의>편의점",,1577-9621,http://www.ministop.co.kr/
226,<b>미니스톱</b> 가산대륭점,서울특별시 금천구 가산동 327-35,서울특별시 금천구 가산디지털2로 14 대륭테크노타운12차,301518,541381,"생활,편의>편의점",,02-862-2236,http://www.ministop.co.kr/
227,<b>미니스톱</b> 독산현대점,서울특별시 금천구 독산동 291-1,서울특별시 금천구 두산로 70 현대지식산업센터,302527,541270,"생활,편의>편의점",,1577-9621,http://www.ministop.co.kr/
228,<b>미니스톱</b> 독산지식센터점,서울특별시 금천구 독산동 291-1 현대지식센터 A동,서울특별시 금천구 두산로 70 현대지식센터 A동,302507,541344,"생활,편의>편의점",,1577-9621,http://www.ministop.co.kr/
229,<b>미니스톱</b> 독산역점,서울특별시 금천구 가산동 715 고려테크원 1층,서울특별시 금천구 범안로 1138 고려테크온,301846,541014,"생활,편의>편의점",,02-866-5657,http://www.ministop.co.kr/
230,<b>미니스톱</b> 독산본점,서울특별시 금천구 독산동 1054-10,서울특별시 금천구 시흥대로 346,302703,540836,"생활,편의>편의점",,02-806-4021,
231,<b>미니스톱</b> 금천스카이점,서울특별시 금천구 시흥동 989-9,서울특별시 금천구 시흥대로47길 35,302896,539181,"생활,편의>편의점",,1577-9621,http://www.ministop.co.kr/
232,<b>미니스톱</b> 독산진도점,서울특별시 금천구 독산동 1133,서울특별시 금천구 두산로 36 진도아파트,302191,541486,"생활,편의>편의점",,1577-9621,
233,<b>미니스톱</b> 금천힐스테이트점,서울특별시 금천구 시흥동 986,서울특별시 금천구 시흥대로 163,303084,539064,"생활,편의>편의점",,1577-9621,
234,<b>미니스톱</b> 가산에이스점,서울특별시 금천구 가산동 371-50,서울특별시 금천구 가산디지털1로 145 에이스하이엔드타워3,301317,542381,"생활,편의>편의점",,1577-9621,http://www.ministop.co.kr/
235,<b>미니스톱</b> 가산엠파이어점,서울특별시 금천구 가산동 685,서울특별시 금천구 범안로 1130 디지털엠파이어,301785,540984,"생활,편의>편의점",,1577-9621,http://www.ministop.co.kr/
236,<b>미니스톱</b> 가산월드점,서울특별시 금천구 가산동 426-5 월드메르디앙벤처타운 2차 104호,서울특별시 금천구 가산디지털2로 123 월드메르디앙벤처센터II,301061,542450,"생활,편의>편의점",,1577-9621,http://www.ministop.co.kr/
237,<b>미니스톱</b> 금천에이스점,서울특별시 금천구 가산동 660,서울특별시 금천구 가산디지털1로 30 에이스하이엔드타워10,301748,541341,"생활,편의>편의점",,1577-9621,
238,<b>미니스톱</b> 가산하이엔드점,서울특별시 금천구 가산동 60-25 에이스하이엔드 6차 106-B호,서울특별시 금천구 벚꽃로 234 에이스하이엔드타워6,301671,542110,"생활,편의>편의점",,1577-9621,http://www.ministop.co.kr/
239,<b>미니스톱</b>가산캐슬점,서울특별시 금천구 가산동 550-1,서울특별시 금천구 가산디지털2로 98,301216,542258,"생활,편의>편의점",,,http://www.ministop.co.kr/
240,<b>미니스톱</b> 금천가온점,서울특별시 금천구 시흥동 848,서울특별시 금천구 독산로35길 13,303280,540113,"생활,편의>편의점",,1577-9621,http://www.ministop.co.kr/
241,<b>미니스톱</b> 금천벽산점,서울특별시 금천구 가산동 481-4,서울특별시 금천구 가산디지털1로 219 벽산디지털밸리6차,301065,543080,"생활,편의>편의점",,02-2627-3880,http://www.ministop.co.kr/
242,<b>미니스톱</b> 가산호서점,서울특별시 금천구 가산동 319 호서대벤처타워 104호,서울특별시 금천구 가산디지털1로 70 호서대벤처타워,301649,541704,"생활,편의>편의점",,02-868-5987,http://www.ministop.co.kr/
243,<b>미니스톱</b> 가산테크노점,서울특별시 금천구 가산동 481-11,서울특별시 금천구 가마산로 96 대륭테크노타운8 1층 106호,300924,543165,"생활,편의>편의점",,,http://www.ministop.co.kr/
244,<b>미니스톱</b> 금천은행나무점,서울특별시 금천구 시흥동 901-14,서울특별시 금천구 시흥대로50길 26 1층,303193,539391,"생활,편의>편의점",,1577-9621,http://www.ministop.co.kr/
245,<b>미니스톱</b> 가산타운점,서울특별시 금천구 가산동 670,서울특별시 금천구 가산디지털1로 25 대륭테크노타운17차,301674,541272,"생활,편의>편의점",,1577-9621,
246,<b>미니스톱</b> 여의도2점,서울특별시 영등포구 여의도동 84-4,서울특별시 영등포구 여의동로 343 여의나루역,305766,547875,"생활,편의>편의점",,02-761-0189,http://www.ministop.co.kr/
247,<b>미니스톱</b> 한강여의나루점,서울특별시 영등포구 여의도동 8,서울특별시 영등포구 여의동로 330,305939,547666,"생활,편의>편의점",,1577-9621,http://www.ministop.co.kr/
248,<b>미니스톱</b> 여의도1점,서울특별시 영등포구 여의도동 86-5,,306501,547302,"생활,편의>편의점",,02-761-0989,http://www.ministop.co.kr/
249,<b>미니스톱</b> 여의IFC점,서울특별시 영등포구 여의도동 24,서울특별시 영등포구 국제금융로2길 7 한주빌딩,305324,547483,"생활,편의>편의점",,02-785-7956,http://www.ministop.co.kr/
250,<b>미니스톱</b> 신길대신점,서울특별시 영등포구 신길동 115-1,서울특별시 영등포구 도신로60길 2 미주 메디컬 빌딩,304446,546073,"생활,편의>편의점",,1577-9621,
251,<b>미니스톱</b> 당산포스빌점,서울특별시 영등포구 당산동5가 33-1,서울특별시 영등포구 양평로 67 당산역 한강포스빌,302924,548659,"생활,편의>편의점",,02-2633-2410,http://www.ministop.co.kr/
252,<b>미니스톱</b> 한강양화점,서울특별시 영등포구 당산동 71-2,서울특별시 영등포구 선유로 314,303097,549198,"생활,편의>편의점",,1577-9621,http://www.ministop.co.kr/
253,<b>미니스톱</b> 당산학사점,서울특별시 영등포구 당산동 121-177,서울특별시 영등포구 버드나루로23길 9 용호빌딩,303592,548093,"생활,편의>편의점",,1577-9621,
254,<b>미니스톱</b> 대림성심병원점,서울특별시 영등포구 대림동 946-1 104호,서울특별시 영등포구 시흥대로187길 12 대림동현대아파트,303653,543953,"생활,편의>편의점",,1577-9621,http://www.ministop.co.kr/
255,<b>미니스톱</b> 신길점,서울특별시 영등포구 신길동 363-5,서울특별시 영등포구 도림로 322 세흥빌딩,303111,545481,"생활,편의>편의점",,02-845-0550,http://www.ministop.co.kr/
256,<b>미니스톱</b> 대림중앙점,서울특별시 영등포구 대림동 651-4,서울특별시 영등포구 대림로44길 5,302706,545063,"생활,편의>편의점",,1577-9621,http://www.ministop.co.kr/
257,<b>미니스톱</b> 양평우림점,서울특별시 영등포구 양평동3가 16,서울특별시 영등포구 양산로 43 양평동우림 이 비지센타,301918,547628,"생활,편의>편의점",,1577-9621,http://www.ministop.co.kr/
258,<b>미니스톱</b>대림두암점,서울특별시 영등포구 대림동 727-5,서울특별시 영등포구 대림로29길 24,302653,544227,"생활,편의>편의점",,,http://www.ministop.co.kr/
259,<b>미니스톱</b> 대림선전점,서울특별시 영등포구 대림동 1025-49,서울특별시 영등포구 디지털로48길 21-14 1층,303068,543517,"생활,편의>편의점",,1577-9621,http://www.ministop.co.kr/
260,<b>미니스톱</b> 이수태평점,서울특별시 동작구 사당동 147-78,서울특별시 동작구 사당로 301-1,310078,543070,"생활,편의>편의점",,02-532-1819,http://www.ministop.co.kr/
261,<b>미니스톱</b> 사당점,서울특별시 동작구 사당동 1030-10,서울특별시 동작구 동작대로7길 12,310063,542477,"생활,편의>편의점",,02-582-8316,http://www.ministop.co.kr/
262,<b>미니스톱</b> 노량진점,서울특별시 동작구 노량진동 143-2,서울특별시 동작구 노량진로 196,307152,546178,"생활,편의>편의점",,,http://www.ministop.co.kr/
263,<b>미니스톱</b> 대방점,서울특별시 동작구 대방동 393-65,서울특별시 동작구 상도로 69 상원빌딩,305434,544739,"생활,편의>편의점",,02-823-8148,http://www.ministop.co.kr/
264,<b>미니스톱</b> 동작대방점,서울특별시 동작구 대방동 508,서울특별시 동작구 알마타길 37 대방1차e-편한세상,305467,546038,"생활,편의>편의점",,1577-9621,
265,<b>미니스톱</b> 보라매쉐르빌점,서울특별시 동작구 신대방동 395-66 101호,서울특별시 동작구 보라매로5길 43 보라매삼성쉐르빌,304994,543831,"생활,편의>편의점",,02-836-6068,
266,<b>미니스톱</b> 중앙대후문점,서울특별시 동작구 상도1동 497,서울특별시 동작구 흑석로 13 서우,307552,545277,"생활,편의>편의점",,1577-9621,http://www.ministop.co.kr/
267,<b>미니스톱</b> 노량진학원점,서울특별시 동작구 노량진동 148-55,서울특별시 동작구 만양로18길 21 대영독서실,306981,546184,"생활,편의>편의점",,02-6403-1714,http://www.ministop.co.kr/
268,<b>미니스톱</b> 사당오거리점,서울특별시 동작구 사당동 316-26,서울특별시 동작구 사당로20길 42,309594,542630,"생활,편의>편의점",,1577-9621,http://www.ministop.co.kr/
269,<b>미니스톱</b> 남성사당로점,서울특별시 동작구 사당동 220-85,서울특별시 동작구 사당로 193 사당혼수백화점,309109,543082,"생활,편의>편의점",,,http://www.ministop.co.kr/
270,<b>미니스톱</b> 신대방삼거리역점,서울특별시 동작구 대방동 404-1,서울특별시 동작구 상도로 56,305285,544710,"생활,편의>편의점",,1577-9621,http://www.ministop.co.kr/
271,<b>미니스톱</b> 장승배기역점,서울특별시 동작구 상도동 900,서울특별시 동작구 장승배기로11가길 11,306309,545421,"생활,편의>편의점",,02-823-8738,http://www.ministop.co.kr/
272,<b>미니스톱</b> 보라매역점,서울특별시 동작구 대방동 400-3,서울특별시 동작구 여의대방로 140 경원빌딩,304755,544692,"생활,편의>편의점",,1577-9621,http://www.ministop.co.kr/
273,<b>미니스톱</b> 동작휴엔하임점,서울특별시 동작구 상도동 363-164,서울특별시 동작구 상도로15길 131,306291,545279,"생활,편의>편의점",,1577-9621,
274,<b>미니스톱</b>장승배기역점,서울특별시 동작구 상도동 180-2,서울특별시 동작구 장승배기로 71,306406,545180,"생활,편의>편의점",,,http://www.ministop.co.kr/
275,<b>미니스톱</b> 관악정옥점,서울특별시 관악구 봉천동 877-1,서울특별시 관악구 관악로15길 39,307361,542546,"생활,편의>편의점",,1577-9621,http://www.ministop.co.kr/
276,<b>미니스톱</b> 낙성대본점,서울특별시 관악구 봉천동 1642-16,서울특별시 관악구 인헌길 35,308823,541811,"생활,편의>편의점",,1577-9621,http://www.ministop.co.kr/
277,<b>미니스톱</b> 보라매점,서울특별시 관악구 신림동 1444-1,서울특별시 관악구 봉천로 214,305152,543606,"생활,편의>편의점",,,http://www.ministop.co.kr/
278,<b>미니스톱</b> 신림푸리마점,서울특별시 관악구 신림동 1639-52,서울특별시 관악구 관천로 38 가야성여관,305338,542903,"생활,편의>편의점",,1577-9621,http://www.ministop.co.kr/
279,<b>미니스톱</b> 신림본점,서울특별시 관악구 신림동 1641-99,서울특별시 관악구 신림로 270,305751,542410,"생활,편의>편의점",,,http://www.ministop.co.kr/
280,<b>미니스톱</b> 서울대입구점,서울특별시 관악구 봉천동 856-1,서울특별시 관악구 관악로 168 대우디오슈페리움2단지,307585,542543,"생활,편의>편의점",,1577-9621,
281,<b>미니스톱</b> 신림양지점,서울특별시 관악구 신림동 1424-4 1층,서울특별시 관악구 신림로68길 10,305564,543243,"생활,편의>편의점",,1577-9621,http://www.ministop.co.kr/
282,<b>미니스톱</b> 봉천남부점,서울특별시 관악구 봉천동 930-39,서울특별시 관악구 남부순환로 1716,306503,542804,"생활,편의>편의점",,1577-9621,http://www.ministop.co.kr/
283,<b>미니스톱</b> 신림희망점,서울특별시 관악구 신림동 252-1,서울특별시 관악구 대학길 65,306234,541155,"생활,편의>편의점",,1577-9621,http://www.ministop.co.kr/
284,<b>미니스톱</b> 신림주공점,서울특별시 관악구 신림동 1704-2,서울특별시 관악구 광신길 210 신림1단지주공아파트,305470,541027,"생활,편의>편의점",,1577-9621,http://www.ministop.co.kr/
285,<b>미니스톱</b> 신대방역점,서울특별시 관악구 신림동 514-20,서울특별시 관악구 난곡로 348,304164,543103,"생활,편의>편의점",,1577-9621,http://www.ministop.co.kr/
286,<b>미니스톱</b> 봉천역점,서울특별시 관악구 봉천동 931-8,서울특별시 관악구 남부순환로 1715,306528,542849,"생활,편의>편의점",,,http://www.ministop.co.kr/
287,<b>미니스톱</b> 신림고시촌점,서울특별시 관악구 신림동 1515-3,서울특별시 관악구 호암로26길 53,306135,541461,"생활,편의>편의점",,,http://www.ministop.co.kr/
288,<b>미니스톱</b> 신림신사점,서울특별시 관악구 신림동 500-1,서울특별시 관악구 난곡로78길 26 삼화빌딩,304239,543308,"생활,편의>편의점",,1577-9621,http://www.ministop.co.kr/
289,<b>미니스톱</b> 신림미림점,서울특별시 관악구 신림동 306-6,서울특별시 관악구 호암로18가길 1,305760,540911,"생활,편의>편의점",,1577-9621,http://www.ministop.co.kr/
290,<b>미니스톱</b> 사당고운점,서울특별시 관악구 남현동 1061-27,서울특별시 관악구 과천대로 951,310096,541982,"생활,편의>편의점",,1577-9621,http://www.ministop.co.kr/
291,<b>미니스톱</b> 방배동광점,서울특별시 서초구 방배동 450-8,서울특별시 서초구 방배천로2안길 17,310319,542228,"생활,편의>편의점",,02-598-1480,http://www.ministop.co.kr/
292,<b>미니스톱</b> 서래나루점,서울특별시 서초구 반포동 115-5,서울특별시 서초구 신반포로11길 40,311203,545725,"생활,편의>편의점",,1577-9621,
293,<b>미니스톱</b> 센트럴시티점,서울특별시 서초구 반포동 19-3,서울특별시 서초구 신반포로 176 센트럴시티빌딩,312132,545190,"생활,편의>편의점",,1577-9621,http://www.ministop.co.kr/
294,<b>미니스톱</b> 방배본점,서울특별시 서초구 방배동 477-8,서울특별시 서초구 효령로 18,310607,542163,"생활,편의>편의점",,02-581-2209,http://www.ministop.co.kr/
295,<b>미니스톱</b> 서초반포점,서울특별시 서초구 반포동 737,서울특별시 서초구 사평대로57길 44,313793,545372,"생활,편의>편의점",,02-541-4927,http://www.ministop.co.kr/
296,<b>미니스톱</b> 서초이오빌,서울특별시 서초구 서초동 1593-7,서울특별시 서초구 효령로53길 45 서초이오빌,312898,543159,"생활,편의>편의점",,02-581-8904,
297,<b>미니스톱</b> 방배무지개점,서울특별시 서초구 방배동 481-1,서울특별시 서초구 효령로2길 26,310658,542029,"생활,편의>편의점",,02-598-9941,http://www.ministop.co.kr/
298,<b>미니스톱</b> 사당역점,서울특별시 서초구 방배동 445-5 도양빌딩,서울특별시 서초구 방배천로 5-3 도양빌딩,310188,542155,"생활,편의>편의점",,02-586-2834,http://www.ministop.co.kr/
299,<b>미니스톱</b> 서초라디안점,서울특별시 서초구 서초동 1600-7 동양라디안,서울특별시 서초구 서초중앙로 49 동양라디안루키,313119,543120,"생활,편의>편의점",,02-521-8506,http://www.ministop.co.kr/
300,<b>미니스톱</b> 서초남부점,서울특별시 서초구 서초동 1454-3,서울특별시 서초구 남부순환로323길 38-17 시온성,313067,542753,"생활,편의>편의점",,02-3473-5357,http://www.ministop.co.kr/
301,<b>미니스톱</b> 잠원점,서울특별시 서초구 잠원동 44-21,서울특별시 서초구 신반포로43길 23-4 대산빌딩,313335,545911,"생활,편의>편의점",,02-517-7352,http://www.ministop.co.kr/
302,<b>미니스톱</b> 이수세양점,서울특별시 서초구 방배동 421-1 101동 107호,서울특별시 서초구 서초대로 12 세양아르비채101동,310309,543021,"생활,편의>편의점",,1577-9621,http://www.ministop.co.kr/
303,<b>미니스톱</b> 양재대로점,서울특별시 서초구 양재동 13-14,서울특별시 서초구 남부순환로350길 40,314995,542767,"생활,편의>편의점",,,
304,<b>미니스톱</b> 교대학사점,서울특별시 서초구 서초동 1656-13,서울특별시 서초구 서초대로52길 38 크란츠빌딩,313061,543793,"생활,편의>편의점",,1577-9621,http://www.ministop.co.kr/
305,<b>미니스톱</b> 반포삼공점,서울특별시 서초구 반포동 58-7,서울특별시 서초구 고무래로 6-3 삼공빌딩,312669,545095,"생활,편의>편의점",,02-595-3624,http://www.ministop.co.kr/
306,<b>미니스톱</b> 삼성타운점,서울특별시 서초구 서초동 1327,서울특별시 서초구 서초대로74길 23 서초타운트라팰리스,314150,544182,"생활,편의>편의점",,02-3472-4399,http://www.ministop.co.kr/
307,<b>미니스톱</b> 서초이즈타워점,서울특별시 서초구 서초동 1337-14 115호,서울특별시 서초구 사임당로 178 이즈타워,314353,543776,"생활,편의>편의점",,02-587-3231,http://www.ministop.co.kr/
308,<b>미니스톱</b> 양재으뜸점,서울특별시 서초구 양재동 8-71,서울특별시 서초구 남부순환로356길 33,315134,542829,"생활,편의>편의점",,,http://www.ministop.co.kr/
309,<b>미니스톱</b> 양재제일점,서울특별시 서초구 양재동 332-13,서울특별시 서초구 동산로2길 11 월산빌딩,315452,541237,"생활,편의>편의점",,1577-9621,http://www.ministop.co.kr/
310,<b>미니스톱</b> 서초평화점,서울특별시 서초구 서초동 1458-9,서울특별시 서초구 반포대로10길 21,312912,542885,"생활,편의>편의점",,1577-9621,
311,<b>미니스톱</b> 양재그린점,서울특별시 서초구 양재동 242-8,서울특별시 서초구 강남대로18길 11 영주빌딩,315229,541541,"생활,편의>편의점",,1577-9621,http://www.ministop.co.kr/
312,<b>미니스톱</b> 방배현대점,서울특별시 서초구 방배동 982-2,서울특별시 서초구 방배로 57,311624,542439,"생활,편의>편의점",,02-587-2683,http://www.ministop.co.kr/
313,<b>미니스톱</b> 방배중앙점,서울특별시 서초구 방배동 985-20,서울특별시 서초구 효령로34길 23-3,311734,542537,"생활,편의>편의점",,02-587-9989,
314,<b>미니스톱</b> 방배센터점,서울특별시 서초구 방배동 1019-1,서울특별시 서초구 방배로4길 10-3 우신빌딩,311825,542249,"생활,편의>편의점",,02-588-2354,http://www.ministop.co.kr/
315,<b>미니스톱</b> 서초가야점,서울특별시 서초구 서초동 1569-3,서울특별시 서초구 반포대로22길 73,312856,543646,"생활,편의>편의점",,1577-9621,
316,<b>미니스톱</b> 동작대로점,서울특별시 서초구 방배동 1031-36,서울특별시 서초구 동작대로 37,310177,542442,"생활,편의>편의점",,1577-9621,http://www.ministop.co.kr/
317,<b>미니스톱</b> 방배홈타운점,서울특별시 서초구 방배동 2133,서울특별시 서초구 동광로 9,310356,543693,"생활,편의>편의점",,02-594-3842,http://www.ministop.co.kr/
318,<b>미니스톱</b> 양재점,서울특별시 서초구 양재동 274-1,서울특별시 서초구 마방로10길 22 정석빌딩,315633,542018,"생활,편의>편의점",,1577-9621,http://www.ministop.co.kr/
319,<b>미니스톱</b> 양재에이스점,서울특별시 서초구 양재동 11-44 1층,서울특별시 서초구 남부순환로354길 14 1층,315029,542897,"생활,편의>편의점",,1577-9621,
320,<b>미니스톱</b> 뉴서초방배점,서울특별시 서초구 방배동 467-42,,310447,542357,"생활,편의>편의점",,1577-9621,http://www.ministop.co.kr/
321,<b>미니스톱</b>한강잠원2호점,서울특별시 강남구 압구정동 386,,313353,547622,"생활,편의>편의점",,,http://www.ministop.co.kr/
322,<b>미니스톱</b> 강남시티3점,서울특별시 강남구 역삼동 822,서울특별시 강남구 테헤란로 103 명선상가빌딩,314280,544496,"생활,편의>편의점",,02-552-6231,http://www.ministop.co.kr/
323,<b>미니스톱</b> 강남센터점,서울특별시 강남구 역삼동 816-4,서울특별시 강남구 강남대로96길 5,314213,544638,"생활,편의>편의점",,1577-9621,http://www.ministop.co.kr/
324,<b>미니스톱</b> 역삼디오빌점,서울특별시 강남구 역삼동 720-25,서울특별시 강남구 언주로 427 디오빌역삼,315548,544791,"생활,편의>편의점",,02-556-4499,http://www.ministop.co.kr/
325,<b>미니스톱</b> 논현한바위점,서울특별시 강남구 논현동 183-11,서울특별시 강남구 강남대로118길 30,314064,545420,"생활,편의>편의점",,02-516-5424,http://www.ministop.co.kr/
326,<b>미니스톱</b> 신사만남점,서울특별시 강남구 신사동 514-21,서울특별시 강남구 강남대로152길 26 세현빌딩,313708,546613,"생활,편의>편의점",,02-3445-5018,http://www.ministop.co.kr/
327,<b>미니스톱</b> 논현보람점,서울특별시 강남구 논현동 86-4,서울특별시 강남구 논현로132길 15,314618,546339,"생활,편의>편의점",,02-511-1431,http://www.ministop.co.kr/
328,<b>미니스톱</b> 대청역점,서울특별시 강남구 개포동 13-3,서울특별시 강남구 개포로 623 대청타워,318817,543934,"생활,편의>편의점",,1577-9621,
329,<b>미니스톱</b> 삼성베스트점,서울특별시 강남구 삼성동 152,서울특별시 강남구 삼성로104길 12 윤빈빌딩,316714,545837,"생활,편의>편의점",,1577-9621,http://www.ministop.co.kr/
330,<b>미니스톱</b> 강남신사점,서울특별시 강남구 신사동 511 1층,서울특별시 강남구 도산대로1길 20 1층,313562,546664,"생활,편의>편의점",,1577-9621,
331,<b>미니스톱</b> 청담유시어터점,서울특별시 강남구 청담동 21-17,서울특별시 강남구 도산대로58길 17,315472,547098,"생활,편의>편의점",,1577-9621,http://www.ministop.co.kr/
332,<b>미니스톱</b> 삼성역점,서울특별시 강남구 대치동 946,서울특별시 강남구 테헤란로 532,317291,545532,"생활,편의>편의점",,02-3453-3369,http://www.ministop.co.kr/
333,<b>미니스톱</b> 일원석탑점,서울특별시 강남구 개포동 12-4 석탑프라자,서울특별시 강남구 개포로 615 석탑프라자,318442,543781,"생활,편의>편의점",,,http://www.ministop.co.kr/
334,<b>미니스톱</b> 테헤란로점,서울특별시 강남구 대치동 891-9,서울특별시 강남구 테헤란로 428 테헤란로 대우 아이빌,316581,545273,"생활,편의>편의점",,1577-9621,http://www.ministop.co.kr/
335,<b>미니스톱</b> 논현행운점,서울특별시 강남구 논현동 242-28,서울특별시 강남구 선릉로129길 5,315433,546451,"생활,편의>편의점",,1577-9621,
336,<b>미니스톱</b> 압구정로데오점,서울특별시 강남구 신사동 657-28,서울특별시 강남구 도산대로51길 44,315199,547532,"생활,편의>편의점",,,http://www.ministop.co.kr/
337,<b>미니스톱</b> 압구정5점,서울특별시 강남구 신사동 653-18,서울특별시 강남구 도산대로49길 18,315108,547311,"생활,편의>편의점",,02-3442-5310,http://www.ministop.co.kr/
338,<b>미니스톱</b> 대치멤버스점,서울특별시 강남구 대치동 891-26 대우아이빌,서울특별시 강남구 삼성로85길 42 대치동대우아이빌멤버스,316531,545136,"생활,편의>편의점",,02-565-1278,http://www.ministop.co.kr/
339,<b>미니스톱</b> 도곡비전점,서울특별시 강남구 도곡동 467-19,서울특별시 강남구 언주로30길 10 현대비젼21,316345,543223,"생활,편의>편의점",,1577-9621,http://www.ministop.co.kr/
340,<b>미니스톱</b> 골드로즈점,서울특별시 강남구 대치동 890-59,서울특별시 강남구 선릉로86길 31 롯데골드로즈2,316381,545099,"생활,편의>편의점",,02-565-5027,
341,<b>미니스톱</b> 삼성현대점,서울특별시 강남구 삼성동 160-22,서울특별시 강남구 영동대로106길 9 영풍빌딩,317260,546116,"생활,편의>편의점",,02-555-2108,http://www.ministop.co.kr/
342,<b>미니스톱</b> 포이영광점,서울특별시 강남구 개포동 1192-4,서울특별시 강남구 논현로8길 7,316141,541732,"생활,편의>편의점",,02-529-4778,http://www.ministop.co.kr/
343,<b>미니스톱</b> 압구정가은점,서울특별시 강남구 신사동 655-15,서울특별시 강남구 선릉로153길 18,315163,547405,"생활,편의>편의점",,02-541-9745,http://www.ministop.co.kr/
344,<b>미니스톱</b> 역삼타워점,서울특별시 강남구 역삼동 826-27,서울특별시 강남구 강남대로84길 16 제이스타워,314439,544293,"생활,편의>편의점",,1577-9621,
345,<b>미니스톱</b> 청담대로점,서울특별시 강남구 청담동 124-4,서울특별시 강남구 도산대로 511,316163,547377,"생활,편의>편의점",,02-514-7776,http://www.ministop.co.kr/
346,<b>미니스톱</b> 자곡신영점,서울특별시 강남구 자곡동 662,서울특별시 강남구 자곡로 204-5 강남 지웰홈스,321050,541747,"생활,편의>편의점",,1577-9621,http://www.ministop.co.kr/
347,<b>미니스톱</b> 도곡공원점,서울특별시 강남구 도곡동 942-11,서울특별시 강남구 도곡로4길 5,314715,543491,"생활,편의>편의점",,,
348,<b>미니스톱</b> 도곡센트레빌점,서울특별시 강남구 대치동 670,서울특별시 강남구 선릉로 206 동부센트레빌 상가 114호,316682,543669,"생활,편의>편의점",,02-558-1303,http://www.ministop.co.kr/
349,<b>미니스톱</b> 신사제일점,서울특별시 강남구 신사동 590-22,서울특별시 강남구 논현로 808 선호빌딩,314321,546969,"생활,편의>편의점",,02-3445-1580,http://www.ministop.co.kr/
350,<b>미니스톱</b> 역삼만남점,서울특별시 강남구 역삼동 827-70,서울특별시 강남구 테헤란로6길 47,314586,544155,"생활,편의>편의점",,02-569-5796,http://www.ministop.co.kr/
351,<b>미니스톱</b>대치시내점,서울특별시 강남구 대치동 940-6 101호,서울특별시 강남구 도곡로77길 7,316943,544500,"생활,편의>편의점",,,http://www.ministop.co.kr/
352,<b>미니스톱</b> 논현힐탑점,서울특별시 강남구 논현동 175-1,서울특별시 강남구 논현로 639,314626,545832,"생활,편의>편의점",,02-3445-8825,http://www.ministop.co.kr/
353,<b>미니스톱</b>수서벤처점,서울특별시 강남구 수서동 713 현대벤처 10호,서울특별시 강남구 밤고개로1길 10 수서현대벤쳐빌,320782,543228,"생활,편의>편의점",,,http://www.ministop.co.kr/
354,<b>미니스톱</b> 청담누리점,서울특별시 강남구 청담동 87-10,서울특별시 강남구 도산대로57길 7,315443,547323,"생활,편의>편의점",,1577-9621,http://www.ministop.co.kr/
355,<b>미니스톱</b> 역삼태극점,서울특별시 강남구 역삼동 831-3 한국빌딩 1층,서울특별시 강남구 강남대로78길 8,314438,544076,"생활,편의>편의점",,02-556-0541,http://www.ministop.co.kr/
356,<b>미니스톱</b> 한강잠원2점,서울특별시 강남구 압구정동 380-2,서울특별시 강남구 압구정로11길 37-30,313357,547621,"생활,편의>편의점",,1577-9621,http://www.ministop.co.kr/
357,<b>미니스톱</b>역삼충현점,서울특별시 강남구 역삼동 659-20,서울특별시 강남구 봉은사로30길 28,314921,545277,"생활,편의>편의점",,,http://www.ministop.co.kr/
358,<b>미니스톱</b> 논현삼릉역점,서울특별시 강남구 논현동 278-20,서울특별시 강남구 봉은사로 327 궁도빌딩,315569,545768,"생활,편의>편의점",,02-3218-3030,http://www.ministop.co.kr/
359,<b>미니스톱</b> 프린세스점,서울특별시 강남구 신사동 642,서울특별시 강남구 압구정로46길 23,315032,547667,"생활,편의>편의점",,1577-9621,http://www.ministop.co.kr/
360,<b>미니스톱</b> 신사증권점,서울특별시 강남구 신사동 610-4,서울특별시 강남구 압구정로30길 18,314382,547571,"생활,편의>편의점",,1577-9621,
361,<b>미니스톱</b> 메트로칸점,서울특별시 강남구 대치동 943-24,서울특별시 강남구 테헤란로88길 10 신안메트로칸,317051,545398,"생활,편의>편의점",,1577-9621,http://www.ministop.co.kr/
362,<b>미니스톱</b> 일원본점,서울특별시 강남구 일원동 644-2,서울특별시 강남구 양재대로55길 13 조이빌딩,319516,543686,"생활,편의>편의점",,02-3411-0315,http://www.ministop.co.kr/
363,<b>미니스톱</b> 압구정스퀘어점,서울특별시 강남구 신사동 620,서울특별시 강남구 압구정로34길 11 압구정스퀘어,314540,547668,"생활,편의>편의점",,1577-9621,
364,<b>미니스톱</b> 역삼태광점,서울특별시 강남구 역삼동 719-9,서울특별시 강남구 테헤란로34길 7,315341,544758,"생활,편의>편의점",,02-539-8773,http://www.ministop.co.kr/
365,<b>미니스톱</b> 도곡역점,서울특별시 강남구 대치동 653,서울특별시 강남구 남부순환로 2911 청우빌딩,316890,543774,"생활,편의>편의점",,02-564-4951,http://www.ministop.co.kr/
366,<b>미니스톱</b> 역삼성지점,서울특별시 강남구 역삼동 702-13,서울특별시 강남구 테헤란로 313,315786,545060,"생활,편의>편의점",,,http://www.ministop.co.kr/
367,<b>미니스톱</b>강남메트로점,서울특별시 강남구 역삼동 822,서울특별시 강남구 테헤란로 103 명선상가빌딩,314273,544512,"생활,편의>편의점",,,http://www.ministop.co.kr/
368,<b>미니스톱</b>삼성플러스원점,서울특별시 강남구 삼성동 36-25,서울특별시 강남구 봉은사로57길 13,315774,545919,"생활,편의>편의점",,,http://www.ministop.co.kr/
369,<b>미니스톱</b> 도곡드림점,서울특별시 강남구 도곡동 416-5,서울특별시 강남구 논현로38길 32,315678,543018,"생활,편의>편의점",,1577-9621,http://www.ministop.co.kr/
370,<b>미니스톱</b> 통영동호점,서울특별시 강남구 일원동 644-2,서울특별시 강남구 양재대로55길 13 조이빌딩 1층,319516,543679,"생활,편의>편의점",,,http://www.ministop.co.kr/
371,<b>미니스톱</b> 잠실본점,서울특별시 송파구 잠실동 294-25,서울특별시 송파구 백제고분로12길 4,318946,545257,"생활,편의>편의점",,02-415-0500,http://www.ministop.co.kr/
372,<b>미니스톱</b> 송파문정역점,서울특별시 송파구 문정동 643-1,서울특별시 송파구 법원로 114 E동-B178호,322465,543027,"생활,편의>편의점",,1577-9621,http://www.ministop.co.kr/
373,<b>미니스톱</b> 가락시장역점,서울특별시 송파구 가락동 99-7,서울특별시 송파구 중대로 105,322400,543856,"생활,편의>편의점",,,http://www.ministop.co.kr/
374,<b>미니스톱</b> 송파거여점,서울특별시 송파구 거여동 356 1층 101호,서울특별시 송파구 오금로56길 18 1층 101호,324354,543779,"생활,편의>편의점",,1577-9621,
375,<b>미니스톱</b> 뉴스타점,서울특별시 송파구 석촌동 4-9,서울특별시 송파구 백제고분로33길 31 광명빌딩,320503,545200,"생활,편의>편의점",,02-418-0731,http://www.ministop.co.kr/
376,<b>미니스톱</b> 방이국제점,서울특별시 송파구 방이동 65-6 1층 102호,서울특별시 송파구 오금로 95 국제빌딩,321313,546110,"생활,편의>편의점",,1577-9621,http://www.ministop.co.kr/
377,<b>미니스톱</b>삼전점,서울특별시 송파구 삼전동 46,서울특별시 송파구 백제고분로22길 9,319670,544932,"생활,편의>편의점",,,http://www.ministop.co.kr/
378,<b>미니스톱</b> 방이2점,서울특별시 송파구 방이동 103-16,서울특별시 송파구 오금로17길 19,321643,545993,"생활,편의>편의점",,1577-9621,http://www.ministop.co.kr/
379,<b>미니스톱</b> 풍납점,서울특별시 송파구 풍납동 399-1,서울특별시 송파구 올림픽로47길 19 오성빌딩,322135,547726,"생활,편의>편의점",,,http://www.ministop.co.kr/
380,<b>미니스톱</b> 송파회관점,서울특별시 송파구 송파동 85,서울특별시 송파구 백제고분로42길 4 참요빌딩,321451,545236,"생활,편의>편의점",,1577-9621,
381,<b>미니스톱</b> 송파삼성점,서울특별시 송파구 송파동 148-3,서울특별시 송파구 가락로28길 15,322190,545222,"생활,편의>편의점",,02-2202-0180,http://www.ministop.co.kr/
382,<b>미니스톱</b> 송파마천점,서울특별시 송파구 마천동 183-46,서울특별시 송파구 마천로51길 8,325122,544079,"생활,편의>편의점",,1577-9621,http://www.ministop.co.kr/
383,<b>미니스톱</b> 풍납대동점,서울특별시 송파구 풍납동 222-1,서울특별시 송파구 풍성로 41,322164,548393,"생활,편의>편의점",,1577-9621,http://www.ministop.co.kr/
384,<b>미니스톱</b> 문정본점,서울특별시 송파구 문정동 150-26,서울특별시 송파구 중대로 68,322073,543651,"생활,편의>편의점",,02-448-1450,http://www.ministop.co.kr/
385,<b>미니스톱</b> 마천공원점,서울특별시 송파구 마천동 7,서울특별시 송파구 성내천로23길 2,324777,544692,"생활,편의>편의점",,1577-9621,http://www.ministop.co.kr/
386,<b>미니스톱</b> 방이올림픽점,서울특별시 송파구 방이동 49-5 102호,서울특별시 송파구 오금로11길 59 올림픽파크존오피스텔,321838,546278,"생활,편의>편의점",,02-417-4518,http://www.ministop.co.kr/
387,<b>미니스톱</b> 올림픽파크점,서울특별시 송파구 방이동 88,서울특별시 송파구 올림픽로 424 평화의광장 C-1동,322672,546893,"생활,편의>편의점",,1577-9621,http://www.ministop.co.kr/
388,<b>미니스톱</b> 가락대림점,서울특별시 송파구 가락동 70-9 1층 101호,서울특별시 송파구 송이로14길 9 1층 101호,322261,544457,"생활,편의>편의점",,1577-9621,
389,<b>미니스톱</b> 마천타운점,서울특별시 송파구 마천동 314-2,서울특별시 송파구 마천로61길 25,325478,543909,"생활,편의>편의점",,1577-9621,http://www.ministop.co.kr/
390,<b>미니스톱</b> 가락진영점,서울특별시 송파구 가락동 181-15 1층,서울특별시 송파구 오금로46길 27 1층,323679,544012,"생활,편의>편의점",,02-403-9907,http://www.ministop.co.kr/
391,<b>미니스톱</b> 송파신승점,서울특별시 송파구 오금동 115,서울특별시 송파구 마천로25길 6-14,324216,544894,"생활,편의>편의점",,1577-9621,http://www.ministop.co.kr/
392,<b>미니스톱</b> 방이본점,서울특별시 송파구 방이동 112,서울특별시 송파구 백제고분로48길 10,321896,545845,"생활,편의>편의점",,,http://www.ministop.co.kr/
393,<b>미니스톱</b> 한강광나루1점,서울특별시 강동구 천호동 483-1,,322486,549705,"생활,편의>편의점",,1577-9621,http://www.ministop.co.kr/
394,<b>미니스톱</b> 천호현대점,서울특별시 강동구 천호동 416-3,서울특별시 강동구 올림픽로70길 39,322950,548934,"생활,편의>편의점",,02-471-0213,http://www.ministop.co.kr/
395,<b>미니스톱</b> 강동명일점,서울특별시 강동구 명일동 338-18,서울특별시 강동구 양재대로134길 43 1층,324743,549854,"생활,편의>편의점",,1577-9621,http://www.ministop.co.kr/
396,<b>미니스톱</b> 강동둔촌점,서울특별시 강동구 둔촌동 490-12,서울특별시 강동구 풍성로63길 47,324130,547932,"생활,편의>편의점",,1577-9621,http://www.ministop.co.kr/
397,<b>미니스톱</b> 천호중앙점,서울특별시 강동구 천호동 311-34,서울특별시 강동구 천중로15나길 7,323213,549750,"생활,편의>편의점",,1577-9621,http://www.ministop.co.kr/
398,<b>미니스톱</b> 천호승리점,서울특별시 강동구 천호동 294-21,서울특별시 강동구 구천면로 293,323646,549671,"생활,편의>편의점",,1577-9621,http://www.ministop.co.kr/
399,<b>미니스톱</b> 명일스타점,서울특별시 강동구 명일동 312-140,서울특별시 강동구 고덕로38길 64,324427,550290,"생활,편의>편의점",,1577-9621,http://www.ministop.co.kr/
400,<b>미니스톱</b> 암사상암로점,"서울특별시 강동구 암사동 511-24 1층 1,2,3호","서울특별시 강동구 상암로4길 10 1층 1,2,3호",322996,550121,"생활,편의>편의점",,1577-9621,
401,<b>미니스톱</b> 강동구청점,서울특별시 강동구 성내동 537-17,서울특별시 강동구 성내로5길 19,322732,547982,"생활,편의>편의점",,1577-9621,http://www.ministop.co.kr/
402,<b>미니스톱</b> 암사그랜드점,서울특별시 강동구 암사동 493-14,서울특별시 강동구 올림픽로98가길 47 중앙하이츠아파트,323468,550210,"생활,편의>편의점",,1577-9621,
403,<b>미니스톱</b> 둔촌수진점,서울특별시 강동구 둔촌동 451-5,서울특별시 강동구 진황도로 167-7 정원빌딩,324432,548031,"생활,편의>편의점",,1577-9621,http://www.ministop.co.kr/
404,<b>미니스톱</b> 길동승리점,서울특별시 강동구 길동 381-2,서울특별시 강동구 천중로40길 46 한솔빌라트,324029,548911,"생활,편의>편의점",,1577-9621,http://www.ministop.co.kr/
405,<b>미니스톱</b> 암사보은점,서울특별시 강동구 암사동 439-2,서울특별시 강동구 고덕로28길 10-7,323997,550538,"생활,편의>편의점",,1577-9621,http://www.ministop.co.kr/
406,<b>미니스톱</b> 성내승리점,서울특별시 강동구 성내동 397-15,서울특별시 강동구 풍성로57길 28,323872,547911,"생활,편의>편의점",,1577-9621,http://www.ministop.co.kr/
407,<b>미니스톱</b> 길동현대점,서울특별시 강동구 길동 470,서울특별시 강동구 명일로 200-34,324881,548657,"생활,편의>편의점",,,http://www.ministop.co.kr/
408,<b>미니스톱</b> 길동드림힐점,서울특별시 강동구 길동 385-4,서울특별시 강동구 양재대로111길 54 이스트드림힐 1층 101호,323894,548764,"생활,편의>편의점",,,http://www.ministop.co.kr/
409,<b>미니스톱</b> 강동영광점,서울특별시 강동구 암사동 489-56,서울특별시 강동구 상암로21길 12,323620,549910,"생활,편의>편의점",,1577-9621,http://www.ministop.co.kr/
