,title,address,roadAddress,mapx,mapy,category,description,telephone,link
0,<b>CGV</b> 피카디리1958,서울특별시 종로구 돈의동 137,서울특별시 종로구 돈화문로5가길 1 피카디리플러스,311093,552572,"문화,예술>영화관",,1544-1122,http://cgv.co.kr/theaters/?areacode=01&theaterCode=0223
1,<b>CGV</b> 대학로,서울특별시 종로구 명륜2가 41-9,서울특별시 종로구 대명길 28 대학로CGV,311863,553943,"문화,예술>영화관",,1544-1122,http://www.cgv.co.kr/theaters/?areacode=01&theaterCode=0063&date=20140707
2,<b>CGV</b> 명동,서울특별시 중구 명동2가 83-5,서울특별시 중구 명동길 14 Noon Square,310366,551736,"문화,예술>영화관",,1544-1122,http://www.cgv.co.kr/theaters/?areacode=01&theaterCode=0009&date=20140707
3,<b>CGV</b> 명동역,"서울특별시 중구 충무로2가 65-9 하이해리엇 10, 11층",서울특별시 중구 퇴계로 123 하이해리엇,310558,551504,"문화,예술>영화관",,1544-1122,http://www.cgv.co.kr/theaters/?areacode=01&theaterCode=0105&date=20140707
4,<b>CGV</b> 동대문,서울특별시 중구 을지로6가 17-2,서울특별시 중구 장충단로13길 20,312549,552337,"문화,예술>영화관",,1544-1122,
5,<b>CGV</b> 용산아이파크몰,서울특별시 용산구 한강로3가 40-999,서울특별시 용산구 한강대로23길 55 현대아이파크몰 6층,308735,548074,"문화,예술>영화관",,1544-1122,
6,<b>CGV</b> 왕십리,서울특별시 성동구 행당동 168-151,서울특별시 성동구 왕십리광장로 17,315220,551547,"문화,예술>영화관",,1544-1122,http://www.cgv.co.kr/theaters/?areacode=01&theaterCode=0074&date=20140707
7,<b>CGV</b> 강변,서울특별시 광진구 구의동 546-4 테크노마트 10층,서울특별시 광진구 광나루로56길 85 테크노-마트21,320281,548509,"문화,예술>영화관",,1544-1122,http://www.cgv.co.kr/theaters/?areacode=01&theaterCode=0001&date=20140707
8,<b>CGV</b> 건대입구,서울특별시 광진구 자양동 9-4,서울특별시 광진구 아차산로30길 26,317739,549035,"문화,예술>영화관",,1544-1122,http://www.cgv.co.kr/
9,<b>CGV</b> 상봉,서울특별시 중랑구 상봉동 501,서울특별시 중랑구 상봉로 131 상봉 듀오트리스 주상복합,320044,555374,"문화,예술>영화관",,1544-1122,http://www.cgv.co.kr/
10,<b>CGV</b> 성신여대입구,서울특별시 성북구 동선동1가 1-2 10층~12층,서울특별시 성북구 동소문로 106 유타,313408,554937,"문화,예술>영화관",,1544-1122,http://www.cgv.co.kr/theaters/?areacode=01&theaterCode=0083&date=20140707
11,<b>CGV</b> 미아,서울특별시 강북구 미아동 35-4,서울특별시 강북구 도봉로 34 트레지오빌딩,314622,557095,"문화,예술>영화관",,1544-1122,http://www.cgv.co.kr/theaters/?areacode=01&theaterCode=0057&date=20140707
12,<b>CGV</b> 수유,서울특별시 강북구 수유동 168-12,서울특별시 강북구 도봉로 399,314576,560456,"문화,예술>영화관",,1544-1122,
13,<b>CGV</b>방학점 (2020년예정),서울특별시 도봉구 방학동  707-14,서울특별시 도봉구 도봉로 684 국민건강보험도봉지사,315810,562998,"문화,예술>영화관",,,
14,<b>CGV</b> 하계,서울특별시 노원구 중계동 506-1 중계동 건영백화점 B1층,서울특별시 노원구 섬밭로 258 건영백화점,317656,559994,"문화,예술>영화관",,1544-1122,http://www.cgv.co.kr/
15,<b>CGV</b> 중계,서울특별시 노원구 중계동 509-2 홈플러스중계점 9F,서울특별시 노원구 동일로204가길 12 홈플러스중계점 9F,318008,560119,"문화,예술>영화관",,1544-1122,http://www.cgv.co.kr/
16,<b>CGV</b> 불광,서울특별시 은평구 대조동 240 팜스퀘어 11층,서울특별시 은평구 불광로 20 팜스퀘어 11층,305644,556926,"문화,예술>영화관",,1544-1122,http://www.cgv.co.kr/theaters/?areacode=01&theaterCode=0030&date=20140707
17,<b>CGV</b> 신촌아트레온,서울특별시 서대문구 창천동 20-25,서울특별시 서대문구 신촌로 129 아트레온,306570,551018,"문화,예술>영화관",,1544-1122,http://www.cgv.co.kr/theaters/?areacode=01&theaterCode=0150&date=20140707
18,<b>CGV</b> 홍대,서울특별시 마포구 동교동 159-12,서울특별시 마포구 양화로 153 토로스 쇼핑타워,305007,551018,"문화,예술>영화관",,1544-1122,
19,<b>CGV</b> 목동,서울특별시 양천구 목동 916,서울특별시 양천구 목동동로 257 현대하이페리온,300808,547796,"문화,예술>영화관",,1544-1122,http://www.cgv.co.kr/theaters/?areacode=01&theaterCode=0011&date=20140707
20,<b>CGV</b> 등촌점,서울특별시 강서구 등촌동 639-23,서울특별시 강서구 공항대로45길 61,299125,551264,"문화,예술>영화관",,,
21,<b>CGV</b> 구로,서울특별시 구로구 구로동 573,서울특별시 구로구 구로중앙로 152 애경백화점,301368,544951,"문화,예술>영화관",,1544-1122,http://www.cgv.co.kr/theaters/?areacode=01&theaterCode=0010&date=20140707
22,<b>CGV</b> 영등포,서울특별시 영등포구 영등포동4가 442 타임스퀘어 4F,서울특별시 영등포구 영중로 15 타임스퀘어 4F,303195,546643,"문화,예술>영화관",,1544-1122,http://www.cgv.co.kr/theaters/?areacode=01&theaterCode=0059&date=20140707
23,<b>CGV</b> 여의도,서울특별시 영등포구 여의도동 23-1,서울특별시 영등포구 국제금융로 10 지하 3층,305295,547551,"문화,예술>영화관",,1544-1122,http://www.cgv.co.kr/theaters/?areacode=01&theaterCode=0112&date=20140707
24,<b>CGV</b> 청담씨네시티,서울특별시 강남구 신사동 651-21,서울특별시 강남구 도산대로 323 씨네시티빌딩,315080,547186,"문화,예술>영화관",,1544-1122,http://www.cgv.co.kr/theaters/?areacode=01&theaterCode=0107&date=20140707
25,<b>CGV</b> 압구정,서울특별시 강남구 신사동 603-2,서울특별시 강남구 논현로 848,314369,547370,"문화,예술>영화관",,1544-1122,http://www.cgv.co.kr/theaters/?areacode=01&theaterCode=0040&date=20140707
26,<b>CGV</b> 강남,서울특별시 강남구 역삼동 814-6 스타플렉스,서울특별시 강남구 강남대로 438 스타플렉스,314100,544852,"문화,예술>영화관",,1544-1122,http://www.cgv.co.kr/theaters/?areacode=01&theaterCode=0056&date=20140707
27,<b>CGV</b> 송파,서울특별시 송파구 문정동 634,서울특별시 송파구 충민로 66 가든파이브라이프,322892,542037,"문화,예술>영화관",,1544-1122,http://www.cgv.co.kr/theaters/?areacode=01&theaterCode=0088&date=20140707
28,<b>CGV</b> 천호,서울특별시 강동구 천호동 42 홈플러스 4층,서울특별시 강동구 양재대로 1571 천호복합 상업시설 4층,324401,549609,"문화,예술>영화관",,1544-1122,
