,title,address,roadAddress,mapx,mapy,category,description,telephone,link
0,청운<b>공원</b>,서울특별시 종로구 청운동 3-55,,308920,554836,"여행,명소>도시,테마공원",,,
1,무궁화동산,서울특별시 종로구 궁정동 55-3,,309416,554054,"여행,명소>근린공원",,02-2148-4147,
2,<b>공원</b>,서울특별시 종로구 효자동,,309494,553947,"여행,명소>근린공원",,,
3,인왕산<b>공원</b>,서울특별시 종로구 옥인동,,308352,553903,"여행,명소>근린공원",,,
4,해맞이동산,서울특별시 종로구 옥인동,,308765,553928,"여행,명소>근린공원",,,
5,사직<b>공원</b>,서울특별시 종로구 사직동 1-28,서울특별시 종로구 사직로9길 5 사직치안센터,308988,553143,"여행,명소>근린공원",,,
6,사직근린<b>공원</b>,서울특별시 종로구 사직동 산1-10,,308630,553149,"여행,명소>근린공원",,,
7,주시경마당,서울특별시 종로구 당주동 108,,309499,552717,"여행,명소>근린공원",,,
8,당주어린이<b>공원</b>,서울특별시 종로구 당주동,,309378,552689,"레져,체육시설>공원",,,
9,내수1근린<b>공원</b>,서울특별시 종로구 내수동,,309248,552880,"여행,명소>근린공원",,,
10,내수2근린<b>공원</b>,서울특별시 종로구 내수동,,309362,552740,"여행,명소>근린공원",,,
11,<b>세종로공원</b>,서울특별시 종로구 세종로 80-1,서울특별시 종로구 세종대로 189,309735,552859,"여행,명소>도시,테마공원",,02-2148-4153,
12,경희궁<b>공원</b>,서울특별시 종로구 신문로2가 1-126,서울특별시 종로구 새문안로 45,309241,552442,"여행,명소>도시,테마공원",,02-731-0461,
13,새문안어린이<b>공원</b>,서울특별시 종로구 신문로2가,,309325,552342,"레져,체육시설>공원",,,
14,청진<b>공원</b>,서울특별시 종로구 청진동,,310077,552619,"여행,명소>근린공원",,,
15,수송<b>공원</b>,서울특별시 종로구 수송동,,310201,552910,"여행,명소>근린공원",,,
16,보신각<b>공원</b>,서울특별시 종로구 관철동,,310383,552431,"여행,명소>근린공원",,,
17,탑골<b>공원</b>,서울특별시 종로구 종로2가 38-1,서울특별시 종로구 종로 99 탑골공원,310827,552570,"여행,명소>도시,테마공원",,02-731-0534,
18,삼청<b>공원</b>,서울특별시 종로구 삼청동 산2-1,서울특별시 종로구 북촌로 134-3 삼청공원관리실,310496,554636,"여행,명소>근린공원",,,http://english.visitkorea.or.kr/enu/ATR/SI_EN_3_1_1_1.jsp?cid=1030527
19,북악산<b>공원</b>,서울특별시 종로구 삼청동,,309724,555207,"여행,명소>근린공원",,,
20,현대원서<b>공원</b>,서울특별시 종로구 원서동 181,서울특별시 종로구 창덕궁길 19,310864,553365,"여행,명소>도시,테마공원",,02-731-0120,
21,다시세운광장,서울특별시 종로구 장사동,,311435,552458,"여행,명소>도시,테마공원",,,
22,연지1어린이<b>공원</b>,서울특별시 종로구 연지동,,311957,552912,"레져,체육시설>공원",,,
23,흥인지문<b>공원</b>,서울특별시 종로구 종로6가 70,,312651,552713,"여행,명소>근린공원",,,
24,낙산<b>공원</b>,서울특별시 종로구 동숭동 산2-10,서울특별시 종로구 낙산길 41,312543,553603,"여행,명소>근린공원",,02-743-7985,
25,마로니에<b>공원</b>,서울특별시 종로구 동숭동 1-119,서울특별시 종로구 대학로8길 1,312119,553580,"여행,명소>근린공원",,02-2148-4158,
26,명륜어린이<b>공원</b>,서울특별시 종로구 명륜1가,,311709,554466,"레져,체육시설>공원",,,
27,와룡<b>공원</b>,서울특별시 종로구 명륜3가 산2-14,서울특별시 종로구 와룡공원길 192,311017,554764,"여행,명소>도시,테마공원",,,
28,경학어린이<b>공원</b>,서울특별시 종로구 명륜3가,,311567,554082,"레져,체육시설>공원",,,
29,산마루 놀이터,서울특별시 종로구 창신동 23-350,,312963,553057,"여행,명소>근린공원",,,http://pf.kakao.com/_haWTT
30,낙산어린이<b>공원</b>,서울특별시 종로구 창신동,,312794,553519,"레져,체육시설>공원",,,
31,창이어린이<b>공원</b>,서울특별시 종로구 창신동,,312629,553417,"레져,체육시설>공원",,,
32,성줄어린이<b>공원</b>,서울특별시 종로구 창신동,,312655,553100,"레져,체육시설>공원",,,
33,창신어린이<b>공원</b>,서울특별시 종로구 창신동,,313014,553331,"레져,체육시설>공원",,,
34,지봉골<b>공원</b>,서울특별시 종로구 창신동,,313174,553389,"여행,명소>근린공원",,,
35,숭인근린<b>공원</b>,서울특별시 종로구 숭인동 58,서울특별시 종로구 동망산길 150,313443,553146,"여행,명소>근린공원",,02-2148-4152,
36,동묘<b>공원</b>,서울특별시 종로구 숭인동,,313473,552777,"여행,명소>근린공원",,,
37,월암근린<b>공원</b>,서울특별시 종로구 송월동 1-2,,308830,552596,"여행,명소>근린공원",,,
38,북악팔각정,서울특별시 종로구 평창동 산6-17,서울특별시 종로구 북악산로 267 북악팔각정,310190,555970,"여행,명소>도시,테마공원",,02-725-6681,https://blog.naver.com/bukakpalgakjeong
39,북악스카이웨이팔각정<b>공원</b>,서울특별시 종로구 평창동,,310208,555988,"여행,명소>자연공원",,,http://bukak-palgakjeong.tistory.com/
40,참샘골<b>공원</b>,서울특별시 종로구 평창동,,309672,557463,"여행,명소>근린공원",,,
41,감나무골<b>공원</b>,서울특별시 종로구 평창동,,309289,557219,"여행,명소>근린공원",,,
42,후창<b>공원</b>,서울특별시 종로구 평창동,,308779,556940,"여행,명소>근린공원",,,
43,석초<b>공원</b>,서울특별시 종로구 홍지동,,308020,556018,"여행,명소>근린공원",,,
44,무악<b>공원</b>,서울특별시 종로구 무악동,,308320,553191,"여행,명소>근린공원",,,
45,무악어린이<b>공원</b>,서울특별시 종로구 무악동,,308391,553313,"레져,체육시설>공원",,,
46,청계천한빛광장,서울특별시 중구 삼각동,,310544,552255,"여행,명소>근린공원",,,
47,청계천베를린광장,서울특별시 중구 장교동 1,서울특별시 중구 청계천로 86 한화빌딩,310712,552195,"여행,명소>도시,테마공원",,,
48,백범광장<b>공원</b>,서울특별시 중구 회현동1가,,309963,550856,"여행,명소>자연공원",,,
49,남산<b>공원</b>호현당,서울특별시 중구 회현동1가 산1-44,,310116,550814,"여행,명소>도시,테마공원",,02-318-5233,http://parks.seoul.go.kr/template/common/park_info/park_intro.jsp?park_id=namsan&fclass_num=774&mclass_num=1543#use_2
50,명동문화<b>공원</b>,서울특별시 중구 저동1가  91-2,서울특별시 중구 명동길 89,310696,551870,"여행,명소>도시,테마공원",,,
51,묵정<b>공원</b>,서울특별시 중구 충무로5가,,311834,551762,"여행,명소>근린공원",,,
52,남산골<b>공원</b>,서울특별시 중구 필동2가 84-1,서울특별시 중구 퇴계로34길 28,311319,551120,"여행,명소>테마공원",,02-2264-4412,
53,남산<b>공원</b>,서울특별시 중구 예장동 산5-85 남산제1별관,서울특별시 중구 삼일대로 231,311176,550351,"여행,명소>도시,테마공원",,02-3783-5900,http://parks.seoul.go.kr/namsan
54,일본군 위안부 기억의터,서울특별시 중구 예장동 2-1,서울특별시 중구 퇴계로26가길 6,310992,551260,"여행,명소>테마공원",,,
55,남산인권숲,서울특별시 중구 예장동,,310996,551211,"여행,명소>근린공원",,,
56,남산르네상스,서울특별시 중구 예장동 4-1,,310858,551325,"여행,명소>근린공원",,02-2171-2363,http://namsan.seoul.go.kr/
57,장충단<b>공원</b>,서울특별시 중구 장충동2가 196-1,서울특별시 중구 동호로 261,312238,551121,"여행,명소>도시,테마공원",,,
58,신라호텔야외조각<b>공원</b>,서울특별시 중구 장충동2가,,312457,550967,"여행,명소>근린공원",,,
59,쌍림어린이<b>공원</b>,서울특별시 중구 광희동1가,,312310,551802,"레져,체육시설>공원",,,
60,훈련원<b>공원</b>,서울특별시 중구 을지로5가 40-3,서울특별시 중구 을지로 227 훈련원공원,312195,552169,"여행,명소>도시,테마공원",,02-2268-5810,
61,동대문역사문화<b>공원</b>,서울특별시 중구 신당동,,312845,552154,"여행,명소>도시,테마공원",,02-2266-7188,http://korean.visitkorea.or.kr/kor/bz15/where/where_tour.jsp?cid=1906334#con_sect4
62,매봉산<b>공원</b>,서울특별시 중구 신당동 산51,,312505,549629,"여행,명소>도시,테마공원",,,
63,다산어린이<b>공원</b>,서울특별시 중구 신당동,,313518,551775,"레져,체육시설>공원",,,
64,쌈지<b>공원</b>,서울특별시 중구 신당동,,312728,550075,"여행,명소>근린공원",,,
65,동화어린이<b>공원</b>,서울특별시 중구 신당동,,313452,551349,"레져,체육시설>공원",,,
66,다산마을마당,서울특별시 중구 신당동,,312600,550720,"여행,명소>근린공원",,,
67,청구어린이<b>공원</b>,서울특별시 중구 신당동,,313066,550841,"레져,체육시설>공원",,,
68,신당동마을마당,서울특별시 중구 신당동,,313039,551399,"여행,명소>근린공원",,,
69,떡볶이골목마을마당,서울특별시 중구 신당동,,313120,551697,"여행,명소>근린공원",,,
70,충현어린이<b>공원</b>,서울특별시 중구 신당동,,312292,550459,"레져,체육시설>공원",,,
71,늘푸른<b>공원</b>,서울특별시 중구 신당동,,312343,550352,"레져,체육시설>공원",,,
72,새싹마을마당,서울특별시 중구 신당동,,312908,551284,"여행,명소>근린공원",,,
73,신당삼성아파트용봉근린<b>공원</b>,서울특별시 중구 신당동,,313343,551057,"레져,체육시설>공원",,,
74,충현<b>공원</b>,서울특별시 중구 신당동,,312275,550464,"레져,체육시설>공원",,,
75,청구동마을마당,서울특별시 중구 신당동,,313287,550879,"여행,명소>근린공원",,,
76,신당2동충현마을마당,서울특별시 중구 신당동,,312352,550509,"여행,명소>근린공원",,,
77,황학어린이<b>공원</b>,서울특별시 중구 황학동,,313459,552167,"레져,체육시설>공원",,,
78,<b>정동공원</b>,서울특별시 중구 정동 15-1,서울특별시 중구 정동길 21-18 정동공원,309353,552216,"여행,명소>근린공원",,,
79,배재어린이<b>공원</b>,서울특별시 중구 정동,,309414,551835,"레져,체육시설>공원",,,
80,진달래어린이<b>공원</b>,서울특별시 중구 정동,,309629,552229,"레져,체육시설>공원",,,
81,순화어린이<b>공원</b>,서울특별시 중구 순화동,,309319,551748,"레져,체육시설>공원",,,
82,순화어린이<b>공원</b>,서울특별시 중구 순화동,,309290,551437,"레져,체육시설>공원",,,
83,경찰기념<b>공원</b>,서울특별시 중구 의주로1가 44-2,,309079,551798,"여행,명소>테마공원",,,
84,중림동삼성사이버빌리지아파트어린이<b>공원</b>,서울특별시 중구 중림동,,308756,551152,"레져,체육시설>공원",,,
85,서소문역사<b>공원</b>,서울특별시 중구 의주로2가  16-4,서울특별시 중구 칠패로 5 서소문공원,309148,551432,"여행,명소>근린공원",,,
86,서소문근린<b>공원</b>,서울특별시 중구 의주로2가 16-2,서울특별시 중구 칠패로 5 서소문공원,309137,551445,"여행,명소>근린공원",,02-313-7986,
87,손기정체육<b>공원</b>,서울특별시 중구 만리동2가 6-1,서울특별시 중구 손기정로 101,308775,550929,"지역명소>도시,테마공원",,02-313-7985,
88,새나라어린이<b>공원</b>,서울특별시 용산구 후암동,,309753,550034,"레져,체육시설>공원",,,
89,새꿈어린이<b>공원</b>,서울특별시 용산구 동자동,,309569,550522,"레져,체육시설>공원",,,
90,청파어린이<b>공원</b>,서울특별시 용산구 서계동,,309041,550652,"레져,체육시설>공원",,,
91,돌모루어린이<b>공원</b>,서울특별시 용산구 청파동3가,,309050,549476,"레져,체육시설>공원",,,
92,효창<b>공원</b>,서울특별시 용산구 효창동,,308290,549737,"여행,명소>도시,테마공원",,,
93,도원어린이<b>공원</b>,서울특별시 용산구 도원동,,307844,548858,"레져,체육시설>공원",,,
94,달님<b>공원</b>,서울특별시 용산구 문배동,,309134,548970,"여행,명소>근린공원",,,
95,해님<b>공원</b>,서울특별시 용산구 문배동,,309182,549050,"여행,명소>근린공원",,,
96,문배어린이<b>공원</b>,서울특별시 용산구 문배동,,309163,548783,"레져,체육시설>공원",,,
97,신계역사<b>공원</b>,서울특별시 용산구 신계동 55,서울특별시 용산구 청파로 139-25 공원관리사무소,308840,548653,"여행,명소>근린공원",,,
98,삼각지어린이<b>공원</b>,서울특별시 용산구 용산동3가,,309646,548527,"레져,체육시설>공원",,,
99,서빙고근린<b>공원</b>,서울특별시 용산구 용산동5가,,309476,547462,"여행,명소>근린공원",,,
100,용산역광장,서울특별시 용산구 한강로3가,,308776,547946,"여행,명소>근린공원",,,
101,이촌 한강<b>공원</b>,서울특별시 용산구 이촌동 302-17,서울특별시 용산구 이촌로72길 62 한강공원 이촌안내센터,308727,546832,"여행,명소>시민공원",,,http://hangang.seoul.go.kr/archives/46695
102,성촌<b>공원</b>,서울특별시 용산구 이촌동,,307713,548131,"여행,명소>근린공원",,,
103,강변소<b>공원</b>창의놀이터,서울특별시 용산구 이촌동,,309597,547070,"레져,체육시설>공원",,,
104,강변어린이<b>공원</b>,서울특별시 용산구 이촌동,,309599,547078,"레져,체육시설>공원",,,
105,이촌어린이<b>공원</b>,서울특별시 용산구 이촌동,,310005,546788,"레져,체육시설>공원",,,
106,사촌어린이<b>공원</b>,서울특별시 용산구 이촌동,,309230,546999,"레져,체육시설>공원",,,
107,새싹어린이<b>공원</b>,서울특별시 용산구 이촌동,,307783,547709,"레져,체육시설>공원",,,
108,꿈나무어린이<b>공원</b>,서울특별시 용산구 이촌동,,309319,547028,"레져,체육시설>공원",,,
109,이태원부군당역사<b>공원</b>,서울특별시 용산구 이태원동,,310906,548690,"여행,명소>근린공원",,,
110,이태원어린이놀이터<b>공원</b>,서울특별시 용산구 이태원동,,310929,548645,"여행,명소>근린공원",,,
111,창의어린이<b>공원</b>,서울특별시 용산구 이태원동,,310871,548939,"레져,체육시설>공원",,,
112,독서당어린이<b>공원</b>,서울특별시 용산구 한남동,,312922,548501,"레져,체육시설>공원",,,
113,한남어린이<b>공원</b>,서울특별시 용산구 한남동,,313051,548800,"레져,체육시설>공원",,,
114,정겨운마을마당,서울특별시 용산구 한남동,,312438,548036,"레져,체육시설>공원",,,
115,한남마을마당,서울특별시 용산구 한남동,,312150,549002,"여행,명소>근린공원",,,
116,용산가족<b>공원</b>,서울특별시 용산구 용산동6가 168-6,서울특별시 용산구 서빙고로 137 국립중앙박물관,310331,547161,"여행,명소>근린공원",,02-792-5661,
117,동빙고근린<b>공원</b>,서울특별시 용산구 용산동6가 69-162,서울특별시 용산구 이촌로 343-20,310382,546627,"여행,명소>자연공원","서울특별시 용산구 용산동 위치, 청소년활동, 풋살, 농구, 교육프로그램 안내.",02-798-7164,http://cafe.daum.net/dongbinggo
118,청계꿈나무어린이<b>공원</b>,서울특별시 성동구 상왕십리동,,314027,552334,"레져,체육시설>공원",,,
119,무학봉근린<b>공원</b>,서울특별시 성동구 하왕십리동 1050-2,,314185,551580,"여행,명소>근린공원",,,
120,미소어린이<b>공원</b>,서울특별시 성동구 하왕십리동,,313931,551317,"레져,체육시설>공원",,,
121,꽃재<b>공원</b>,서울특별시 성동구 하왕십리동,,314359,552143,"여행,명소>근린공원",,,
122,도선마을<b>공원</b>,서울특별시 성동구 홍익동,,314608,551934,"여행,명소>근린공원",,,
123,왕십리문화<b>공원</b>,서울특별시 성동구 도선동,,314961,551498,"여행,명소>근린공원",,,
124,샤이니2호숲,서울특별시 성동구 마장동,,315907,552279,"여행,명소>근린공원",,,
125,보람어린이<b>공원</b>,서울특별시 성동구 마장동,,315277,551992,"레져,체육시설>공원",,,
126,서마장어린이<b>공원</b>,서울특별시 성동구 마장동,,315160,552600,"레져,체육시설>공원",,,
127,동마장어린이<b>공원</b>,서울특별시 성동구 마장동,,315893,551971,"레져,체육시설>공원",,,
128,살곶이체육<b>공원</b>,서울특별시 성동구 사근동 102-16,,316269,550712,"지역명소>도시,테마공원",,02-2286-6090,
129,사근<b>공원</b>,서울특별시 성동구 사근동,,316056,551673,"여행,명소>근린공원",,,
130,사근어린이<b>공원</b>,서울특별시 성동구 사근동,,316059,551673,"레져,체육시설>공원",,,
131,대현산<b>공원</b>,서울특별시 성동구 행당동 산30-40,서울특별시 성동구 독서당로63길 44 대현산체육관,314425,550672,"여행,명소>근린공원",,,
132,논골새싹<b>공원</b>,서울특별시 성동구 행당동,,314056,550972,"여행,명소>근린공원",,,
133,행당동마을마당,서울특별시 성동구 행당동,,315173,551196,"여행,명소>근린공원",,,
134,전관원어린이<b>공원</b>,서울특별시 성동구 행당동,,315371,550692,"레져,체육시설>공원",,,
135,행당어린이<b>공원</b>,서울특별시 성동구 행당동,,315164,551075,"레져,체육시설>공원",,,
136,마장어린이<b>공원</b>,서울특별시 성동구 행당동,,315502,551526,"레져,체육시설>공원",,,
137,살구골<b>공원</b>,서울특별시 성동구 행당동,,314653,550778,"레져,체육시설>공원",,,
138,행당한진타운아파트<b>공원</b>,서울특별시 성동구 행당동,,314235,550728,"레져,체육시설>공원",,,
139,응봉체육<b>공원</b>,서울특별시 성동구 응봉동,,315208,550385,"지역명소>도시,테마공원",,,
140,응봉산 암벽등반<b>공원</b>,서울특별시 성동구 응봉동 269-4,서울특별시 성동구 독서당로60길 13-1,314554,550020,"여행,명소>테마공원",,02-2286-5655,
141,응삼어린이<b>공원</b>,서울특별시 성동구 응봉동,,314949,550713,"레져,체육시설>공원",,,
142,응봉새말어린이<b>공원</b>,서울특별시 성동구 응봉동,,315002,550394,"레져,체육시설>공원",,,
143,응봉<b>공원</b>,서울특별시 성동구 금호동1가 1-72,서울특별시 성동구 난계로 61-46,313768,551010,"여행,명소>근린공원",,02-2293-7646,
144,독서당<b>공원</b>,서울특별시 성동구 금호동1가,,314391,550231,"여행,명소>근린공원",,,
145,응봉근린<b>공원</b>,서울특별시 성동구 금호동2가 산9-3,,313320,550496,"여행,명소>근린공원",,,
146,금옥<b>공원</b>,서울특별시 성동구 금호동2가,,313710,550582,"여행,명소>근린공원",,,
147,금동어린이<b>공원</b>,서울특별시 성동구 금호동2가,,314102,550176,"레져,체육시설>공원",,,
148,금호근린<b>공원</b>,서울특별시 성동구 금호동3가,,313510,550152,"여행,명소>근린공원",,,
149,달맞이봉<b>공원</b>,서울특별시 성동구 금호동4가,,313703,549494,"여행,명소>근린공원",,,
150,서울숲푸르지오아파트<b>공원</b>,서울특별시 성동구 금호동4가 ,,313792,549619,"레져,체육시설>공원",,,
151,두뭇개나루터<b>공원</b>,서울특별시 성동구 옥수동,,313321,549236,"여행,명소>근린공원",,,
152,e편한세상옥수파크힐스근린<b>공원</b>,서울특별시 성동구 옥수동,,312836,549917,"여행,명소>근린공원",,,
153,서울숲,서울특별시 성동구 성수동1가 685-1,서울특별시 성동구 뚝섬로 273,315235,549300,"여행,명소>근린공원",,,http://seoulforest.or.kr/
154,서울숲 가족마당,서울특별시 성동구 성수동1가 685-37,,315279,549676,"여행,명소>근린공원",,,
155,뚝섬문화예술<b>공원</b>,서울특별시 성동구 성수동1가 685-1,서울특별시 성동구 왕십리로11길 9,315365,549735,"여행,명소>근린공원",,,
156,뚝섬유수지체육<b>공원</b>,서울특별시 성동구 성수동1가,,315508,550188,"지역명소>도시,테마공원",,,
157,송정제방<b>공원</b>,서울특별시 성동구 성수동1가,,316010,550397,"여행,명소>근린공원",,,
158,동부<b>공원</b>,서울특별시 성동구 성수동1가,,316013,549628,"여행,명소>근린공원",,,
159,상원어린이<b>공원</b>창의놀이터,서울특별시 성동구 성수동1가,,316008,549917,"레져,체육시설>공원",,,
160,성원어린이<b>공원</b>,서울특별시 성동구 성수동1가 ,,316267,550210,"레져,체육시설>공원",,,
161,성수1가어린이<b>공원</b>,서울특별시 성동구 성수동1가,,315880,548840,"레져,체육시설>공원",,,
162,상원어린이<b>공원</b>,서울특별시 성동구 성수동1가,,316006,549912,"레져,체육시설>공원",,,
163,성일어린이<b>공원</b>,서울특별시 성동구 성수동1가,,315904,550180,"레져,체육시설>공원",,,
164,성수동구두테마<b>공원</b>,서울특별시 성동구 성수동2가 302-25,,316461,549604,"여행,명소>도시,테마공원",,02-464-2770,
165,청송어린이<b>공원</b>,서울특별시 성동구 성수동2가,,317007,549676,"레져,체육시설>공원",,,
166,성삼어린이<b>공원</b>,서울특별시 성동구 성수동2가,,317152,549288,"레져,체육시설>공원",,,
167,무지개어린이<b>공원</b>,서울특별시 성동구 성수동2가,,316506,549282,"레져,체육시설>공원",,,
168,아남<b>공원</b>,서울특별시 성동구 성수동2가,,317558,549819,"여행,명소>근린공원",,,
169,향림어린이<b>공원</b>,서울특별시 성동구 성수동2가,,316551,549819,"레져,체육시설>공원",,,
170,무지개어린이<b>공원</b>창의놀이터,서울특별시 성동구 성수동2가,,316483,549283,"레져,체육시설>공원",,,
171,열림<b>공원</b>,서울특별시 성동구 성수동2가,,316841,549011,"여행,명소>근린공원",,,
172,은행나무터어린이<b>공원</b>,서울특별시 성동구 성수동2가,,316545,549490,"레져,체육시설>공원",,,
173,송정체육<b>공원</b>,서울특별시 성동구 송정동 73-448,,317768,550556,"지역명소>도시,테마공원",,,
174,송정어린이<b>공원</b>,서울특별시 성동구 송정동,,318072,550743,"레져,체육시설>공원",,,
175,장미소<b>공원</b>,서울특별시 성동구 송정동,,317915,550416,"여행,명소>근린공원",,,
176,청계8경 버들습지,서울특별시 성동구 용답동,,315259,552679,"여행,명소>자연,생태공원",,,
177,용답꽃<b>공원</b>,서울특별시 성동구 용답동 183-1,,316655,551280,"여행,명소>근린공원",,,
178,용답휴식<b>공원</b>,서울특별시 성동구 용답동,,316074,552370,"여행,명소>근린공원",,,
179,군자<b>공원</b>,서울특별시 성동구 용답동,,315962,552415,"여행,명소>근린공원",,,
180,긴고랑<b>공원</b>,서울특별시 광진구 중곡동,,319882,551134,"여행,명소>근린공원",,,
181,해오름<b>공원</b>,서울특별시 광진구 중곡동,,319979,550902,"여행,명소>근린공원",,,
182,한마음<b>공원</b>,서울특별시 광진구 중곡동,,319273,551215,"여행,명소>근린공원",,,
183,중곡3동1마을<b>공원</b>,서울특별시 광진구 중곡동 195-1,서울특별시 광진구 용마산로33길 25 중곡3동마을공원공영주차장,319342,552369,"여행,명소>근린공원",,,
184,중곡1동마을마당,서울특별시 광진구 중곡동 248-29,,318653,551570,"여행,명소>근린공원",,,
185,배나무터어린이<b>공원</b>,서울특별시 광진구 중곡동,,318949,552199,"레져,체육시설>공원",,,
186,중곡어린이<b>공원</b>,서울특별시 광진구 중곡동,,318856,551787,"레져,체육시설>공원",,,
187,중곡어린이<b>공원</b>창의놀이터,서울특별시 광진구 중곡동 ,,318844,551775,"레져,체육시설>공원",,,
188,<b>능동</b>소<b>공원</b>,서울특별시 광진구 능동,,319164,550437,"여행,명소>근린공원",,,
189,<b>능동</b>마을마당,서울특별시 광진구 능동 237-3,,319228,550729,"여행,명소>군립,시립공원",,,
190,구의<b>공원</b>,서울특별시 광진구 구의동,,320192,548718,"여행,명소>근린공원",,,
191,테크노마트하늘<b>공원</b>,서울특별시 광진구 구의동,,320255,548594,"여행,명소>근린공원",,,
192,아차산배수지체육<b>공원</b>,서울특별시 광진구 구의동 38-4,,320393,550047,"지역명소>도시,테마공원",,,
193,홍련봉<b>공원</b>,서울특별시 광진구 구의동,,320151,550039,"여행,명소>근린공원",,,
194,광나룻길수변<b>공원</b>,서울특별시 광진구 구의동,,320014,549516,"여행,명소>도시,테마공원",,,
195,명성<b>공원</b>,서울특별시 광진구 구의동,,319488,549199,"여행,명소>근린공원",,,
196,무궁화<b>공원</b>,서울특별시 광진구 구의동,,320166,549173,"여행,명소>근린공원",,,
197,목련<b>공원</b>,서울특별시 광진구 구의동,,319826,549106,"여행,명소>근린공원",,,
198,산마루어린이<b>공원</b>,서울특별시 광진구 구의동,,320251,550707,"레져,체육시설>공원",,,
199,개나리어린이<b>공원</b>,서울특별시 광진구 구의동,,319999,548813,"레져,체육시설>공원",,,
200,푸른동산어린이<b>공원</b>,서울특별시 광진구 구의동,,319883,549347,"레져,체육시설>공원",,,
201,장미<b>공원</b>,서울특별시 광진구 구의동,,319791,548635,"레져,체육시설>공원",,,
202,구둘어린이<b>공원</b>,서울특별시 광진구 구의동,,319986,549955,"레져,체육시설>공원",,,
203,아차산생태<b>공원</b>,서울특별시 광진구 광장동 370-2 아차산 생태공원,,320763,550328,"여행,명소>자연,생태공원",,,
204,광진숲나루,서울특별시 광진구 광장동 401-14,,320539,549750,"여행,명소>근린공원",,,
205,온달<b>공원</b>,서울특별시 광진구 광장동 ,,321012,549681,"여행,명소>근린공원",,,
206,평강<b>공원</b>,서울특별시 광진구 광장동,,320719,549931,"레져,체육시설>공원",,,
207,뚝섬한강<b>공원</b>,서울특별시 광진구 자양동 704-1,서울특별시 광진구 강변북로 139,318059,547883,"여행,명소>시민공원",,,http://hangang.seoul.go.kr/archives/46661
208,자양유수지체육시설,서울특별시 광진구 자양동,,318650,547852,"지역명소>도시,테마공원",,,
209,정말<b>공원</b>,서울특별시 광진구 자양동,,318739,548298,"여행,명소>근린공원",,,
210,자양<b>공원</b>,서울특별시 광진구 자양동,,317987,548342,"여행,명소>근린공원",,,
211,자마장<b>공원</b>,서울특별시 광진구 자양동,,319080,548412,"여행,명소>근린공원",,,
212,장독골<b>공원</b>,서울특별시 광진구 자양동,,318686,548583,"여행,명소>근린공원",,,
213,양마장<b>공원</b>,서울특별시 광진구 자양동,,319637,548025,"여행,명소>근린공원",,,
214,동자<b>공원</b>,서울특별시 광진구 자양동,,318388,548162,"레져,체육시설>공원",,,
215,금모래<b>공원</b>,서울특별시 광진구 자양동,,319102,547946,"여행,명소>근린공원",,,
216,노유산<b>공원</b>,서울특별시 광진구 자양동,,317867,548955,"레져,체육시설>공원",,,
217,약초원<b>공원</b>,서울특별시 광진구 자양동 74-21,,317685,548274,"여행,명소>근린공원",,,
218,언덕배기어린이<b>공원</b>,서울특별시 광진구 자양동,,319582,548158,"레져,체육시설>공원",,,
219,성화<b>공원</b>,서울특별시 광진구 자양동,,317283,548638,"여행,명소>근린공원",,,
220,능동로분수광장,서울특별시 광진구 화양동 4-16,,318234,549396,"여행,명소>근린공원",,,
221,느티나무<b>공원</b>,서울특별시 광진구 화양동 110-62,,318170,549771,"여행,명소>근린공원",,,
222,화양<b>공원</b>,서울특별시 광진구 화양동,,317986,549227,"여행,명소>근린공원",,,
223,가중나무<b>공원</b>,서울특별시 광진구 화양동,,317830,549761,"여행,명소>근린공원",,,
224,햇님<b>공원</b>,서울특별시 광진구 화양동,,317740,549359,"여행,명소>근린공원",,,
225,한아름<b>공원</b>,서울특별시 광진구 화양동,,318068,549552,"여행,명소>근린공원",,,
226,광진광장,서울특별시 광진구 군자동 374-4,서울특별시 광진구 광나루로 389 광진광장,318341,549914,"여행,명소>근린공원",,,
227,군자<b>공원</b>,서울특별시 광진구 군자동,,318279,550646,"여행,명소>근린공원",,,
228,남일어린이<b>공원</b>,서울특별시 광진구 군자동,,318358,550825,"레져,체육시설>공원",,,
229,우산각어린이<b>공원</b>,서울특별시 동대문구 신설동,,314016,552789,"레져,체육시설>공원",,,
230,용두<b>공원</b>,서울특별시 동대문구 용두동,,315310,552775,"여행,명소>근린공원",,,
231,용머리어린이<b>공원</b>,서울특별시 동대문구 용두동,,315096,552722,"레져,체육시설>공원",,,
232,용두희망어린이<b>공원</b>,서울특별시 동대문구 용두동,,314196,553535,"레져,체육시설>공원",,,
233,선농단역사<b>공원</b>,서울특별시 동대문구 제기동 274-1,서울특별시 동대문구 무학로44길 38,314708,553642,"여행,명소>근린공원",,,
234,방아다리어린이<b>공원</b>,서울특별시 동대문구 제기동,,314957,554088,"레져,체육시설>공원",,,
235,배봉산근린<b>공원</b>,서울특별시 동대문구 전농동,,317541,553636,"여행,명소>근린공원",,,
236,청량리역광장,서울특별시 동대문구 전농동,,315990,553573,"여행,명소>근린공원",,,
237,전곡마을마당<b>공원</b>,서울특별시 동대문구 전농동 199-56,,316686,553578,"여행,명소>근린공원",,,
238,이삭어린이<b>공원</b>,서울특별시 동대문구 전농동,,316239,553380,"레져,체육시설>공원",,,
239,아름드리어린이<b>공원</b>,서울특별시 동대문구 전농동,,317144,553411,"레져,체육시설>공원",,,
240,간데메<b>공원</b>,서울특별시 동대문구 답십리동 471,서울특별시 동대문구 서울시립대로2길 59 간데메공원,316181,552763,"여행,명소>도시,테마공원",,02-2249-2770,
241,답십리<b>공원</b>,서울특별시 동대문구 답십리동,,317401,552955,"여행,명소>근린공원",,,
242,장령당<b>공원</b>,서울특별시 동대문구 답십리동,,316587,552357,"여행,명소>근린공원",,,
243,근린<b>공원</b>,서울특별시 동대문구 답십리동,,316756,552377,"여행,명소>근린공원",,,
244,쉼터<b>공원</b>,서울특별시 동대문구 답십리동 ,,317114,551817,"여행,명소>근린공원",,,
245,동산어린이<b>공원</b>,서울특별시 동대문구 답십리동,,316939,552076,"레져,체육시설>공원",,,
246,꿈동산어린이<b>공원</b>,서울특별시 동대문구 답십리동,,315910,552779,"레져,체육시설>공원",,,
247,장안근린<b>공원</b>,서울특별시 동대문구 장안동 300,서울특별시 동대문구 장한로 191 동대문구청소년독서실,318185,553191,"여행,명소>근린공원",,,
248,중랑천제1체육<b>공원</b>,서울특별시 동대문구 장안동 24-1,,318516,552051,"지역명소>도시,테마공원",,,
249,장평근린<b>공원</b>,서울특별시 동대문구 장안동,,318410,552115,"여행,명소>근린공원",,,
250,장미<b>공원</b>,서울특별시 동대문구 장안동,,317976,552567,"여행,명소>근린공원",,,
251,안골어린이<b>공원</b>,서울특별시 동대문구 장안동,,317535,551867,"레져,체육시설>공원",,,
252,미나리어린이<b>공원</b>,서울특별시 동대문구 장안동,,317880,551688,"레져,체육시설>공원",,,
253,늘봄어린이<b>공원</b>,서울특별시 동대문구 장안동,,318259,552548,"레져,체육시설>공원",,,
254,마로니에어린이<b>공원</b>,서울특별시 동대문구 장안동,,318382,552936,"레져,체육시설>공원",,,
255,한내어린이<b>공원</b>,서울특별시 동대문구 장안동,,318147,552136,"레져,체육시설>공원",,,
256,장일어린이<b>공원</b>,서울특별시 동대문구 장안동,,317619,552384,"레져,체육시설>공원",,,
257,늘푸른어린이<b>공원</b>,서울특별시 동대문구 장안동,,318192,553073,"레져,체육시설>공원",,,
258,한내어린이<b>공원</b>창의놀이터,서울특별시 동대문구 장안동,,318147,552145,"레져,체육시설>공원",,,
259,늘봄어린이<b>공원</b>창의놀이터,서울특별시 동대문구 장안동,,318279,552530,"레져,체육시설>공원",,,
260,샛별어린이<b>공원</b>,서울특별시 동대문구 장안동,,317804,552156,"레져,체육시설>공원",,,
261,이슬어린이<b>공원</b>,서울특별시 동대문구 장안동,,317479,552145,"레져,체육시설>공원",,,
262,이슬어린이<b>공원</b>창의놀이터,서울특별시 동대문구 장안동,,317473,552143,"레져,체육시설>공원",,,
263,안골어린이<b>공원</b>창의놀이터,서울특별시 동대문구 장안동,,317535,551873,"레져,체육시설>공원",,,
264,미리내어린이<b>공원</b>,서울특별시 동대문구 장안동,,318206,553597,"레져,체육시설>공원",,,
265,홍릉근린<b>공원</b>,서울특별시 동대문구 청량리동 206-19,서울특별시 동대문구 회기로10길 60 동대문구정보화도서관,316034,554588,"여행,명소>근린공원",,,
266,새싹마을마당,서울특별시 동대문구 휘경동,,317048,554385,"여행,명소>근린공원",,,
267,다솜마을마당<b>공원</b>,서울특별시 동대문구 휘경동,,318221,554006,"여행,명소>근린공원",,,
268,보림어린이<b>공원</b>,서울특별시 동대문구 휘경동,,317304,554883,"레져,체육시설>공원",,,
269,아름어린이<b>공원</b>,서울특별시 동대문구 휘경동,,317757,554209,"레져,체육시설>공원",,,
270,동일스위트리버아파트테마<b>공원</b>,서울특별시 동대문구 휘경동,,318003,554262,"레져,체육시설>공원",,,
271,근린<b>공원</b>,서울특별시 동대문구 이문동,,316959,555813,"여행,명소>근린공원",,,
272,이문동대림e편한세상아파트<b>공원</b>,서울특별시 동대문구 이문동,,317565,556182,"레져,체육시설>공원",,,
273,독구말어린이<b>공원</b>,서울특별시 동대문구 이문동,,317637,555556,"레져,체육시설>공원",,,
274,용마폭포<b>공원</b>,서울특별시 중랑구 면목동 산1-4,서울특별시 중랑구 용마산로 250-12 용마폭포공원관리사무소,319866,552721,"여행,명소>도시,테마공원",,02-2094-2965,http://www.jungnang.go.kr/portal/main/contents.do?menuNo=200599
275,사가정<b>공원</b>,서울특별시 중랑구 면목동 산50-2,,320351,553445,"여행,명소>도시,테마공원",,02-2094-2344,
276,까치<b>공원</b>,서울특별시 중랑구 면목동 570,서울특별시 중랑구 사가정로49길 56 까치어린이공원,319584,553865,"여행,명소>도시,테마공원",,,
277,서일대뒷산<b>공원</b>,서울특별시 중랑구 면목동,,320605,554325,"여행,명소>근린공원",,,
278,면목역<b>공원</b>,서울특별시 중랑구 면목동,,319572,554440,"여행,명소>근린공원",,,
279,소파<b>공원</b>,서울특별시 중랑구 면목동,,320337,554509,"여행,명소>근린공원",,,
280,남촌<b>공원</b>,서울특별시 중랑구 면목동,,319945,554100,"여행,명소>근린공원",,,
281,늘푸른<b>공원</b>,서울특별시 중랑구 면목동 162-22,,318947,553809,"여행,명소>근린공원",,,
282,오거리<b>공원</b>,서울특별시 중랑구 면목동,,319322,553130,"여행,명소>근린공원",,,
283,송계<b>공원</b>,서울특별시 중랑구 면목동 173-1,서울특별시 중랑구 동일로95길 29,318765,553990,"여행,명소>근린공원",,,
284,햇살<b>공원</b>,서울특별시 중랑구 면목동,,319232,554579,"여행,명소>근린공원",,,
285,한신<b>공원</b>,서울특별시 중랑구 면목동,,318662,554378,"여행,명소>근린공원",,,
286,근린<b>공원</b>,서울특별시 중랑구 면목동,,319308,553775,"여행,명소>근린공원",,,
287,샘터어린이<b>공원</b>,서울특별시 중랑구 면목동,,319222,552710,"레져,체육시설>공원",,,
288,양지어린이<b>공원</b>,서울특별시 중랑구 면목동,,319754,554626,"레져,체육시설>공원",,,
289,겸재어린이<b>공원</b>,서울특별시 중랑구 면목동,,320113,554358,"레져,체육시설>공원",,,
290,사랑어린이<b>공원</b>,서울특별시 중랑구 면목동,,319110,554109,"레져,체육시설>공원",,,
291,사랑어린이<b>공원</b>창의놀이터,서울특별시 중랑구 면목동,,319111,554114,"레져,체육시설>공원",,,
292,열매어린이<b>공원</b>,서울특별시 중랑구 면목동,,319033,554453,"레져,체육시설>공원",,,
293,샘터어린이<b>공원</b>창의놀이터,서울특별시 중랑구 면목동,,319224,552712,"레져,체육시설>공원",,,
294,열매어린이<b>공원</b>창의놀이터,서울특별시 중랑구 면목동,,319039,554448,"레져,체육시설>공원",,,
295,봉황<b>공원</b>,서울특별시 중랑구 상봉동,,319375,555152,"여행,명소>근린공원",,,
296,상봉어린이<b>공원</b>창의놀이터,서울특별시 중랑구 상봉동,,319163,554946,"레져,체육시설>공원",,,
297,상봉어린이<b>공원</b>,서울특별시 중랑구 상봉동,,319159,554941,"레져,체육시설>공원",,,
298,중화2동체육<b>공원</b>,서울특별시 중랑구 중화동,,318143,555309,"지역명소>도시,테마공원",,,
299,중화수경<b>공원</b>,서울특별시 중랑구 중화동,,318430,556050,"여행,명소>근린공원",,,
300,봉화<b>공원</b>,서울특별시 중랑구 중화동  300-49,서울특별시 중랑구 동일로123길 49,318729,555502,"여행,명소>근린공원",,,
301,배꽃<b>공원</b>,서울특별시 중랑구 중화동,,318515,556196,"여행,명소>근린공원",,,
302,본동<b>공원</b>,서울특별시 중랑구 중화동,,319472,555829,"여행,명소>근린공원",,,
303,중화리<b>공원</b>,서울특별시 중랑구 중화동,,319009,556168,"여행,명소>근린공원",,,
304,봉우재마을마당,서울특별시 중랑구 중화동,,319108,555974,"여행,명소>근린공원",,,
305,세화어린이<b>공원</b>,서울특별시 중랑구 중화동,,318415,555624,"레져,체육시설>공원",,,
306,서울장미<b>공원</b>,서울특별시 중랑구 묵동 375,,318387,557434,"여행,명소>근린공원",,,
307,소망<b>공원</b>,서울특별시 중랑구 묵동,,318525,556935,"여행,명소>근린공원",,,
308,먹골어린이<b>공원</b>,서울특별시 중랑구 묵동,,318891,556977,"레져,체육시설>공원",,,
309,봉화마을마당,서울특별시 중랑구 묵동,,319309,557603,"여행,명소>근린공원",,,
310,정자묵마을마당,서울특별시 중랑구 묵동 171-1,,318848,557346,"여행,명소>근린공원",,,
311,신내3어린이<b>공원</b>,서울특별시 중랑구 묵동,,319695,557594,"레져,체육시설>공원",,,
312,용마<b>공원</b>,서울특별시 중랑구 망우동,,321163,555090,"여행,명소>근린공원",,,
313,나들이근린<b>공원</b>,서울특별시 중랑구 망우동,,321903,556278,"여행,명소>근린공원",,,
314,돌산체육<b>공원</b>,서울특별시 중랑구 망우동,,321071,554718,"지역명소>도시,테마공원",,,
315,망우리<b>공원</b>,서울특별시 중랑구 망우동 산57-1,서울특별시 중랑구 망우로 570,322008,555529,"여행,명소>테마공원",,02-434-3337,http://manguripark.or.kr/
316,배밭<b>공원</b>,서울특별시 중랑구 망우동,,320960,554497,"여행,명소>근린공원",,,
317,망우산 저류조 <b>공원</b>,서울특별시 중랑구 망우동 산56,서울특별시 중랑구 망우로 540 망우치안센터,321760,555558,"여행,명소>근린공원",,02-2094-2384,
318,망우체육<b>공원</b>,서울특별시 중랑구 망우동,,321000,556173,"지역명소>도시,테마공원",,,
319,등나무<b>공원</b>,서울특별시 중랑구 망우동,,320425,555429,"여행,명소>근린공원",,,
320,갓바위<b>공원</b>,서울특별시 중랑구 망우동,,321022,555577,"여행,명소>근린공원",,,
321,우림마을마당,서울특별시 중랑구 망우동,,320633,555230,"여행,명소>근린공원",,,
322,동원마을마당,서울특별시 중랑구 망우동,,321198,556306,"여행,명소>근린공원",,,
323,달동산어린이<b>공원</b>,서울특별시 중랑구 망우동,,320298,554827,"레져,체육시설>공원",,,
324,꽃동산어린이<b>공원</b>,서울특별시 중랑구 망우동,,320621,554729,"레져,체육시설>공원",,,
325,방죽어린이<b>공원</b>,서울특별시 중랑구 망우동,,320965,555954,"레져,체육시설>공원",,,
326,봉화산근린<b>공원</b>,서울특별시 중랑구 신내동 산136-1,,320063,556875,"여행,명소>근린공원",,02-2094-2340,
327,봉화산옹기테마<b>공원</b>,서울특별시 중랑구 신내동 777,서울특별시 중랑구 신내로21길 116,319729,557101,"여행,명소>테마공원",,02-2094-2966,http://www.jungnang.go.kr/portal/main/contents.do?menuNo=201058
328,봉수대<b>공원</b>,서울특별시 중랑구 신내동,,320035,556533,"여행,명소>근린공원",,,
329,신내<b>공원</b>,서울특별시 중랑구 신내동 652,,319790,557260,"여행,명소>근린공원",,,
330,능산<b>공원</b>,서울특별시 중랑구 신내동,,320496,557016,"여행,명소>근린공원",,,
331,피울<b>공원</b>,서울특별시 중랑구 신내동,,320723,556410,"여행,명소>근린공원",,,
332,옹기터마을마당,서울특별시 중랑구 신내동,,320349,556006,"여행,명소>근린공원",,,
333,신내어울<b>공원</b>,서울특별시 중랑구 신내동,,320654,557209,"여행,명소>근린공원",,,
334,하늘한마당,서울특별시 성북구 성북동,,312491,555369,"여행,명소>근린공원",,,
335,성북우정의<b>공원</b>,서울특별시 성북구 성북동,,311050,555213,"여행,명소>근린공원",,,
336,성북동쉼터,서울특별시 성북구 성북동 118-2,,311710,554944,"여행,명소>근린공원",,,
337,성북<b>공원</b>,서울특별시 성북구 성북동,,312584,555198,"여행,명소>근린공원",,,
338,개운산<b>공원</b>,서울특별시 성북구 돈암동 산6-1,서울특별시 성북구 북악산로 949-73 개운산 근린공원 이용지원센터,314125,555374,"여행,명소>근린공원",,,
339,돈암현대아파트새소리어린이<b>공원</b>,서울특별시 성북구 돈암동,,314141,555839,"레져,체육시설>공원",,,
340,삼선상상어린이<b>공원</b>,서울특별시 성북구 삼선동1가,,312666,553830,"레져,체육시설>공원",,,
341,삼선<b>공원</b>,서울특별시 성북구 삼선동1가  288-1,서울특별시 성북구 삼선교로10바길 34,312662,553990,"여행,명소>근린공원",,,
342,범바위어린이<b>공원</b>,서울특별시 성북구 안암동2가,,313782,554124,"레져,체육시설>공원",,,
343,자주바위어린이<b>공원</b>,서울특별시 성북구 보문동6가,,313428,553537,"레져,체육시설>공원",,,
344,꿈나라어린이<b>공원</b>,서울특별시 성북구 보문동7가,,313912,553540,"레져,체육시설>공원",,,
345,동망봉어린이<b>공원</b>,서울특별시 성북구 보문동3가,,313373,553956,"레져,체육시설>공원",,,
346,북한산국립<b>공원</b>,서울특별시 성북구 정릉동,,312008,558501,"여행,명소>국립공원",,,
347,북한산생태숲,서울특별시 성북구 정릉동,,312536,558041,"여행,명소>근린공원",,,
348,한울어린이<b>공원</b>,서울특별시 성북구 정릉동,,313116,556412,"레져,체육시설>공원",,,
349,솔숲어린이<b>공원</b>,서울특별시 성북구 정릉동,,313230,556313,"레져,체육시설>공원",,,
350,정릉10<b>공원</b>,서울특별시 성북구 정릉동,,312925,556013,"여행,명소>근린공원",,,
351,배밭골어린이<b>공원</b>,서울특별시 성북구 정릉동,,311812,556647,"레져,체육시설>공원",,,
352,해맑은어린이<b>공원</b>,서울특별시 성북구 길음동 591-17,,313756,556703,"여행,명소>근린공원",,,
353,늘푸른어린이<b>공원</b>,서울특별시 성북구 길음동,,313707,556708,"레져,체육시설>공원",,,
354,솔향기어린이<b>공원</b>,서울특별시 성북구 길음동,,313785,556660,"레져,체육시설>공원",,,
355,아름어린이<b>공원</b>,서울특별시 성북구 길음동,,313339,556583,"레져,체육시설>공원",,,
356,길음8-1어린이<b>공원</b>,서울특별시 성북구 길음동 1284-14,,313630,556672,"여행,명소>근린공원",,,
357,길음8-2어린이<b>공원</b>,서울특별시 성북구 길음동 1284-1,,313335,556576,"여행,명소>근린공원",,,
358,종암5-2어린이<b>공원</b>,서울특별시 성북구 종암동 134-8,,315386,555745,"여행,명소>근린공원",,,
359,종암어린이<b>공원</b>,서울특별시 성북구 종암동 104-6,,315183,555763,"여행,명소>시민공원",,,
360,종암6어린이<b>공원</b>,서울특별시 성북구 종암동 135-4,,314890,556012,"여행,명소>근린공원",,,
361,종암5-1어린이<b>공원</b>,서울특별시 성북구 종암동 134-3,,315129,555708,"여행,명소>근린공원",,,
362,고암어린이<b>공원</b>,서울특별시 성북구 종암동,,314696,555733,"레져,체육시설>공원",,,
363,벌집어린이<b>공원</b>창의놀이터,서울특별시 성북구 종암동,,315117,555703,"레져,체육시설>공원",,,
364,오동<b>공원</b>,서울특별시 성북구 하월곡동 산2-1,서울특별시 성북구 화랑로13길 144 성북구민체육관,315666,556820,"여행,명소>도시,테마공원",,,
365,모랫말근린<b>공원</b>,서울특별시 성북구 하월곡동 90-206,,314798,556290,"여행,명소>근린공원",,,
366,동산어린이<b>공원</b>,서울특별시 성북구 하월곡동 96-165,,314955,556445,"여행,명소>근린공원",,,
367,밤골어린이<b>공원</b>,서울특별시 성북구 하월곡동 산2-140,서울특별시 성북구 화랑로13가길 17-8,315406,556584,"여행,명소>근린공원",,,
368,애기릉터<b>공원</b>,서울특별시 성북구 상월곡동,,315755,556833,"여행,명소>근린공원",,,
369,햇살어린이<b>공원</b>,서울특별시 성북구 상월곡동 97-37,,316196,556394,"여행,명소>근린공원",,,
370,향기어린이<b>공원</b>,서울특별시 성북구 상월곡동,,315868,556757,"레져,체육시설>공원",,,
371,동방어린이<b>공원</b>,서울특별시 성북구 장위동 219-223,,315758,557585,"여행,명소>근린공원",,,
372,장위3동마을<b>공원</b>,서울특별시 성북구 장위동,,316614,557642,"여행,명소>근린공원",,,
373,맑은숲어린이<b>공원</b>,서울특별시 성북구 장위동 317-1,서울특별시 성북구 월계로36길 27 꿈의숲대명루첸아파트,316031,558002,"여행,명소>근린공원",,,
374,청량근린<b>공원</b>,서울특별시 성북구 석관동 409,서울특별시 성북구 화랑로32길 146-37 한국예술종합학교,316555,556288,"여행,명소>근린공원",,,
375,화랑어린이<b>공원</b>,서울특별시 성북구 석관동 407-6,,316747,556525,"여행,명소>근린공원",,,
376,돌뫼어린이<b>공원</b>,서울특별시 성북구 석관동 산1-77,,316559,556290,"여행,명소>근린공원",,,
377,샛별상상어린이<b>공원</b>,서울특별시 성북구 석관동,,317578,557290,"레져,체육시설>공원",,,
378,석관어린이<b>공원</b>,서울특별시 성북구 석관동,,316747,556527,"레져,체육시설>공원",,,
379,하늘어린이<b>공원</b>,서울특별시 강북구 미아동,,313075,558459,"레져,체육시설>공원",,,
380,미아어린이<b>공원</b>,서울특별시 강북구 미아동,,315234,557440,"레져,체육시설>공원",,,
381,운산어린이<b>공원</b>,서울특별시 강북구 미아동,,314191,559318,"레져,체육시설>공원",,,
382,세일어린이<b>공원</b>,서울특별시 강북구 미아동,,314166,559475,"레져,체육시설>공원",,,
383,벽오산어린이<b>공원</b>,서울특별시 강북구 미아동,,314596,558830,"레져,체육시설>공원",,,
384,으뜸어린이<b>공원</b>,서울특별시 강북구 미아동,,314235,558384,"레져,체육시설>공원",,,
385,응달마을어린이<b>공원</b>,서울특별시 강북구 미아동,,314058,557783,"레져,체육시설>공원",,,
386,삼각산도시자연<b>공원</b>,서울특별시 강북구 미아동 산108-19,,312696,558036,"여행,명소>자연,생태공원",,,
387,삼양마을<b>공원</b>,서울특별시 강북구 미아동,,313547,558274,"여행,명소>근린공원",,,
388,송월<b>공원</b>,서울특별시 강북구 미아동,,314750,557532,"여행,명소>근린공원",,,
389,미아2동민체육<b>공원</b>,서울특별시 강북구 미아동,,312878,558538,"지역명소>도시,테마공원",,,
390,궁터길마을마당,서울특별시 강북구 미아동,,313927,557958,"여행,명소>근린공원",,,
391,큰마을마당,서울특별시 강북구 미아동,,313879,558330,"여행,명소>근린공원",,,
392,근린<b>공원</b>,서울특별시 강북구 미아동,,313223,558736,"여행,명소>근린공원",,,
393,삼각산마을마당,서울특별시 강북구 미아동  791-1974,,313251,558215,"여행,명소>근린공원",,,
394,솔샘어린이<b>공원</b>창의놀이터,서울특별시 강북구 미아동,,314320,557766,"레져,체육시설>공원",,,
395,북서울꿈의숲,서울특별시 강북구 번동 산28-6,서울특별시 강북구 월계로 173,315519,558329,"여행,명소>도시,테마공원",,02-2289-4001,http://parks.seoul.go.kr/dreamforest
396,오동근린<b>공원</b>,서울특별시 강북구 번동 산12,,314735,559387,"여행,명소>근린공원",,,
397,벌말어린이<b>공원</b>,서울특별시 강북구 번동,,315465,559047,"레져,체육시설>공원",,,
398,샛강어린이<b>공원</b>,서울특별시 강북구 번동,,314857,560112,"레져,체육시설>공원",,,
399,논골어린이<b>공원</b>,서울특별시 강북구 번동,,314416,560013,"레져,체육시설>공원",,,
400,번남어린이<b>공원</b>,서울특별시 강북구 번동,,314130,559719,"레져,체육시설>공원",,,
401,샛강어린이<b>공원</b>창의놀이터,서울특별시 강북구 번동,,314855,560110,"레져,체육시설>공원",,,
402,버드나무어린이<b>공원</b>,서울특별시 강북구 번동,,314971,559501,"레져,체육시설>공원",,,
403,수유일<b>공원</b>,서울특별시 강북구 수유동 605-405,,313467,559126,"여행,명소>근린공원",,,
404,삼각산<b>공원</b>,서울특별시 강북구 수유동 605-394,,313445,559153,"여행,명소>근린공원",,,
405,푸른<b>공원</b>,서울특별시 강북구 수유동 516-44,,312670,560039,"여행,명소>근린공원",,,
406,무궁화<b>공원</b>,서울특별시 강북구 수유동 576-51,,312770,561031,"여행,명소>근린공원",,,
407,수유2동근린<b>공원</b>,서울특별시 강북구 수유동 252-19,서울특별시 강북구 노해로23길 58,313752,560828,"여행,명소>근린공원",,,
408,근린<b>공원</b>,서울특별시 강북구 수유동 553-3,,312928,560462,"여행,명소>근린공원",,,
409,인수마을마당,서울특별시 강북구 수유동  530-68,,312746,560454,"여행,명소>근린공원",,,
410,색동어린이<b>공원</b>,서울특별시 강북구 수유동,,313746,559420,"레져,체육시설>공원",,,
411,색동어린이<b>공원</b>(민관협력)창의놀이터,서울특별시 강북구 수유동,,313749,559440,"레져,체육시설>공원",,,
412,새싹어린이<b>공원</b>,서울특별시 강북구 수유동,,313671,559767,"레져,체육시설>공원",,,
413,희망어린이<b>공원</b>,서울특별시 강북구 수유동,,314103,560255,"레져,체육시설>공원",,,
414,상산어린이<b>공원</b>,서울특별시 강북구 수유동,,314062,560012,"레져,체육시설>공원",,,
415,보등골어린이<b>공원</b>,서울특별시 강북구 수유동,,313556,559648,"레져,체육시설>공원",,,
416,솔밭근린<b>공원</b>,서울특별시 강북구 우이동 80,서울특별시 강북구 삼양로 561 솔밭공원 관리실및화장실,312983,561574,"여행,명소>근린공원",,,
417,우이동만남의광장,서울특별시 강북구 우이동,,312636,562622,"여행,명소>근린공원",,,
418,북한산둘레길,서울특별시 강북구 우이동,,312958,563325,"여행,명소>국립공원",,,http://bukhan.knps.or.kr/
419,쌍문근린<b>공원</b>,서울특별시 도봉구 쌍문동 산79,,314353,561650,"여행,명소>근린공원",,02-2289-8597,
420,<b>쌍문동</b>청소년문화의집근린<b>공원</b>,서울특별시 도봉구 쌍문동,,314523,561765,"여행,명소>근린공원",,,
421,둘리유아숲체험장,서울특별시 도봉구 쌍문동 산82,,314612,561581,"여행,명소>근린공원",,02-903-0057,http://cafe.naver.com/choansanforest
422,둥근달어린이<b>공원</b>,서울특별시 도봉구 쌍문동,,314624,561257,"레져,체육시설>공원",,,
423,노해어린이<b>공원</b>,서울특별시 도봉구 쌍문동,,315467,562510,"레져,체육시설>공원",,,
424,샛별어린이<b>공원</b>,서울특별시 도봉구 쌍문동,,314525,561088,"레져,체육시설>공원",,,
425,둥근달어린이<b>공원</b>창의놀이터,서울특별시 도봉구 쌍문동,,314631,561257,"레져,체육시설>공원",,,
426,꽃동네어린이<b>공원</b>,서울특별시 도봉구 쌍문동,,313979,561379,"레져,체육시설>공원",,,
427,쌍문1동마을마당,서울특별시 도봉구 쌍문동  482,,313398,561812,"여행,명소>근린공원",,,
428,쌍문4동1마을마당,서울특별시 도봉구 쌍문동  257-6,,314435,562072,"여행,명소>근린공원",,,
429,쌍문4동2마을마당,서울특별시 도봉구 쌍문동  245-2,,314500,562303,"여행,명소>근린공원",,,
430,쌍문2동마을마당,서울특별시 도봉구 쌍문동  174-16,,315031,561883,"여행,명소>근린공원",,,
431,사슴어린이<b>공원</b>,서울특별시 도봉구 방학동,,315662,562893,"레져,체육시설>공원",,,
432,금성윗들어린이<b>공원</b>,서울특별시 도봉구 방학동,,315926,563246,"레져,체육시설>공원",,,
433,무궁화어린이<b>공원</b>,서울특별시 도봉구 방학동,,315698,563266,"레져,체육시설>공원",,,
434,뒷마을어린이<b>공원</b>,서울특별시 도봉구 방학동,,314936,562820,"레져,체육시설>공원",,,
435,방학어린이<b>공원</b>,서울특별시 도봉구 방학동,,314815,562751,"레져,체육시설>공원",,,
436,생잇들어린이<b>공원</b>,서울특별시 도봉구 방학동,,315435,563396,"레져,체육시설>공원",,,
437,발바닥<b>공원</b>,서울특별시 도봉구 방학동,,314788,562375,"여행,명소>도시,테마공원",,,
438,원당샘<b>공원</b>,서울특별시 도봉구 방학동 547,서울특별시 도봉구 해등로32가길 16 원당경로당,313922,562497,"여행,명소>근린공원","<b>서울특별시 도봉구 방학동</b> 위치, <b>공원</b>.",02-2091-3765,
439,평화도봉<b>공원</b>,서울특별시 도봉구 방학동 710,,315760,562666,"여행,명소>근린공원",,,
440,방학3동마을마당,서울특별시 도봉구 방학동  278-27,,314551,562766,"여행,명소>근린공원",,,
441,방학1동마을마당,서울특별시 도봉구 방학동  265-1,,315122,562495,"여행,명소>근린공원",,,
442,개나리어린이<b>공원</b>(민관협력)창의놀이터,서울특별시 도봉구 방학동,,315250,563214,"레져,체육시설>공원",,,
443,초안산근린<b>공원</b>,서울특별시 도봉구 창동 산48-16,,315491,561227,"여행,명소>근린공원",,,
444,초안산생태<b>공원</b>,서울특별시 도봉구 창동 산158,,315999,560975,"여행,명소>도시,테마공원",,,
445,뚝딱뚝딱놀이터 1호,서울특별시 도봉구 창동 381,,316225,560469,"여행,명소>근린공원",,02-994-7108,http://cafe.naver.com/adventureplay
446,초안산들꽃향기원,서울특별시 도봉구 창동,,315750,560871,"여행,명소>근린공원",,,
447,창2동마을<b>공원</b>,서울특별시 도봉구 창동 582-22,,315158,560338,"여행,명소>근린공원",,,
448,도봉구민회관쉼터,서울특별시 도봉구 창동 303,서울특별시 도봉구 도봉로 552 도봉구민회관,315360,561787,"여행,명소>근린공원",,,
449,월천근린<b>공원</b>,서울특별시 도봉구 창동,,316452,560990,"여행,명소>근린공원",,,
450,창5동마을마당,서울특별시 도봉구 창동  700-87,,315371,561513,"여행,명소>근린공원",,,
451,반송<b>공원</b>,서울특별시 도봉구 창동 산154-1,,316005,560826,"여행,명소>자연공원",,,
452,창동역사문화<b>공원</b>,서울특별시 도봉구 창동 303,서울특별시 도봉구 도봉로 552,315353,561746,"여행,명소>도립공원",,,
453,밤골어린이<b>공원</b>,서울특별시 도봉구 창동,,315986,561141,"레져,체육시설>공원",,,
454,반석어린이<b>공원</b>,서울특별시 도봉구 창동,,315590,560968,"레져,체육시설>공원",,,
455,다람쥐어린이<b>공원</b>,서울특별시 도봉구 창동,,315033,560762,"레져,체육시설>공원",,,
456,달내어린이<b>공원</b>,서울특별시 도봉구 창동,,315054,560493,"레져,체육시설>공원",,,
457,물방울어린이<b>공원</b>,서울특별시 도봉구 창동,,315587,559912,"레져,체육시설>공원",,,
458,창골어린이<b>공원</b>,서울특별시 도봉구 창동,,316186,560456,"레져,체육시설>공원",,,
459,다람쥐어린이<b>공원</b>창의놀이터,서울특별시 도봉구 창동,,315030,560763,"레져,체육시설>공원",,,
460,창원어린이<b>공원</b>,서울특별시 도봉구 창동,,315516,561626,"레져,체육시설>공원",,,
461,장미어린이<b>공원</b>,서울특별시 도봉구 창동,,315150,559979,"레져,체육시설>공원",,,
462,꿈동산어린이<b>공원</b>,서울특별시 도봉구 창동,,315207,561310,"레져,체육시설>공원",,,
463,창골어린이<b>공원</b>창의놀이터,서울특별시 도봉구 창동,,316239,560514,"레져,체육시설>공원",,,
464,신창어린이<b>공원</b>,서울특별시 도봉구 창동,,315547,560186,"레져,체육시설>공원",,,
465,미화어린이<b>공원</b>,서울특별시 도봉구 창동,,315464,561838,"레져,체육시설>공원",,,
466,유만어린이<b>공원</b>,서울특별시 도봉구 창동,,316628,561324,"레져,체육시설>공원",,,
467,은행나무어린이<b>공원</b>,서울특별시 도봉구 창동,,315814,561240,"레져,체육시설>공원",,,
468,효자어린이<b>공원</b>,서울특별시 도봉구 창동,,316453,561295,"레져,체육시설>공원",,,
469,창동주공18단지아파트<b>공원</b>,서울특별시 도봉구 창동,,316539,560930,"레져,체육시설>공원",,,
470,뱃골어린이<b>공원</b>,서울특별시 도봉구 창동,,315950,560894,"레져,체육시설>공원",,,
471,모랫어린이<b>공원</b>,서울특별시 도봉구 창동,,316505,560928,"레져,체육시설>공원",,,
472,북한산국립<b>공원</b>,서울특별시 도봉구 도봉동,,315220,565644,"여행,명소>국립공원",,,
473,별별모험놀이터,서울특별시 도봉구 도봉동 산68-13,,315459,564904,"여행,명소>자연공원",,02-2091-3782,
474,다락원체육<b>공원</b>,서울특별시 도봉구 도봉동 1-1,서울특별시 도봉구 마들로 932 평화문화진지,316205,565922,"지역명소>도시,테마공원",,,https://www.dobongsiseol.or.kr/contents/culture8.html?menu1=3&menu2=1
475,서원어린이<b>공원</b>,서울특별시 도봉구 도봉동,,315820,565041,"여행,명소>근린공원",,,
476,도봉1동2마을마당,서울특별시 도봉구 도봉동  203-5,,315598,565305,"여행,명소>근린공원",,,
477,도봉2동마을마당,서울특별시 도봉구 도봉동  630-2,,316310,564249,"여행,명소>근린공원",,,
478,갈대밭어린이<b>공원</b>,서울특별시 도봉구 도봉동,,316027,563986,"레져,체육시설>공원",,,
479,새동네어린이<b>공원</b>,서울특별시 도봉구 도봉동,,315809,565610,"레져,체육시설>공원",,,
480,상상어린이<b>공원</b>,서울특별시 도봉구 도봉동,,315970,565246,"레져,체육시설>공원",,,
481,해태어린이<b>공원</b>,서울특별시 도봉구 도봉동,,315608,563726,"레져,체육시설>공원",,,
482,누원어린이<b>공원</b>,서울특별시 도봉구 도봉동,,316406,564654,"레져,체육시설>공원",,,
483,무수어린이<b>공원</b>,서울특별시 도봉구 도봉동,,315761,564681,"레져,체육시설>공원",,,
484,비석골근린<b>공원</b>,서울특별시 노원구 월계동,,316231,559167,"여행,명소>근린공원",,,
485,초안산체육<b>공원</b>,서울특별시 노원구 월계동,,316458,560056,"지역명소>도시,테마공원",,,
486,각심어린이<b>공원</b>,서울특별시 노원구 월계동,,316480,559008,"레져,체육시설>공원",,,
487,한내근린<b>공원</b>,서울특별시 노원구 월계동  ,,318042,558218,"여행,명소>근린공원",,,
488,월계근린<b>공원</b>,서울특별시 노원구 월계동,,316963,558515,"여행,명소>근린공원",,,
489,석계역문화<b>공원</b>,서울특별시 노원구 월계동,,317582,557412,"여행,명소>근린공원",,,
490,소곶네어린<b>공원</b>,서울특별시 노원구 월계동,,317356,558051,"여행,명소>근린공원",,,
491,우이천변가로<b>공원</b>,서울특별시 노원구 월계동 860-15,,316291,558532,"여행,명소>근린공원",,,
492,연촌<b>공원</b>,서울특별시 노원구 월계동,,317462,558866,"여행,명소>근린공원",,,
493,우이천변녹화거리,서울특별시 노원구 월계동,,315986,558898,"여행,명소>근린공원",,,
494,월계어린이<b>공원</b>,서울특별시 노원구 월계동,,317322,557988,"레져,체육시설>공원",,,
495,신창어린이<b>공원</b>,서울특별시 노원구 월계동,,316496,558742,"레져,체육시설>공원",,,
496,초안어린이<b>공원</b>,서울특별시 노원구 월계동,,316484,559494,"레져,체육시설>공원",,,
497,매봉어린이<b>공원</b>,서울특별시 노원구 월계동,,317151,559394,"레져,체육시설>공원",,,
498,벼루어린이<b>공원</b>,서울특별시 노원구 월계동,,316911,558162,"레져,체육시설>공원",,,
499,월계동풍림아이원아파트<b>공원</b>,서울특별시 노원구 월계동,,317806,557540,"레져,체육시설>공원",,,
500,은하수어린이<b>공원</b>,서울특별시 노원구 월계동,,315828,559065,"레져,체육시설>공원",,,
501,안골어린이<b>공원</b>,서울특별시 노원구 월계동,,316478,559149,"레져,체육시설>공원",,,
502,연지어린이<b>공원</b>,서울특별시 노원구 월계동,,316615,558838,"레져,체육시설>공원",,,
503,월계주공2단지아파트<b>공원</b>,서울특별시 노원구 월계동,,316646,558857,"레져,체육시설>공원",,,
504,<b>공릉동</b>근린<b>공원</b>,서울특별시 노원구 공릉동 63,,319531,558006,"여행,명소>근린공원",,,
505,<b>공릉동</b>마을마당<b>공원</b>,서울특별시 노원구 공릉동 230-9,,319405,558499,"여행,명소>근린공원",,,
506,화랑대 철도<b>공원</b>,서울특별시 노원구 공릉동 29-51,,320120,558367,"여행,명소>도시,테마공원",,02-2116-3777,
507,무지개<b>공원</b>,서울특별시 노원구 공릉동,,319276,557980,"여행,명소>근린공원",,,
508,솔밭근린<b>공원</b>,서울특별시 노원구 공릉동,,319700,558243,"여행,명소>근린공원",,,
509,개미어린이<b>공원</b>,서울특별시 노원구 공릉동,,318790,557991,"레져,체육시설>공원",,,
510,송림어린이<b>공원</b>,서울특별시 노원구 공릉동,,319613,558701,"레져,체육시설>공원",,,
511,나래어린이<b>공원</b>,서울특별시 노원구 공릉동,,318163,558699,"레져,체육시설>공원",,,
512,샘말<b>공원</b>,서울특별시 노원구 공릉동,,318553,558354,"여행,명소>근린공원",,,
513,해오라기어린이<b>공원</b>,서울특별시 노원구 공릉동,,318658,558530,"레져,체육시설>공원",,,
514,별빛어린이<b>공원</b>,서울특별시 노원구 공릉동,,318288,557826,"레져,체육시설>공원",,,
515,한무리<b>공원</b>,서울특별시 노원구 공릉동,,318418,559102,"여행,명소>근린공원",,,
516,옹달샘어린이<b>공원</b>,서울특별시 노원구 공릉동,,319065,557994,"레져,체육시설>공원",,,
517,충숙근린<b>공원</b>,서울특별시 노원구 하계동 255,서울특별시 노원구 한글비석로 168,318766,560210,"여행,명소>근린공원",,,
518,골마을근린<b>공원</b>,서울특별시 노원구 하계동 251-8,서울특별시 노원구 한글비석로 107,318469,560015,"여행,명소>근린공원",,,
519,한글비근린<b>공원</b>,서울특별시 노원구 하계동 288-2,,318513,560666,"여행,명소>근린공원",,,
520,하계어린이<b>공원</b>,서울특별시 노원구 하계동,,318049,559289,"레져,체육시설>공원",,,
521,경춘숲<b>공원</b>,서울특별시 노원구 하계동,,317997,559236,"여행,명소>근린공원",,,
522,국화<b>공원</b>,서울특별시 노원구 하계동,,318648,559809,"여행,명소>근린공원",,,
523,해바라기어린이<b>공원</b>,서울특별시 노원구 하계동,,318248,559578,"레져,체육시설>공원",,,
524,중평어린이<b>공원</b>,서울특별시 노원구 하계동,,317526,559831,"레져,체육시설>공원",,,
525,국화어린이<b>공원</b>,서울특별시 노원구 하계동,,318660,559827,"레져,체육시설>공원",,,
526,중현어린이<b>공원</b>,서울특별시 노원구 하계동,,317717,559257,"레져,체육시설>공원",,,
527,공작<b>공원</b>,서울특별시 노원구 하계동,,318484,559759,"레져,체육시설>공원",,,
528,목련<b>공원</b>,서울특별시 노원구 하계동,,318508,559712,"레져,체육시설>공원",,,
529,뻐꾸기어린이<b>공원</b>,서울특별시 노원구 하계동,,318535,560419,"레져,체육시설>공원",,,
530,중평어린이<b>공원</b>창의놀이터,서울특별시 노원구 하계동,,317528,559832,"레져,체육시설>공원",,,
531,수락산당고개지구<b>공원</b>,서울특별시 노원구 상계동 113-2,서울특별시 노원구 상계로 273,318759,563386,"여행,명소>근린공원",,,
532,상계근린<b>공원</b>,서울특별시 노원구 상계동,,316416,563390,"여행,명소>근린공원",,,
533,당현천근린<b>공원</b>,서울특별시 노원구 상계동,,317553,561028,"여행,명소>근린공원",,,
534,천상병<b>공원</b>,서울특별시 노원구 상계동 1006-4,,317210,563972,"여행,명소>도시,테마공원",,,
535,온수근린<b>공원</b>,서울특별시 노원구 상계동,,317598,562496,"여행,명소>근린공원",,,
536,불암허브<b>공원</b>,서울특별시 노원구 상계동 1275-4,,318974,562875,"여행,명소>도시,테마공원",,,
537,느티울근린<b>공원</b>,서울특별시 노원구 상계동,,317092,561193,"여행,명소>근린공원",,,
538,햇빛<b>공원</b>,서울특별시 노원구 상계동 644,,317346,563126,"여행,명소>근린공원",,,
539,마들근린<b>공원</b>,서울특별시 노원구 상계동 770-2,서울특별시 노원구 덕릉로 450 주차장. 주차장관리소,317276,560658,"여행,명소>근린공원",,,
540,원터근린<b>공원</b>,서울특별시 노원구 상계동,,317665,561344,"여행,명소>근린공원",,,
541,한아름<b>공원</b>,서울특별시 노원구 상계동,,317374,562107,"여행,명소>근린공원",,,
542,벽운근린<b>공원</b>,서울특별시 노원구 상계동,,317075,564670,"여행,명소>근린공원",,,
543,코스모스<b>공원</b>,서울특별시 노원구 상계동,,319313,563222,"여행,명소>근린공원",,,
544,무궁화<b>공원</b>,서울특별시 노원구 상계동,,318100,562981,"여행,명소>근린공원",,,
545,수락산<b>공원</b>,서울특별시 노원구 상계동,,318900,564737,"여행,명소>근린공원",,,
546,반디<b>공원</b>,서울특별시 노원구 상계동,,316774,562706,"여행,명소>근린공원",,,
547,상록수<b>공원</b>,서울특별시 노원구 상계동,,316634,562729,"여행,명소>근린공원",,,
548,용화<b>공원</b>,서울특별시 노원구 상계동,,316952,562272,"여행,명소>근린공원",,,
549,민들레<b>공원</b>,서울특별시 노원구 상계동 667,서울특별시 노원구 노원로 564 상계주공10단지아파트,316925,562699,"여행,명소>근린공원",,,
550,불암산자연<b>공원</b>,서울특별시 노원구 상계동 산173-3,서울특별시 노원구 덕릉로112길 56-24,319180,562810,"여행,명소>자연,생태공원",,,
551,참새어린이<b>공원</b>,서울특별시 노원구 상계동,,316737,563027,"레져,체육시설>공원",,,
552,사랑어린이<b>공원</b>,서울특별시 노원구 상계동,,317265,560949,"레져,체육시설>공원",,,
553,철쭉어린이<b>공원</b>,서울특별시 노원구 상계동,,316547,564350,"레져,체육시설>공원",,,
554,코스모스어린이<b>공원</b>,서울특별시 노원구 상계동,,319320,563239,"레져,체육시설>공원",,,
555,새마을어린이<b>공원</b>,서울특별시 노원구 상계동,,316624,564529,"레져,체육시설>공원",,,
556,샛말어린이<b>공원</b>,서울특별시 노원구 상계동,,317087,564180,"레져,체육시설>공원",,,
557,갈원어린이<b>공원</b>,서울특별시 노원구 상계동,,319320,563470,"레져,체육시설>공원",,,
558,희망어린이<b>공원</b>,서울특별시 노원구 상계동,,318934,563751,"레져,체육시설>공원",,,
559,청암2단지아파트어린이<b>공원</b>,서울특별시 노원구 상계동,,318916,562844,"레져,체육시설>공원",,,
560,봉숭아어린이<b>공원</b>,서울특별시 노원구 상계동,,317152,563285,"레져,체육시설>공원",,,
561,중계근린<b>공원</b>,서울특별시 노원구 중계동 507-3,서울특별시 노원구 동일로 1229 노원구민회관,317733,560156,"여행,명소>근린공원",,,
562,등나무근린<b>공원</b>,서울특별시 노원구 중계동 508-1,,317855,560219,"여행,명소>근린공원",,,
563,로보카폴리어린이교통<b>공원</b>,서울특별시 노원구 중계동 500,서울특별시 노원구 덕릉로 483,317489,560780,"여행,명소>테마공원",,,
564,노해근린<b>공원</b>,서울특별시 노원구 중계동,,318187,561110,"여행,명소>근린공원",,,
565,삿갓봉근린<b>공원</b>,서울특별시 노원구 중계동 356,서울특별시 노원구 한글비석로 346 노원구어린이도서관,318685,562136,"여행,명소>근린공원",,,
566,양지근린<b>공원</b>,서울특별시 노원구 중계동,,318618,560947,"여행,명소>근린공원",,,
567,가재울근린<b>공원</b>,서울특별시 노원구 중계동,,317813,561132,"여행,명소>근린공원",,,
568,백합어린이<b>공원</b>,서울특별시 노원구 중계동 514-4,,318092,561101,"여행,명소>근린공원",,,
569,당현<b>공원</b>,서울특별시 노원구 중계동,,318576,562395,"여행,명소>근린공원",,,
570,전주동<b>공원</b>,서울특별시 노원구 중계동,,318466,562315,"여행,명소>근린공원",,,
571,들국화어린이<b>공원</b>,서울특별시 노원구 중계동,,317361,560623,"레져,체육시설>공원",,,
572,광석어린이<b>공원</b>,서울특별시 노원구 중계동,,318958,561132,"레져,체육시설>공원",,,
573,갓바위<b>공원</b>,서울특별시 노원구 중계동,,318923,562098,"레져,체육시설>공원",,,
574,은평평화<b>공원</b>,서울특별시 은평구 녹번동,,305119,556458,"여행,명소>근린공원",,,
575,녹번서<b>공원</b>,서울특별시 은평구 녹번동 100-108,,305483,556336,"여행,명소>근린공원",,02-351-8002,
576,녹초<b>공원</b>,서울특별시 은평구 녹번동,,305580,556312,"여행,명소>근린공원",,,
577,독바위<b>공원</b>,서울특별시 은평구 녹번동 산1-1,서울특별시 은평구 진흥로 290,306549,556526,"여행,명소>근린공원",,,
578,새록어린이<b>공원</b>,서울특별시 은평구 녹번동,,305163,556289,"레져,체육시설>공원",,,
579,양천리누리터어린이<b>공원</b>,서울특별시 은평구 녹번동,,306106,556535,"레져,체육시설>공원",,,
580,신록어린이<b>공원</b>,서울특별시 은평구 녹번동,,306427,556402,"레져,체육시설>공원",,,
581,호연어린이<b>공원</b>,서울특별시 은평구 녹번동,,305810,556455,"레져,체육시설>공원",,,
582,불광근린<b>공원</b>,서울특별시 은평구 불광동,,305729,557932,"여행,명소>근린공원",,,
583,향림근린<b>공원</b>,서울특별시 은평구 불광동,,305228,559112,"여행,명소>근린공원",,,
584,요산<b>공원</b>,서울특별시 은평구 불광동,,305988,557880,"여행,명소>근린공원",,,
585,연신초교앞마을마당,서울특별시 은평구 불광동,,305655,558820,"여행,명소>근린공원",,,
586,북한산생태<b>공원</b>,서울특별시 은평구 불광동 산42-5,,306614,557091,"여행,명소>자연,생태공원",,,
587,연신어린이<b>공원</b>,서울특별시 은평구 불광동,,305304,558038,"레져,체육시설>공원",,,
588,관동어린이<b>공원</b>,서울특별시 은평구 불광동,,305702,557364,"레져,체육시설>공원",,,
589,새장골어린이<b>공원</b>,서울특별시 은평구 불광동,,305414,558657,"레져,체육시설>공원",,,
590,불광어린이<b>공원</b>,서울특별시 은평구 불광동,,305860,557660,"레져,체육시설>공원",,,
591,가람어린이<b>공원</b>,서울특별시 은평구 불광동,,305347,558783,"레져,체육시설>공원",,,
592,시내어린이<b>공원</b>,서울특별시 은평구 불광동,,305515,558612,"레져,체육시설>공원",,,
593,연신내물빛<b>공원</b>,서울특별시 은평구 갈현동,,304921,557969,"여행,명소>근린공원",,,
594,역촌<b>공원</b>,서울특별시 은평구 갈현동 산145-29,,303763,557025,"여행,명소>근린공원",,02-351-8002,
595,서갈현<b>공원</b>,서울특별시 은평구 갈현동,,304493,558256,"여행,명소>근린공원",,,
596,길마어린이<b>공원</b>,서울특별시 은평구 갈현동,,304479,557490,"레져,체육시설>공원",,,
597,좌월어린이<b>공원</b>,서울특별시 은평구 갈현동,,304269,557785,"레져,체육시설>공원",,,
598,갈곡리어린이<b>공원</b>,서울특별시 은평구 갈현동,,304538,558513,"레져,체육시설>공원",,,
599,박석어린이<b>공원</b>,서울특별시 은평구 갈현동,,304740,558662,"레져,체육시설>공원",,,
600,궁말어린이<b>공원</b>,서울특별시 은평구 갈현동,,303876,557741,"레져,체육시설>공원",,,
601,<b>구산동</b>마을<b>공원</b>,서울특별시 은평구 구산동 340-7,,303838,557498,"여행,명소>근린공원",,,
602,봉산해맞이<b>공원</b>,서울특별시 은평구 구산동,,303183,557274,"여행,명소>근린공원",,,
603,구산근린<b>공원</b>,서울특별시 은평구 구산동  산47,,303709,556663,"여행,명소>근린공원",,,
604,구현초교앞마을마당,서울특별시 은평구 구산동,,303664,556920,"여행,명소>근린공원",,,
605,대조<b>공원</b>,서울특별시 은평구 대조동,,304843,557577,"여행,명소>근린공원",,,
606,참다래어린이<b>공원</b>,서울특별시 은평구 응암동,,304600,555343,"레져,체육시설>공원",,,
607,응암어린이<b>공원</b>,서울특별시 은평구 응암동,,305144,556032,"레져,체육시설>공원",,,
608,포수동어린이<b>공원</b>,서울특별시 은평구 응암동,,304777,555648,"레져,체육시설>공원",,,
609,응암4동어린이<b>공원</b>,서울특별시 은평구 응암동,,304464,554005,"레져,체육시설>공원",,,
610,다래어린이<b>공원</b>,서울특별시 은평구 응암동,,304735,554432,"레져,체육시설>공원",,,
611,응암1동마을마당<b>공원</b>,서울특별시 은평구 응암동 97-17,,305360,555841,"여행,명소>근린공원",,,
612,응암2동마을마당,서울특별시 은평구 응암동  427-76,,304786,555229,"여행,명소>근린공원",,,
613,응암3동마을마당,서울특별시 은평구 응암동  337-53,,304784,554639,"여행,명소>근린공원",,,
614,연서<b>공원</b>,서울특별시 은평구 역촌동,,304550,556307,"여행,명소>근린공원",,,
615,역촌2동마을마당<b>공원</b>,서울특별시 은평구 역촌동 62-21,,304419,556375,"여행,명소>근린공원",,,
616,역말어린이<b>공원</b>,서울특별시 은평구 역촌동,,304318,556623,"레져,체육시설>공원",,,
617,역마을어린이<b>공원</b>,서울특별시 은평구 역촌동,,304698,555983,"레져,체육시설>공원",,,
618,인조유기비어린이<b>공원</b>,서울특별시 은평구 역촌동,,304532,556813,"레져,체육시설>공원",,,
619,신사근린<b>공원</b>,서울특별시 은평구 신사동,,303964,554986,"여행,명소>근린공원",,,
620,신사동마을마당,서울특별시 은평구 신사동 241-20,,303657,555541,"여행,명소>근린공원",,,
621,새락골어린이<b>공원</b>,서울특별시 은평구 신사동,,304049,555747,"레져,체육시설>공원",,,
622,개나리어린이<b>공원</b>,서울특별시 은평구 신사동,,303469,555369,"레져,체육시설>공원",,,
623,신흥어린이<b>공원</b>,서울특별시 은평구 신사동,,304104,555431,"레져,체육시설>공원",,,
624,증산체육<b>공원</b>,서울특별시 은평구 증산동,,303282,554113,"지역명소>도시,테마공원",,,
625,분토골어린이<b>공원</b>,서울특별시 은평구 증산동,,304081,554392,"레져,체육시설>공원",,,
626,시루뫼어린이<b>공원</b>,서울특별시 은평구 증산동 ,,303615,553971,"레져,체육시설>공원",,,
627,탑골생태<b>공원</b>,서울특별시 은평구 진관동 산63-4,서울특별시 은평구 통일로 1079-26 탑골공원관리사무소,304296,560105,"여행,명소>자연,생태공원",,,
628,진관근린<b>공원</b>,서울특별시 은평구 진관동 산97-3,,306240,560885,"여행,명소>근린공원",,02-351-8002,
629,제각말문화<b>공원</b>,서울특별시 은평구 진관동 104-7,,304819,559310,"여행,명소>자연공원",,,
630,금암문화<b>공원</b>,서울특별시 은평구 진관동,,304719,560781,"여행,명소>근린공원",,,
631,폭포만남의광장,서울특별시 은평구 진관동,,304797,559964,"여행,명소>근린공원",,,
632,박석고개<b>공원</b>,서울특별시 은평구 진관동,,304796,559402,"여행,명소>근린공원",,,
633,독립문어린이<b>공원</b>,서울특별시 서대문구 영천동,,308365,552656,"레져,체육시설>공원",,,
634,서대문독립<b>공원</b>,서울특별시 서대문구 현저동 101,서울특별시 서대문구 통일로 251 독립공원,308046,552914,"여행,명소>테마공원",,,http://parks.seoul.go.kr/independence
635,명수어린이<b>공원</b>,서울특별시 서대문구 북아현동,,307501,551397,"레져,체육시설>공원",,,
636,만우소<b>공원</b>,서울특별시 서대문구 북아현동,,308104,551747,"여행,명소>근린공원",,,
637,북성어린이<b>공원</b>,서울특별시 서대문구 북아현동 216-59,,307578,551217,"레져,체육시설>공원",,,
638,문화<b>공원</b>,서울특별시 서대문구 홍제동,,307353,555216,"여행,명소>근린공원",,,
639,행복한소<b>공원</b>,서울특별시 서대문구 홍제동,,307339,554396,"여행,명소>근린공원",,,
640,하나물빛<b>공원</b>,서울특별시 서대문구 홍제동  ,,307806,555396,"여행,명소>근린공원",,,
641,푸른소<b>공원</b>,서울특별시 서대문구 홍제동,,306401,554126,"여행,명소>근린공원",,,
642,홍제근린<b>공원</b>,서울특별시 서대문구 홍제동 454-2,,307733,555172,"여행,명소>도시,테마공원",,,
643,송죽소<b>공원</b>,서울특별시 서대문구 홍제동,,306363,554271,"여행,명소>근린공원",,,
644,조리소<b>공원</b>,서울특별시 서대문구 홍제동,,307568,555185,"여행,명소>근린공원",,,
645,한마루소<b>공원</b>,서울특별시 서대문구 홍제동,,307449,555169,"여행,명소>근린공원",,,
646,불천어린이<b>공원</b>,서울특별시 서대문구 홍제동,,307277,555503,"레져,체육시설>공원",,,
647,문화촌어린이<b>공원</b>,서울특별시 서대문구 홍제동,,307250,555273,"레져,체육시설>공원",,,
648,상암곡어린이<b>공원</b>,서울특별시 서대문구 홍제동,,306771,553937,"레져,체육시설>공원",,,
649,대현문화<b>공원</b>,서울특별시 서대문구 대현동 146,,307030,551135,"여행,명소>근린공원",,,
650,봉원소<b>공원</b>창의놀이터,서울특별시 서대문구 봉원동,,307059,552415,"레져,체육시설>공원",,,
651,봉원소<b>공원</b>,서울특별시 서대문구 봉원동 51-9,서울특별시 서대문구 봉원사길 65,307052,552430,"여행,명소>근린공원",,,
652,바람산어린이<b>공원</b>,서울특별시 서대문구 창천동 4-54,,306561,551202,"여행,명소>근린공원",,,
653,창용소<b>공원</b>,서울특별시 서대문구 창천동 361,,305525,551453,"여행,명소>근린공원",,,
654,창천문화<b>공원</b>,서울특별시 서대문구 창천동,,306155,551047,"레져,체육시설>공원",,,
655,안산도시자연<b>공원</b>,서울특별시 서대문구 연희동 168-6,서울특별시 서대문구 연희로 248 서대문구청,306962,552617,"여행,명소>자연공원",,,
656,안산도시자연<b>공원</b>,서울특별시 서대문구 연희동,,305720,553022,"여행,명소>자연,생태공원",,,
657,<b>공원</b>,서울특별시 서대문구 연희동,,305999,552635,"여행,명소>근린공원",,,
658,궁동근린<b>공원</b>,서울특별시 서대문구 연희동,,305229,552617,"여행,명소>근린공원",,,
659,궁뜰어린이<b>공원</b>,서울특별시 서대문구 연희동,,305716,552401,"레져,체육시설>공원",,,
660,연서어린이<b>공원</b>,서울특별시 서대문구 연희동,,305079,552765,"레져,체육시설>공원",,,
661,궁동<b>공원</b>,서울특별시 서대문구 연희동 산118-1,서울특별시 서대문구 성산로7길 19-22,305056,552417,"여행,명소>근린공원","<b>서울특별시 서대문구 연희동</b> 위치, 근린<b>공원</b>.",,
662,연희어린이<b>공원</b>,서울특별시 서대문구 연희동,,304926,552286,"레져,체육시설>공원",,,
663,궁뜰어린이<b>공원</b>창의놀이터,서울특별시 서대문구 연희동,,305711,552406,"레져,체육시설>공원",,,
664,다람쥐어린이<b>공원</b>,서울특별시 서대문구 연희동,,306072,553198,"레져,체육시설>공원",,,
665,연희어린이<b>공원</b>창의놀이터,서울특별시 서대문구 연희동,,304927,552289,"레져,체육시설>공원",,,
666,동구물어린이<b>공원</b>,서울특별시 서대문구 연희동,,305504,552674,"레져,체육시설>공원",,,
667,대궐재어린이<b>공원</b>,서울특별시 서대문구 연희동,,306307,552965,"레져,체육시설>공원",,,
668,백련근린<b>공원</b>,서울특별시 서대문구 홍은동,,306056,555428,"여행,명소>근린공원",,,
669,중앙소<b>공원</b>,서울특별시 서대문구 홍은동,,307262,555693,"여행,명소>근린공원",,,
670,백련산근린<b>공원</b>,서울특별시 서대문구 홍은동 산11-2,,305577,554511,"여행,명소>근린공원",,,
671,홍박<b>공원</b>,서울특별시 서대문구 홍은동,,307363,555993,"여행,명소>근린공원",,,
672,정원소<b>공원</b>,서울특별시 서대문구 홍은동 265-139,,305903,554337,"여행,명소>근린공원",,,
673,보은소<b>공원</b>,서울특별시 서대문구 홍은동 48-26,,307180,555268,"여행,명소>근린공원",,,
674,홍이소<b>공원</b>,서울특별시 서대문구 홍은동 9-214,,307523,555611,"여행,명소>근린공원",,,
675,포방골소<b>공원</b>,서울특별시 서대문구 홍은동,,307539,555809,"여행,명소>근린공원",,,
676,답동소<b>공원</b>,서울특별시 서대문구 홍은동,,306036,555168,"여행,명소>근린공원",,,
677,실락어린이<b>공원</b>,서울특별시 서대문구 홍은동,,306869,555191,"레져,체육시설>공원",,,
678,백련어린이<b>공원</b>,서울특별시 서대문구 홍은동,,305173,553893,"레져,체육시설>공원",,,
679,홍남어린이<b>공원</b>,서울특별시 서대문구 홍은동,,305601,553410,"레져,체육시설>공원",,,
680,홍연어린이<b>공원</b>,서울특별시 서대문구 홍은동,,305410,553643,"레져,체육시설>공원",,,
681,성시경숲,서울특별시 서대문구 홍은동 산11-279,,306116,555424,"여행,명소>자연공원",,,
682,홍연어린이<b>공원</b>창의놀이터,서울특별시 서대문구 홍은동,,305408,553641,"레져,체육시설>공원",,,
683,꺼꾸로놀이터,서울특별시 서대문구 북가좌동,,304220,554228,"여행,명소>근린공원",,,
684,근린<b>공원</b>,서울특별시 서대문구 북가좌동,,303967,553914,"여행,명소>근린공원",,,
685,까치소<b>공원</b>,서울특별시 서대문구 북가좌동,,303654,553555,"여행,명소>근린공원",,,
686,은가어린이<b>공원</b>,서울특별시 서대문구 북가좌동,,304763,553935,"레져,체육시설>공원",,,
687,나비울어린이<b>공원</b>,서울특별시 서대문구 북가좌동,,303862,553075,"레져,체육시설>공원",,,
688,신가어린이<b>공원</b>,서울특별시 서대문구 북가좌동,,303787,553680,"레져,체육시설>공원",,,
689,북가좌정원지구어린이<b>공원</b>,서울특별시 서대문구 북가좌동 ,,304523,553610,"레져,체육시설>공원",,,
690,거꾸로어린이<b>공원</b>창의놀이터,서울특별시 서대문구 북가좌동,,304218,554215,"레져,체육시설>공원",,,
691,북가좌정원어린이<b>공원</b>창의놀이터,서울특별시 서대문구 북가좌동,,304526,553613,"레져,체육시설>공원",,,
692,가좌어린이<b>공원</b>,서울특별시 서대문구 남가좌동,,304842,553178,"레져,체육시설>공원",,,
693,삼각소<b>공원</b>,서울특별시 서대문구 남가좌동,,304872,553242,"여행,명소>근린공원",,,
694,가재어린이<b>공원</b>,서울특별시 서대문구 남가좌동,,304740,552869,"레져,체육시설>공원",,,
695,남가좌동삼성래미안1차아파트어린이<b>공원</b>,서울특별시 서대문구 남가좌동,,304610,553390,"레져,체육시설>공원",,,
696,만리배수지<b>공원</b>,서울특별시 마포구 아현동 87-7,서울특별시 마포구 환일7길 16,308449,550791,"여행,명소>근린공원",,,
697,보람어린이<b>공원</b>,서울특별시 마포구 아현동,,307467,550885,"레져,체육시설>공원",,,
698,쌍룡산근린<b>공원</b>,서울특별시 마포구 아현동 768,,307459,550586,"여행,명소>근린공원",,,
699,아현<b>공원</b>,서울특별시 마포구 아현동,,308022,550586,"여행,명소>근린공원",,,
700,쌍룡산어린이<b>공원</b>,서울특별시 마포구 아현동,,307453,550519,"레져,체육시설>공원",,,
701,애오개어린이<b>공원</b>,서울특별시 마포구 아현동,,307448,550736,"레져,체육시설>공원",,,
702,복사꽃어린이<b>공원</b>,서울특별시 마포구 도화동,,307098,549059,"레져,체육시설>공원",,,
703,도화소어린이<b>공원</b>,서울특별시 마포구 도화동,,307014,549302,"레져,체육시설>공원",,,
704,토정어린이<b>공원</b>,서울특별시 마포구 용강동,,306829,549242,"레져,체육시설>공원",,,
705,마포어린이<b>공원</b>,서울특별시 마포구 마포동,,306850,548684,"레져,체육시설>공원",,,
706,경의선<b>공원</b>,서울특별시 마포구 대흥동 325-82,,306813,549869,"여행,명소>근린공원",,,
707,<b>노고산동</b>체육<b>공원</b>,서울특별시 마포구 노고산동,,306749,550710,"지역명소>도시,테마공원",,,
708,신수어린이<b>공원</b>,서울특별시 마포구 신수동,,305998,550330,"레져,체육시설>공원",,,
709,현석마을마당,서울특별시 마포구 현석동,,305955,549428,"여행,명소>근린공원",,,
710,와우<b>공원</b>,서울특별시 마포구 창전동,,305565,550489,"여행,명소>근린공원",,,
711,서강나루<b>공원</b>,서울특별시 마포구 창전동 165-5,,305734,549771,"여행,명소>근린공원",,,
712,와우어린이<b>공원</b>,서울특별시 마포구 상수동,,305237,550194,"레져,체육시설>공원",,,
713,밤섬<b>공원</b>,서울특별시 마포구 신정동,,305801,549504,"여행,명소>근린공원",,,
714,홍익문화<b>공원</b>,서울특별시 마포구 서교동 359,서울특별시 마포구 와우산로21길 19-3,305064,550555,"여행,명소>도시,테마공원",,,
715,서교어린이<b>공원</b>,서울특별시 마포구 서교동,,304367,550521,"레져,체육시설>공원",,,
716,잔다리어린이<b>공원</b>,서울특별시 마포구 서교동,,304137,550827,"레져,체육시설>공원",,,
717,윗잔다리어린이<b>공원</b>,서울특별시 마포구 동교동,,305327,551097,"레져,체육시설>공원",,,
718,동교어린이<b>공원</b>,서울특별시 마포구 동교동,,305077,551444,"레져,체육시설>공원",,,
719,평화<b>공원</b>,서울특별시 마포구 동교동,,305647,551110,"여행,명소>근린공원",,,
720,망원한강<b>공원</b>,서울특별시 마포구 합정동,,303429,550136,"여행,명소>자연공원",,,
721,양화진역사<b>공원</b>,서울특별시 마포구 합정동,,303979,549822,"여행,명소>근린공원",,,
722,양화<b>공원</b>,서울특별시 마포구 합정동,,303741,550362,"여행,명소>근린공원",,,
723,망원 한강<b>공원</b>,서울특별시 마포구 망원동 205-4,서울특별시 마포구 마포나루길 467 한강공원망원지구사무소,302590,550920,"여행,명소>시민공원",,,http://hangang.seoul.go.kr/archives/46737
724,서울함 <b>공원</b>,서울특별시 마포구 망원동 205-5,서울특별시 마포구 마포나루길 407,302777,550738,"여행,명소>도시,테마공원",,02-332-7500,http://www.seoulbattleshippark.com
725,망원유수지체육<b>공원</b>,서울특별시 마포구 망원동,,302761,551243,"지역명소>도시,테마공원",,,
726,마포쌈지마당,서울특별시 마포구 망원동,,302883,551181,"여행,명소>근린공원",,,
727,한마음어린이<b>공원</b>,서울특별시 마포구 망원동,,303716,550833,"레져,체육시설>공원",,,
728,망원새싹어린이<b>공원</b>,서울특별시 마포구 망원동,,302885,551338,"레져,체육시설>공원",,,
729,경의선숲길<b>공원</b>,서울특별시 마포구 연남동  ,,305047,551630,"여행,명소>근린공원",,,
730,느티어린이<b>공원</b>,서울특별시 마포구 연남동,,304679,551376,"레져,체육시설>공원",,,
731,은행어린이<b>공원</b>,서울특별시 마포구 연남동,,304989,551928,"레져,체육시설>공원",,,
732,서부<b>공원</b>녹지사업소,서울특별시 마포구 성산동 390-1,서울특별시 마포구 월드컵로 243-60 월드컵공원관리사업소,302883,551833,"여행,명소>도시,테마공원",,,
733,성산근린<b>공원</b>,서울특별시 마포구 성산동,,303997,551640,"여행,명소>근린공원",,,
734,다솜어린이<b>공원</b>,서울특별시 마포구 성산동,,304370,551700,"레져,체육시설>공원",,,
735,희망의숲,서울특별시 마포구 성산동,,302797,551714,"여행,명소>근린공원",,,
736,큰길어린이<b>공원</b>,서울특별시 마포구 성산동,,303755,552282,"레져,체육시설>공원",,,
737,하늘<b>공원</b>,서울특별시 마포구 상암동 482,서울특별시 마포구 하늘공원로 95,301704,552291,"여행,명소>자연,생태공원",,,
738,난지 한강<b>공원</b>,서울특별시 마포구 상암동 487-257,서울특별시 마포구 한강난지로 162 한강공원 난지안내센터,300762,552268,"여행,명소>시민공원",,,http://hangang.seoul.go.kr/archives/46777
739,월드컵<b>공원</b>,서울특별시 마포구 상암동 481-6,서울특별시 마포구 하늘공원로 108-1,301166,552768,"여행,명소>테마공원",,,http://parks.seoul.go.kr/worldcuppark
740,평화의<b>공원</b>,서울특별시 마포구 상암동,,302545,551713,"여행,명소>도시,테마공원",,,
741,노을<b>공원</b>,서울특별시 마포구 상암동,,300812,553084,"여행,명소>도시,테마공원",,02-120,http://parks.seoul.go.kr/template/sub/worldcuppark.do
742,난지천<b>공원</b>,서울특별시 마포구 상암동,,301894,552779,"여행,명소>도시,테마공원",,,
743,물빛문화<b>공원</b>,서울특별시 마포구 상암동,,302495,553617,"여행,명소>근린공원",,,
744,DMC문화<b>공원</b>,서울특별시 마포구 상암동,,302350,553452,"여행,명소>근린공원",,,
745,구룡근린<b>공원</b>,서울특별시 마포구 상암동 1583,서울특별시 마포구 월드컵북로 456,301590,554000,"여행,명소>근린공원",,,
746,가온문화<b>공원</b>,서울특별시 마포구 상암동,,301946,553887,"여행,명소>근린공원",,,
747,상암근린<b>공원</b>,서울특별시 마포구 상암동,,301789,553228,"여행,명소>근린공원",,,
748,부엉이근린<b>공원</b>,서울특별시 마포구 상암동,,301594,554283,"여행,명소>근린공원",,,
749,매봉산근린<b>공원</b>,서울특별시 마포구 상암동,,302623,552968,"여행,명소>근린공원",,,
750,소녀들을 기억하는 숲,서울특별시 마포구 상암동  1535,서울특별시 마포구 증산로 32,302493,551773,"여행,명소>테마공원",,,https://treepla.net/project/nabi_forest
751,새누리어린이<b>공원</b>,서울특별시 마포구 상암동,,302875,553162,"레져,체육시설>공원",,,
752,휴암어린이<b>공원</b>,서울특별시 마포구 상암동,,302660,553343,"레져,체육시설>공원",,,
753,코스타리카광장,서울특별시 마포구 상암동,,303026,553098,"여행,명소>근린공원",,,
754,박시환숲,서울특별시 마포구 상암동  1535,서울특별시 마포구 증산로 32 안내소,302558,551776,"여행,명소>도시,테마공원",,02-1987-0730,
755,귀리어린이<b>공원</b>,서울특별시 마포구 상암동,,301350,553833,"레져,체육시설>공원",,,
756,물치어린이<b>공원</b>,서울특별시 마포구 상암동,,301968,553406,"레져,체육시설>공원",,,
757,휴암문화<b>공원</b>,서울특별시 마포구 상암동,,301316,554012,"여행,명소>근린공원",,,
758,난지한강<b>공원</b>특화사업공사,서울특별시 마포구 상암동,,300839,552219,"여행,명소>근린공원",,,
759,양천<b>공원</b>,서울특별시 양천구 신정동 320,서울특별시 양천구 목동동로 111,300161,546821,"여행,명소>근린공원",,,
760,갈산<b>공원</b>,서울특별시 양천구 신정동 산75-21,,300205,545713,"여행,명소>도시,테마공원",,,
761,양천구 신트리<b>공원</b>,서울특별시 양천구 신정동 310-7,,299105,546441,"여행,명소>근린공원",,,
762,양천해누리체육<b>공원</b>,서울특별시 양천구 신정동 330-4,,300466,546074,"지역명소>도시,테마공원",,02-2652-3453,http://www.ycs.or.kr/
763,연의생태학습관,서울특별시 양천구 신정동 1320-9,서울특별시 양천구 신정이펜1로 12,297135,546145,"여행,명소>자연,생태공원",,02-2603-0203,
764,힐링생태<b>공원</b>,서울특별시 양천구 신정동 1320-9,서울특별시 양천구 신정이펜1로 12,297161,546211,"여행,명소>자연,생태공원",,,
765,양천구어린이교통<b>공원</b>,서울특별시 양천구 신정동 산74-15,,300315,545897,"여행,명소>도시,테마공원",,02-2652-1582,http://www.ycs.or.kr/
766,계남제1근린<b>공원</b>,서울특별시 양천구 신정동 521,,298353,546368,"여행,명소>근린공원",,,
767,연의근린<b>공원</b>,서울특별시 양천구 신정동,,297014,546460,"지역명소>도시,테마공원",,,
768,넘은들<b>공원</b>,서울특별시 양천구 신정동,,297692,546286,"여행,명소>근린공원",,,
769,연의체육<b>공원</b>,서울특별시 양천구 신정동,,297070,546409,"지역명소>도시,테마공원",,,
770,갈산<b>공원</b>,서울특별시 양천구 신정동,,300149,545481,"여행,명소>근린공원",,,
771,홍익<b>공원</b>,서울특별시 양천구 신정동,,299637,547987,"여행,명소>근린공원",,,
772,세양<b>공원</b>,서울특별시 양천구 신정동,,299761,545556,"여행,명소>근린공원",,,
773,해태어린이<b>공원</b>,서울특별시 양천구 신정동,,299599,547225,"레져,체육시설>공원",,,
774,홍익어린이<b>공원</b>,서울특별시 양천구 신정동,,299637,547988,"레져,체육시설>공원",,,
775,넓은들어린이<b>공원</b>,서울특별시 양천구 신정동,,297569,546080,"레져,체육시설>공원",,,
776,은행정어린이<b>공원</b>,서울특별시 양천구 신정동,,298984,547266,"레져,체육시설>공원",,,
777,꽃사슴어린이<b>공원</b>,서울특별시 양천구 신정동,,298419,547243,"레져,체육시설>공원",,,
778,진주어린이<b>공원</b>,서울특별시 양천구 신정동,,298998,547775,"레져,체육시설>공원",,,
779,신트리1단지아파트<b>공원</b>,서울특별시 양천구 신정동,,298917,546384,"레져,체육시설>공원",,,
780,하늘마루어린이<b>공원</b>,서울특별시 양천구 신정동,,296915,546253,"레져,체육시설>공원",,,
781,호돌이어린이<b>공원</b>,서울특별시 양천구 신정동,,299536,546202,"레져,체육시설>공원",,,
782,사슴어린이<b>공원</b>,서울특별시 양천구 신정동,,300607,546545,"레져,체육시설>공원",,,
783,새뚝어린이<b>공원</b>,서울특별시 양천구 신정동,,299223,547505,"레져,체육시설>공원",,,
784,기린어린이<b>공원</b>,서울특별시 양천구 신정동,,300514,546323,"레져,체육시설>공원",,,
785,푸른어린이<b>공원</b>,서울특별시 양천구 신정동,,297469,546094,"레져,체육시설>공원",,,
786,동개울어린이<b>공원</b>,서울특별시 양천구 신정동,,299123,547905,"레져,체육시설>공원",,,
787,꿈동산어린이<b>공원</b>,서울특별시 양천구 신정동,,300088,547246,"레져,체육시설>공원",,,
788,아랫말어린이<b>공원</b>,서울특별시 양천구 신정동,,299593,547600,"레져,체육시설>공원",,,
789,오구어린이<b>공원</b>,서울특별시 양천구 신정동,,299609,547843,"레져,체육시설>공원",,,
790,신정어린이<b>공원</b>,서울특별시 양천구 신정동,,300726,547083,"레져,체육시설>공원",,,
791,앞산어린이<b>공원</b>,서울특별시 양천구 신정동,,299301,547755,"레져,체육시설>공원",,,
792,음골어린이<b>공원</b>,서울특별시 양천구 신정동,,298669,547873,"레져,체육시설>공원",,,
793,안산어린이<b>공원</b>,서울특별시 양천구 신정동,,299104,547550,"레져,체육시설>공원",,,
794,까치어린이<b>공원</b>,서울특별시 양천구 신정동,,300155,546473,"레져,체육시설>공원",,,
795,단지<b>공원</b>,서울특별시 양천구 신정동,,298913,547027,"레져,체육시설>공원",,,
796,꿈나래어린이<b>공원</b>,서울특별시 양천구 신정동,,300281,546622,"레져,체육시설>공원",,,
797,양명어린이<b>공원</b>,서울특별시 양천구 신정동,,298943,546965,"레져,체육시설>공원",,,
798,학마을어린이<b>공원</b>,서울특별시 양천구 신정동,,297982,545860,"레져,체육시설>공원",,,
799,신이어린이<b>공원</b>,서울특별시 양천구 신정동,,297429,546240,"레져,체육시설>공원",,,
800,다람쥐어린이<b>공원</b>,서울특별시 양천구 신정동,,299950,546313,"레져,체육시설>공원",,,
801,목련어린이<b>공원</b>,서울특별시 양천구 신정동,,299264,546093,"레져,체육시설>공원",,,
802,목동9단지아파트<b>공원</b>,서울특별시 양천구 신정동,,299835,547066,"레져,체육시설>공원",,,
803,푸른마을2단지아파트<b>공원</b>,서울특별시 양천구 신정동,,297252,546350,"레져,체육시설>공원",,,
804,파리<b>공원</b>,서울특별시 양천구 목동 906,서울특별시 양천구 목동동로 363 파리공원,300895,548683,"여행,명소>도시,테마공원",,,
805,오목<b>공원</b>,서울특별시 양천구 목동 921,서울특별시 양천구 목동서로 159-2,300611,547890,"여행,명소>도시,테마공원",,,
806,달마을<b>공원</b>,서울특별시 양천구 목동,,300177,549619,"여행,명소>근린공원",,,
807,목마<b>공원</b>,서울특별시 양천구 목동,,301713,549036,"여행,명소>근린공원",,,
808,오목수변<b>공원</b>,서울특별시 양천구 목동,,300978,547537,"여행,명소>도시,테마공원",,,
809,목동근린<b>공원</b>,서울특별시 양천구 목동 517,,301158,549967,"여행,명소>근린공원",,,
810,용왕산근린<b>공원</b>,서울특별시 양천구 목동 200,서울특별시 양천구 목동중앙로 143,301075,549568,"여행,명소>근린공원",,,
811,장미<b>공원</b>,서울특별시 양천구 목동,,301427,548527,"여행,명소>근린공원",,,
812,목3동소<b>공원</b>,서울특별시 양천구 목동,,299882,549723,"여행,명소>근린공원",,,
813,<b>공원</b>,서울특별시 양천구 목동,,300872,548281,"여행,명소>자연공원",,,
814,목동현대하이페리온2차아파트하늘<b>공원</b>,서울특별시 양천구 목동,,300404,547534,"레져,체육시설>공원",,,
815,백석어린이<b>공원</b>,서울특별시 양천구 목동,,299908,549828,"레져,체육시설>공원",,,
816,햇님어린이<b>공원</b>,서울특별시 양천구 목동,,301170,549237,"레져,체육시설>공원",,,
817,한두어린이<b>공원</b>,서울특별시 양천구 목동,,299955,550278,"레져,체육시설>공원",,,
818,무궁화어린이<b>공원</b>,서울특별시 양천구 목동,,299839,549452,"레져,체육시설>공원",,,
819,목동현대하이페리온2차아파트테마<b>공원</b>,서울특별시 양천구 목동,,300349,547455,"레져,체육시설>공원",,,
820,은하수어린이<b>공원</b>,서울특별시 양천구 목동,,301090,548507,"레져,체육시설>공원",,,
821,정목어린이<b>공원</b>,서울특별시 양천구 목동,,300193,548929,"레져,체육시설>공원",,,
822,모세미어린이<b>공원</b>,서울특별시 양천구 목동,,300213,548725,"레져,체육시설>공원",,,
823,마장어린이<b>공원</b>,서울특별시 양천구 목동,,299860,548531,"레져,체육시설>공원",,,
824,별님어린이<b>공원</b>,서울특별시 양천구 목동,,300801,549007,"레져,체육시설>공원",,,
825,달님어린이<b>공원</b>,서울특별시 양천구 목동,,301701,548695,"레져,체육시설>공원",,,
826,목동롯데캐슬위너아파트잔디<b>공원</b>,서울특별시 양천구 목동,,300072,550014,"레져,체육시설>공원",,,
827,진달래어린이<b>공원</b>,서울특별시 양천구 목동,,300337,548353,"레져,체육시설>공원",,,
828,나말어린이<b>공원</b>,서울특별시 양천구 목동,,299855,549093,"레져,체육시설>공원",,,
829,무지개어린이<b>공원</b>,서울특별시 양천구 목동,,300065,548026,"레져,체육시설>공원",,,
830,목동현대하이페리온2차아파트테라스<b>공원</b>,서울특별시 양천구 목동,,300320,547418,"레져,체육시설>공원",,,
831,장미어린이<b>공원</b>,서울특별시 양천구 목동,,301461,548620,"레져,체육시설>공원",,,
832,영도어린이<b>공원</b>,서울특별시 양천구 목동,,300591,548699,"레져,체육시설>공원",,,
833,서서울호수<b>공원</b>,서울특별시 양천구 신월동 149-20,서울특별시 양천구 남부순환로64길 26 신월야구장,296823,547942,"여행,명소>도시,테마공원",,02-2604-3004,http://parks.seoul.go.kr/lakepark
834,온수도시자연<b>공원</b>,서울특별시 양천구 신월동,,297441,546394,"여행,명소>자연,생태공원",,,
835,지양산 유아숲체험원,서울특별시 양천구 신월동 331-5,,296637,547256,"여행,명소>자연,생태공원",,,
836,자연<b>공원</b>,서울특별시 양천구 신월동,,296593,547316,"여행,명소>자연,생태공원",,,
837,양천도시농업<b>공원</b>,서울특별시 양천구 신월동  산174-1,,296430,546272,"여행,명소>근린공원",,,
838,오솔길<b>공원</b>,서울특별시 양천구 신월동,,297364,547193,"여행,명소>근린공원",,,
839,장수<b>공원</b>,서울특별시 양천구 신월동,,298452,547355,"여행,명소>근린공원",,,
840,한울근린<b>공원</b>,서울특별시 양천구 신월동,,296991,547029,"여행,명소>근린공원",,,
841,신월<b>공원</b>,서울특별시 양천구 신월동,,297108,546847,"여행,명소>근린공원",,,
842,양지근린<b>공원</b>,서울특별시 양천구 신월동,,296865,547316,"여행,명소>근린공원",,,
843,곰달래<b>공원</b>,서울특별시 양천구 신월동,,297091,547601,"여행,명소>근린공원",,,
844,독서<b>공원</b>,서울특별시 양천구 신월동,,297266,547019,"여행,명소>근린공원",,,
845,곰달래마을마당,서울특별시 양천구 신월동,,297408,548158,"여행,명소>근린공원",,,
846,아동<b>공원</b>,서울특별시 양천구 신월동,,297071,547411,"여행,명소>근린공원",,,
847,경인어린이<b>공원</b>,서울특별시 양천구 신월동,,296686,548413,"레져,체육시설>공원",,,
848,금실어린이<b>공원</b>,서울특별시 양천구 신월동,,297431,546847,"레져,체육시설>공원",,,
849,돌다리어린이<b>공원</b>,서울특별시 양천구 신월동,,297298,548409,"레져,체육시설>공원",,,
850,신월어린이<b>공원</b>,서울특별시 양천구 신월동,,297503,547840,"레져,체육시설>공원",,,
851,송죽어린이<b>공원</b>,서울특별시 양천구 신월동,,297143,549219,"레져,체육시설>공원",,,
852,신대어린이<b>공원</b>,서울특별시 양천구 신월동,,297054,548709,"레져,체육시설>공원",,,
853,꿀벌어린이<b>공원</b>,서울특별시 양천구 신월동,,297842,547052,"레져,체육시설>공원",,,
854,신장어린이<b>공원</b>,서울특별시 양천구 신월동,,297907,547515,"레져,체육시설>공원",,,
855,당뒤어린이<b>공원</b>,서울특별시 양천구 신월동,,296674,549459,"레져,체육시설>공원",,,
856,방아다리어린이<b>공원</b>,서울특별시 양천구 신월동,,296638,549156,"레져,체육시설>공원",,,
857,신오어린이<b>공원</b>,서울특별시 양천구 신월동,,296937,549091,"레져,체육시설>공원",,,
858,남도어린이<b>공원</b>,서울특별시 양천구 신월동,,297739,547547,"레져,체육시설>공원",,,
859,꽃동산어린이<b>공원</b>,서울특별시 양천구 신월동,,298415,547761,"레져,체육시설>공원",,,
860,문화어린이<b>공원</b>,서울특별시 양천구 신월동,,297905,547188,"레져,체육시설>공원",,,
861,태양어린이<b>공원</b>,서울특별시 양천구 신월동,,297541,547558,"레져,체육시설>공원",,,
862,남부어린이<b>공원</b>,서울특별시 양천구 신월동,,296449,548734,"레져,체육시설>공원",,,
863,한아름어린이<b>공원</b>,서울특별시 양천구 신월동,,298248,547034,"레져,체육시설>공원",,,
864,곰달래어린이<b>공원</b>,서울특별시 양천구 신월동,,297487,548032,"레져,체육시설>공원",,,
865,신곡어린이<b>공원</b>,서울특별시 양천구 신월동,,298118,547753,"레져,체육시설>공원",,,
866,강월어린이<b>공원</b>,서울특별시 양천구 신월동,,297345,546562,"레져,체육시설>공원",,,
867,당곡어린이<b>공원</b>,서울특별시 양천구 신월동,,297638,546904,"레져,체육시설>공원",,,
868,강신어린이<b>공원</b>,서울특별시 양천구 신월동,,297526,546588,"레져,체육시설>공원",,,
869,황금내근린<b>공원</b>,서울특별시 강서구 염창동 1485-5,서울특별시 강서구 허준로 221-40,299737,551778,"여행,명소>도시,테마공원",,02-2657-8688,
870,염창<b>공원</b>,서울특별시 강서구 염창동 산24-1,서울특별시 강서구 양천로67길 43 천지연골프연습장,300270,551243,"여행,명소>도시,테마공원",,,
871,백합<b>공원</b>,서울특별시 강서구 염창동,,300305,550479,"여행,명소>근린공원",,,
872,염창근린<b>공원</b>(2021년예정),서울특별시 강서구 염창동  산30-20,,300147,551204,"여행,명소>근린공원",,,
873,이수어린이<b>공원</b>,서울특별시 강서구 염창동,,300732,550161,"레져,체육시설>공원",,,
874,등촌근린<b>공원</b>,서울특별시 강서구 등촌동 687-4,서울특별시 강서구 강서로62길 35,297871,551863,"여행,명소>근린공원",,02-2657-8688,
875,서낭당근린<b>공원</b>,서울특별시 강서구 등촌동 706,서울특별시 강서구 공항대로43길 46,298585,551333,"여행,명소>도시,테마공원",,02-2657-8688,
876,원당근린<b>공원</b>,서울특별시 강서구 등촌동 690-5,서울특별시 강서구 강서로56길 49 원당공원화장실,297889,551470,"여행,명소>근린공원",,,
877,등마루<b>공원</b>,서울특별시 강서구 등촌동,,299244,551037,"여행,명소>근린공원",,,
878,능안<b>공원</b>,서울특별시 강서구 등촌동,,299461,549998,"여행,명소>근린공원",,,
879,백석마을마당,서울특별시 강서구 등촌동,,299623,550328,"여행,명소>근린공원",,,
880,코끼리<b>공원</b>,서울특별시 강서구 등촌동,,298470,551850,"여행,명소>근린공원",,,
881,등서<b>공원</b>,서울특별시 강서구 등촌동,,299005,551391,"여행,명소>근린공원",,,
882,백석어린이<b>공원</b>,서울특별시 강서구 등촌동,,299774,550667,"레져,체육시설>공원",,,
883,새나라어린이<b>공원</b>,서울특별시 강서구 등촌동,,298760,551679,"레져,체육시설>공원",,,
884,도림어린이<b>공원</b>,서울특별시 강서구 등촌동,,299732,550989,"레져,체육시설>공원",,,
885,새벗어린이<b>공원</b>,서울특별시 강서구 등촌동,,297731,551579,"레져,체육시설>공원",,,
886,백합어린이<b>공원</b>,서울특별시 강서구 등촌동,,298158,551411,"레져,체육시설>공원",,,
887,채송화어린이<b>공원</b>,서울특별시 강서구 등촌동,,298233,551794,"레져,체육시설>공원",,,
888,푸르매어린이<b>공원</b>,서울특별시 강서구 등촌동,,298372,551385,"레져,체육시설>공원",,,
889,까치산근린<b>공원</b>,서울특별시 강서구 화곡동,,298083,549059,"여행,명소>근린공원",,,
890,봉제산근린<b>공원</b>,서울특별시 강서구 화곡동,,298729,549511,"여행,명소>근린공원",,,
891,가로<b>공원</b>,서울특별시 강서구 화곡동,,297727,548819,"여행,명소>근린공원",,,
892,백석근린<b>공원</b>,서울특별시 강서구 화곡동,,298686,549868,"여행,명소>근린공원",,,
893,배다리<b>공원</b>,서울특별시 강서구 화곡동,,298415,548385,"여행,명소>근린공원",,,
894,달빛<b>공원</b>,서울특별시 강서구 화곡동,,299702,548281,"여행,명소>근린공원",,,
895,한글<b>공원</b>,서울특별시 강서구 화곡동,,298612,549106,"여행,명소>근린공원",,,
896,백연<b>공원</b>,서울특별시 강서구 화곡동 1002-3,,298749,550453,"여행,명소>도시,테마공원",,,
897,비둘기<b>공원</b>,서울특별시 강서구 화곡동,,298310,549409,"여행,명소>근린공원",,,
898,미리내<b>공원</b>,서울특별시 강서구 화곡동,,297234,550140,"여행,명소>근린공원",,,
899,호돌이<b>공원</b>,서울특별시 강서구 화곡동,,298197,547976,"여행,명소>근린공원",,,
900,바탕골<b>공원</b>,서울특별시 강서구 화곡동,,297228,549789,"여행,명소>근린공원",,,
901,필마<b>공원</b>,서울특별시 강서구 화곡동,,297573,548338,"여행,명소>근린공원",,,
902,대원<b>공원</b>,서울특별시 강서구 화곡동,,297330,549827,"여행,명소>근린공원",,,
903,큰별<b>공원</b>,서울특별시 강서구 화곡동,,298486,549764,"여행,명소>근린공원",,,
904,종달새<b>공원</b>,서울특별시 강서구 화곡동,,299272,548746,"여행,명소>근린공원",,,
905,능골<b>공원</b>,서울특별시 강서구 화곡동,,299045,548901,"여행,명소>근린공원",,,
906,노을<b>공원</b>,서울특별시 강서구 화곡동,,298031,549250,"여행,명소>근린공원",,,
907,곰돌이<b>공원</b>,서울특별시 강서구 화곡동,,298112,548122,"여행,명소>근린공원",,,
908,소나무<b>공원</b>,서울특별시 강서구 화곡동  26-8,서울특별시 강서구 까치산로15길 17 다산빌딩,298389,550057,"여행,명소>근린공원",,,
909,봉제산<b>공원</b>,서울특별시 강서구 화곡동,,299360,549200,"여행,명소>근린공원",,,
910,등마루근린<b>공원</b>(2022년예정),서울특별시 강서구 화곡동  산199,서울특별시 강서구 까치산로28길 33,299122,550694,"여행,명소>근린공원",,,
911,구름<b>공원</b>,서울특별시 강서구 화곡동,,298056,549641,"여행,명소>근린공원",,,
912,범바위<b>공원</b>,서울특별시 강서구 화곡동,,297835,549614,"여행,명소>근린공원",,,
913,화곡배수지체육<b>공원</b>,서울특별시 강서구 화곡동,,299014,549641,"지역명소>도시,테마공원",,,
914,새말<b>공원</b>,서울특별시 강서구 화곡동,,298264,550598,"여행,명소>근린공원",,,
915,산새<b>공원</b>,서울특별시 강서구 화곡동  772,,298613,549967,"여행,명소>근린공원",,,
916,볏골어린이<b>공원</b>,서울특별시 강서구 화곡동,,298073,549442,"레져,체육시설>공원",,,
917,다운어린이<b>공원</b>,서울특별시 강서구 화곡동,,298086,548408,"레져,체육시설>공원",,,
918,안골어린이<b>공원</b>,서울특별시 강서구 화곡동,,298650,548781,"레져,체육시설>공원",,,
919,강서구골말어린이<b>공원</b>,서울특별시 강서구 화곡동,,299093,548526,"레져,체육시설>공원",,,
920,꿈돌이어린이<b>공원</b>,서울특별시 강서구 화곡동,,298164,549920,"레져,체육시설>공원",,,
921,까치어린이<b>공원</b>,서울특별시 강서구 화곡동,,297845,548550,"레져,체육시설>공원",,,
922,효심어린이<b>공원</b>,서울특별시 강서구 화곡동,,297728,548110,"레져,체육시설>공원",,,
923,더부리어린이<b>공원</b>,서울특별시 강서구 화곡동,,298260,548715,"레져,체육시설>공원",,,
924,모태어린이<b>공원</b>,서울특별시 강서구 화곡동,,298512,548103,"레져,체육시설>공원",,,
925,연지어린이<b>공원</b>,서울특별시 강서구 화곡동,,298890,550901,"레져,체육시설>공원",,,
926,하마터어린이<b>공원</b>,서울특별시 강서구 화곡동,,298886,548150,"레져,체육시설>공원",,,
927,뜸부기어린이<b>공원</b>,서울특별시 강서구 화곡동,,299166,548175,"레져,체육시설>공원",,,
928,수명어린이<b>공원</b>,서울특별시 강서구 화곡동,,297185,549369,"레져,체육시설>공원",,,
929,무지개어린이<b>공원</b>,서울특별시 강서구 화곡동,,299556,548600,"레져,체육시설>공원",,,
930,박장어린이<b>공원</b>,서울특별시 강서구 화곡동,,298488,549352,"레져,체육시설>공원",,,
931,대무어린이<b>공원</b>,서울특별시 강서구 화곡동,,298355,549061,"레져,체육시설>공원",,,
932,버들어린이<b>공원</b>,서울특별시 강서구 화곡동,,297783,548295,"레져,체육시설>공원",,,
933,두레어린이<b>공원</b>,서울특별시 강서구 화곡동,,299379,548287,"레져,체육시설>공원",,,
934,천사어린이<b>공원</b>,서울특별시 강서구 화곡동,,297075,550062,"레져,체육시설>공원",,,
935,초롱어린이<b>공원</b>,서울특별시 강서구 화곡동,,297349,549075,"레져,체육시설>공원",,,
936,월정어린이<b>공원</b>,서울특별시 강서구 화곡동,,297320,548752,"레져,체육시설>공원",,,
937,개나리어린이<b>공원</b>,서울특별시 강서구 화곡동,,298060,550203,"레져,체육시설>공원",,,
938,역말어린이<b>공원</b>,서울특별시 강서구 화곡동,,298479,550347,"레져,체육시설>공원",,,
939,화곡3주구어린이<b>공원</b>2,서울특별시 강서구 화곡동,,297724,549852,"레져,체육시설>공원",,,
940,우장산아이파크e편한세상아파트<b>공원</b>,서울특별시 강서구 화곡동,,297594,550422,"레져,체육시설>공원",,,
941,<b>가양동</b>문화<b>공원</b>,서울특별시 강서구 가양동  1499,,298263,552185,"여행,명소>근린공원",,,
942,구암근린<b>공원</b>,서울특별시 강서구 가양동 1471,서울특별시 강서구 허준로5길 42,298843,552373,"여행,명소>근린공원",,,
943,궁산근린<b>공원</b>,서울특별시 강서구 가양동,,297755,553113,"여행,명소>근린공원",,,
944,공암나루근린<b>공원</b>,서울특별시 강서구 가양동 1459-9,서울특별시 강서구 강서로80길 117,298649,552608,"여행,명소>근린공원",,02-2657-8688,
945,무지개어린이<b>공원</b>창의놀이터,서울특별시 강서구 가양동,,298766,552036,"레져,체육시설>공원",,,
946,비둘기<b>공원</b>,서울특별시 강서구 가양동 1489-1,서울특별시 강서구 허준로 230 공중화장실,299732,551420,"여행,명소>근린공원",,,
947,나들이어린이<b>공원</b>창의놀이터,서울특별시 강서구 가양동,,298106,552809,"레져,체육시설>공원",,,
948,가양5단지아파트<b>공원</b>,서울특별시 강서구 가양동,,298995,551897,"레져,체육시설>공원",,,
949,풀피리어린이<b>공원</b>,서울특별시 강서구 가양동,,298996,551876,"레져,체육시설>공원",,,
950,진달래<b>공원</b>,서울특별시 강서구 가양동 1486,서울특별시 강서구 허준로 209 가양7단지아파트,299553,551758,"여행,명소>근린공원",,,
951,나들이어린이<b>공원</b>,서울특별시 강서구 가양동,,298093,552812,"레져,체육시설>공원",,,
952,한강타운아파트<b>공원</b>,서울특별시 강서구 가양동,,298094,552824,"레져,체육시설>공원",,,
953,서울식물원호수<b>공원</b>,서울특별시 강서구 마곡동 811-3,,297242,553202,"여행,명소>자연공원",,,
954,마곡유수지생태<b>공원</b>(2019년12월예정),서울특별시 강서구 마곡동  811-5,,297377,553050,"여행,명소>자연,생태공원",,,
955,예솔어린이<b>공원</b>,서울특별시 강서구 마곡동 743-6,,296183,551892,"여행,명소>자연공원",,,
956,마곡중앙광장,서울특별시 강서구 마곡동 767-2,서울특별시 강서구 마곡중앙5로 9,296555,552194,"여행,명소>근린공원",,02-3665-2707,
957,마곡나루근린<b>공원</b>,서울특별시 강서구 마곡동,,296145,552235,"여행,명소>근린공원",,,
958,마곡하늬<b>공원</b>,서울특별시 강서구 마곡동,,296057,551182,"레져,체육시설>공원",,,
959,서남물재생센터<b>공원</b>어린이놀이터,서울특별시 강서구 마곡동,,296184,553385,"레져,체육시설>공원",,,
960,궁산어린이<b>공원</b>,서울특별시 강서구 마곡동,,297575,552979,"레져,체육시설>공원",,,
961,우장산<b>공원</b>,서울특별시 강서구 내발산동 980-16,서울특별시 강서구 화곡로 302,298140,550850,"여행,명소>도시,테마공원",,,
962,발산근린<b>공원</b>,서울특별시 강서구 내발산동,,296421,550927,"여행,명소>근린공원",,,
963,수정어린이<b>공원</b>,서울특별시 강서구 내발산동,,296692,550809,"레져,체육시설>공원",,,
964,수명산근린<b>공원</b>,서울특별시 강서구 내발산동 748,서울특별시 강서구 강서로45길 131-11 공중화장실,296785,550511,"여행,명소>근린공원",,,
965,마곡수명산파크1단지아파트어린이<b>공원</b>,서울특별시 강서구 내발산동,,296707,550838,"레져,체육시설>공원",,,
966,원당어린이<b>공원</b>,서울특별시 강서구 내발산동,,297894,551211,"레져,체육시설>공원",,,
967,발음어린이<b>공원</b>,서울특별시 강서구 내발산동,,297090,550658,"레져,체육시설>공원",,,
968,신광명어린이<b>공원</b>,서울특별시 강서구 내발산동,,296177,550112,"레져,체육시설>공원",,,
969,우장산힐스테이트아파트<b>공원</b>,서울특별시 강서구 내발산동,,297719,551071,"레져,체육시설>공원",,,
970,광명어린이<b>공원</b>,서울특별시 강서구 외발산동,,296190,550045,"레져,체육시설>공원",,,
971,활주로상상어린이<b>공원</b>,서울특별시 강서구 공항동,,295586,550905,"레져,체육시설>공원",,,
972,다솔어린이<b>공원</b>,서울특별시 강서구 공항동,,295791,550929,"레져,체육시설>공원",,,
973,장미어린이<b>공원</b>,서울특별시 강서구 공항동,,295400,551157,"레져,체육시설>공원",,,
974,근린<b>공원</b>,서울특별시 강서구 공항동,,295241,551055,"여행,명소>근린공원",,,
975,방화근린<b>공원</b>,서울특별시 강서구 방화동 855,서울특별시 강서구 금낭화로 176 방화근린공원관리사무소,295378,553969,"여행,명소>도시,테마공원",,02-2657-8688,
976,강서한강<b>공원</b>강서습지생태<b>공원</b>,서울특별시 강서구 방화동,,295827,554488,"여행,명소>자연,생태공원",,,
977,강서 한강<b>공원</b>,서울특별시 강서구 방화동 2-32,,295556,554624,"여행,명소>시민공원",,,http://hangang.seoul.go.kr/archives/46788
978,롯데몰 김포공항점스카이파크,서울특별시 강서구 방화동 886,서울특별시 강서구 하늘길 38 김포공항. 롯데몰. 스카이시티,294583,552009,"여행,명소>도시,테마공원",,,
979,서남물재생센터<b>공원</b>,서울특별시 강서구 방화동 151,,296027,553318,"여행,명소>근린공원",,,
980,꿩고개<b>공원</b>,서울특별시 강서구 방화동 산110,,295594,553764,"여행,명소>도시,테마공원",,02-2657-8688,
981,새싹어린이교통<b>공원</b>,서울특별시 강서구 방화동,,294999,552598,"여행,명소>근린공원",,02-843-8616,http://www.safelife.or.kr
982,옹기골근린<b>공원</b>,서울특별시 강서구 방화동 842,서울특별시 강서구 양천로 149 화장실,296057,553060,"여행,명소>근린공원",,,
983,정곡소<b>공원</b>,서울특별시 강서구 방화동,,295758,553500,"여행,명소>근린공원",,,
984,근린<b>공원</b>,서울특별시 강서구 방화동,,294786,552347,"여행,명소>근린공원",,,
985,민속놀이마당,서울특별시 강서구 방화동,,295389,554003,"여행,명소>근린공원",,,
986,근린<b>공원</b>,서울특별시 강서구 방화동 산123-7,,295935,553890,"여행,명소>근린공원",,,
987,느티<b>공원</b>,서울특별시 강서구 방화동,,295118,553683,"여행,명소>근린공원",,,
988,쌈지어린이<b>공원</b>,서울특별시 강서구 방화동,,295526,552780,"레져,체육시설>공원",,,
989,도레미어린이<b>공원</b>,서울특별시 강서구 방화동,,295899,552839,"레져,체육시설>공원",,,
990,메아리어린이<b>공원</b>,서울특별시 강서구 방화동,,295469,553595,"레져,체육시설>공원",,,
991,샛별어린이<b>공원</b>,서울특별시 강서구 방화동,,295036,552944,"레져,체육시설>공원",,,
992,목련어린이<b>공원</b>,서울특별시 강서구 방화동,,294878,552092,"레져,체육시설>공원",,,
993,은하수어린이<b>공원</b>,서울특별시 강서구 방화동,,294765,552704,"레져,체육시설>공원",,,
994,긴등어린이<b>공원</b>,서울특별시 강서구 방화동,,295624,552424,"레져,체육시설>공원",,,
995,돌샘어린이<b>공원</b>,서울특별시 강서구 방화동,,295866,553307,"레져,체육시설>공원",,,
996,꿈나무어린이<b>공원</b>,서울특별시 강서구 방화동,,295873,553206,"레져,체육시설>공원",,,
997,문성어린이<b>공원</b>,서울특별시 강서구 방화동,,295554,552070,"레져,체육시설>공원",,,
998,방화삼익4단지아파트<b>공원</b>,서울특별시 강서구 방화동,,295660,553373,"레져,체육시설>공원",,,
999,개화산해맞이<b>공원</b>,서울특별시 강서구 개화동,,294754,553942,"여행,명소>도시,테마공원",,,
1000,내촌어린이<b>공원</b>,서울특별시 강서구 개화동,,294328,553503,"레져,체육시설>공원",,,
1001,은행나무마을마당,서울특별시 강서구 개화동,,294343,553686,"여행,명소>근린공원",,,
1002,신대부석어린이<b>공원</b>,서울특별시 강서구 개화동,,294107,554088,"레져,체육시설>공원",,,
1003,디큐브시티해바라기<b>공원</b>,서울특별시 구로구 신도림동 360-94,,302096,545840,"여행,명소>근린공원",,,
1004,안양천체육<b>공원</b>,서울특별시 구로구 신도림동,,301229,546679,"지역명소>도시,테마공원",,,
1005,구로구어린이교통<b>공원</b>,서울특별시 구로구 신도림동,,300697,545749,"여행,명소>근린공원",,02-2068-9636,
1006,신도림소<b>공원</b>,서울특별시 구로구 신도림동,,300945,545558,"여행,명소>근린공원",,,
1007,신도림대우푸르지오2차아파트<b>공원</b>,서울특별시 구로구 신도림동,,301974,545927,"레져,체육시설>공원",,,
1008,광명햇살광장,서울특별시 구로구 구로동 642-71,,300240,544016,"여행,명소>자연공원",,,
1009,신구로유수지생태<b>공원</b>,서울특별시 구로구 구로동,,300630,543718,"여행,명소>자연,생태공원",,,
1010,다울소<b>공원</b>,서울특별시 구로구 구로동,,301891,543969,"여행,명소>자연공원",,,
1011,구로거리<b>공원</b>,서울특별시 구로구 구로동 50,,301940,545137,"여행,명소>근린공원",,,
1012,신도림테크노근린<b>공원</b>,서울특별시 구로구 구로동,,302147,545679,"여행,명소>근린공원",,,
1013,구로근린<b>공원</b>,서울특별시 구로구 구로동,,302019,544429,"여행,명소>근린공원",,,
1014,거리<b>공원</b>,서울특별시 구로구 구로동,,302210,544717,"여행,명소>근린공원",,,
1015,삼각어린이<b>공원</b>,서울특별시 구로구 구로동,,302230,544947,"레져,체육시설>공원",,,
1016,환경어린이<b>공원</b>,서울특별시 구로구 구로동,,301890,543124,"레져,체육시설>공원",,,
1017,화원어린이<b>공원</b>,서울특별시 구로구 구로동,,301175,544564,"레져,체육시설>공원",,,
1018,ACE<b>공원</b>광장,서울특별시 구로구 구로동,,302509,542664,"레져,체육시설>공원",,,
1019,솔길어린이<b>공원</b>,서울특별시 구로구 구로동,,301214,543620,"레져,체육시설>공원",,,
1020,애경어린이<b>공원</b>,서울특별시 구로구 구로동,,301583,544810,"레져,체육시설>공원",,,
1021,이앤씨벤처드림<b>공원</b>광장,서울특별시 구로구 구로동,,302341,543344,"레져,체육시설>공원",,,
1022,삼각어린이<b>공원</b>창의놀이터,서울특별시 구로구 구로동,,302235,544938,"레져,체육시설>공원",,,
1023,고척근린<b>공원</b>,서울특별시 구로구 고척동 산9-14,서울특별시 구로구 고척로45길 39 구로구민체육센터,298710,545304,"여행,명소>근린공원",,,
1024,덕의근린<b>공원</b>,서울특별시 구로구 고척동,,299073,545588,"여행,명소>근린공원",,,
1025,고척근린소<b>공원</b>,서울특별시 구로구 고척동 164-129,서울특별시 구로구 고척로52가길 58 세곡경로당,298743,545207,"여행,명소>근린공원",,,
1026,노들소<b>공원</b>,서울특별시 구로구 고척동,,300081,544802,"여행,명소>근린공원",,,
1027,무궁화소<b>공원</b>,서울특별시 구로구 고척동,,299865,545355,"여행,명소>근린공원",,,
1028,능골어린이<b>공원</b>창의놀이터,서울특별시 구로구 고척동,,298900,545591,"레져,체육시설>공원",,,
1029,골목어린이<b>공원</b>,서울특별시 구로구 고척동,,298838,545609,"레져,체육시설>공원",,,
1030,삼환로즈빌아파트<b>공원</b>,서울특별시 구로구 고척동,,299224,544581,"레져,체육시설>공원",,,
1031,오금어린이<b>공원</b>,서울특별시 구로구 고척동,,299954,545363,"레져,체육시설>공원",,,
1032,능골어린이<b>공원</b>,서울특별시 구로구 고척동,,298898,545588,"레져,체육시설>공원",,,
1033,고척제4어린이<b>공원</b>,서울특별시 구로구 고척동,,299422,545257,"레져,체육시설>공원",,,
1034,도레미어린이<b>공원</b>,서울특별시 구로구 고척동,,298730,545720,"레져,체육시설>공원",,,
1035,온수<b>공원</b>잣절지구,서울특별시 구로구 개봉동,,297614,545058,"여행,명소>근린공원",,,
1036,개웅산<b>공원</b>,서울특별시 구로구 개봉동,,298373,543599,"여행,명소>근린공원",,,
1037,개봉동과장미<b>공원</b>,서울특별시 구로구 개봉동 345-38,,298909,543512,"여행,명소>근린공원",,,
1038,개봉<b>공원</b>,서울특별시 구로구 개봉동,,298365,543343,"여행,명소>근린공원",,,
1039,참새<b>공원</b>,서울특별시 구로구 개봉동,,297999,545398,"여행,명소>근린공원",,,
1040,개봉근린<b>공원</b>,서울특별시 구로구 개봉동,,298626,544544,"여행,명소>근린공원",,,
1041,가린열<b>공원</b>,서울특별시 구로구 개봉동,,298880,544900,"여행,명소>근린공원",,,
1042,매봉산 잣절<b>공원</b>,서울특별시 구로구 개봉동 45-2,,297495,545067,"여행,명소>자연공원",,,
1043,구로개봉유수지생태<b>공원</b>,서울특별시 구로구 개봉동  195-7,,299702,543967,"여행,명소>자연,생태공원",,,
1044,개웅어린이<b>공원</b>,서울특별시 구로구 개봉동,,298766,543725,"레져,체육시설>공원",,,
1045,소막골어린이<b>공원</b>,서울특별시 구로구 개봉동,,298709,543554,"레져,체육시설>공원",,,
1046,절골어린이<b>공원</b>,서울특별시 구로구 개봉동,,298635,542925,"레져,체육시설>공원",,,
1047,개봉소<b>공원</b>,서울특별시 구로구 개봉동,,298476,544785,"레져,체육시설>공원",,,
1048,온수<b>공원</b>,서울특별시 구로구 오류동,,297361,544873,"여행,명소>도시,테마공원",,,
1049,하늘안추모<b>공원</b>,서울특별시 구로구 오류동,,297985,544332,"여행,명소>자연공원",,,
1050,오류새싹<b>공원</b>,서울특별시 구로구 오류동,,297816,544555,"여행,명소>근린공원",,,
1051,오류역문화<b>공원</b>,서울특별시 구로구 오류동 66,서울특별시 구로구 경인로20가길 24,298096,544331,"여행,명소>시민공원",,,
1052,<b>궁동</b>저수지생태<b>공원</b>,서울특별시 구로구 궁동,,296639,545005,"여행,명소>자연,생태공원",,,
1053,수른어린이<b>공원</b>창의놀이터,서울특별시 구로구 궁동,,296708,544623,"레져,체육시설>공원",,,
1054,삭새어린이<b>공원</b>,서울특별시 구로구 궁동,,296344,544442,"레져,체육시설>공원",,,
1055,수른어린이<b>공원</b>,서울특별시 구로구 궁동,,296707,544621,"레져,체육시설>공원",,,
1056,온수도시자연<b>공원</b>,서울특별시 구로구 온수동 9-44,,296272,544278,"여행,명소>자연,생태공원",,,
1057,온수체육<b>공원</b>,서울특별시 구로구 온수동 산10-4,서울특별시 구로구 부일로1길 58-3,295813,544105,"여행,명소>근린공원",,,
1058,갈매<b>공원</b>,서울특별시 구로구 온수동,,296110,544497,"여행,명소>근린공원",,,
1059,와룡소<b>공원</b>,서울특별시 구로구 온수동,,295988,544646,"여행,명소>근린공원",,,
1060,온수상상어린이<b>공원</b>,서울특별시 구로구 온수동,,295655,544278,"레져,체육시설>공원",,,
1061,천왕근린<b>공원</b>,서울특별시 구로구 천왕동 276,,297695,542139,"여행,명소>근린공원",,,
1062,연지근린<b>공원</b>,서울특별시 구로구 천왕동,,297547,542459,"여행,명소>근린공원",,,
1063,버들어린이<b>공원</b>,서울특별시 구로구 천왕동,,297787,542803,"레져,체육시설>공원",,,
1064,<b>항동</b>근린<b>공원</b>,서울특별시 구로구 항동,,296461,543549,"여행,명소>근린공원",,,
1065,천왕도시자연<b>공원</b>(2019년예정),서울특별시 구로구 항동,,296707,542515,"여행,명소>자연,생태공원",,,
1066,골말<b>공원</b>,서울특별시 금천구 가산동 ,,301543,542888,"여행,명소>근린공원",,,
1067,조마<b>공원</b>,서울특별시 금천구 가산동,,302529,542074,"여행,명소>근린공원",,,
1068,모아래마을마당,서울특별시 금천구 가산동,,301953,541787,"여행,명소>근린공원",,,
1069,골말<b>공원</b>창의놀이터,서울특별시 금천구 가산동,,301545,542893,"레져,체육시설>공원",,,
1070,무아래어린이<b>공원</b>,서울특별시 금천구 가산동,,302301,541828,"레져,체육시설>공원",,,
1071,<b>독산동</b>마을<b>공원</b>,서울특별시 금천구 독산동,,302830,540773,"여행,명소>근린공원",,,
1072,금천체육<b>공원</b>,서울특별시 금천구 독산동 산118-4,,303662,541235,"지역명소>도시,테마공원",,,
1073,금나래중앙<b>공원</b>,서울특별시 금천구 독산동,,302452,540084,"여행,명소>자연공원",,,
1074,감로천생태<b>공원</b>,서울특별시 금천구 독산동 373,,303600,541398,"여행,명소>자연,생태공원",,,
1075,독산근린<b>공원</b>,서울특별시 금천구 독산동 1086,,301458,540764,"여행,명소>근린공원",,,
1076,독산자연<b>공원</b>,서울특별시 금천구 독산동 산9-1,,303697,541819,"여행,명소>자연,생태공원",,,
1077,쌈지어린이<b>공원</b>,서울특별시 금천구 독산동,,303247,541538,"레져,체육시설>공원",,,
1078,철쭉<b>공원</b>,서울특별시 금천구 독산동,,301962,539579,"여행,명소>근린공원",,,
1079,도하<b>공원</b>,서울특별시 금천구 독산동,,302502,540202,"여행,명소>근린공원",,,
1080,두산어린이<b>공원</b>,서울특별시 금천구 독산동 ,,302377,541815,"레져,체육시설>공원",,,
1081,소망<b>공원</b>,서울특별시 금천구 독산동,,303039,541390,"여행,명소>근린공원",,,
1082,구룡<b>공원</b>,서울특별시 금천구 독산동 ,,303151,542317,"여행,명소>근린공원",,,
1083,무지개<b>공원</b>,서울특별시 금천구 독산동,,302985,540662,"여행,명소>근린공원",,,
1084,푸른골어린이<b>공원</b>,서울특별시 금천구 독산동,,303180,541063,"레져,체육시설>공원",,,
1085,말뫼마을마당,서울특별시 금천구 독산동,,302279,540982,"여행,명소>근린공원",,,
1086,독산본동다목적광장,서울특별시 금천구 독산동,,303073,542157,"여행,명소>근린공원",,,
1087,다람쥐<b>공원</b>,서울특별시 금천구 독산동,,302086,541259,"레져,체육시설>공원",,,
1088,정훈<b>공원</b>,서울특별시 금천구 독산동,,303456,540961,"여행,명소>근린공원",,,
1089,무궁화어린이<b>공원</b>,서울특별시 금천구 독산동,,303280,540829,"레져,체육시설>공원",,,
1090,참새어린이<b>공원</b>,서울특별시 금천구 독산동,,301708,539994,"레져,체육시설>공원",,,
1091,목화<b>공원</b>,서울특별시 금천구 독산동,,303548,542265,"여행,명소>근린공원",,,
1092,꿈나무어린이<b>공원</b>,서울특별시 금천구 독산동,,303327,540730,"레져,체육시설>공원",,,
1093,동산<b>공원</b>,서울특별시 금천구 독산동 ,,303419,541753,"여행,명소>근린공원",,,
1094,한사랑<b>공원</b>,서울특별시 금천구 독산동,,303294,541188,"여행,명소>근린공원",,,
1095,남문어린이<b>공원</b>,서울특별시 금천구 독산동,,302931,541706,"레져,체육시설>공원",,,
1096,반수<b>공원</b>,서울특별시 금천구 독산동,,303111,541913,"여행,명소>근린공원",,,
1097,옥계<b>공원</b>,서울특별시 금천구 독산동,,302914,540349,"레져,체육시설>공원",,,
1098,산기슭<b>공원</b>,서울특별시 금천구 시흥동 ,,303519,540685,"여행,명소>근린공원",,,
1099,금빛<b>공원</b>,서울특별시 금천구 시흥동 893-1,서울특별시 금천구 금하로 668 금빛공원,303278,539533,"여행,명소>근린공원",,,
1100,금천폭포<b>공원</b>,서울특별시 금천구 시흥동 937-2,서울특별시 금천구 시흥대로38길 61 금천문화원,303222,538876,"여행,명소>근린공원",,02-2627-1652,
1101,남서울<b>공원</b>,서울특별시 금천구 시흥동,,303058,539037,"여행,명소>근린공원",,,
1102,삼성산시민휴식<b>공원</b>,서울특별시 금천구 시흥동  ,,303781,539743,"여행,명소>시민공원",,,
1103,해태<b>공원</b>,서울특별시 금천구 시흥동,,303047,540090,"여행,명소>근린공원",,,
1104,새재미<b>공원</b>,서울특별시 금천구 시흥동 855,서울특별시 금천구 독산로39길 16 새재미놀이터,303251,540225,"여행,명소>근린공원",,,
1105,삼성체육<b>공원</b>,서울특별시 금천구 시흥동,,303677,539731,"지역명소>도시,테마공원",,,
1106,까치<b>공원</b>,서울특별시 금천구 시흥동,,303300,538074,"여행,명소>근린공원",,,
1107,은행<b>공원</b>,서울특별시 금천구 시흥동,,303492,539453,"여행,명소>근린공원",,,
1108,비둘기<b>공원</b>,서울특별시 금천구 시흥동,,303413,538281,"여행,명소>근린공원",,,
1109,진달래<b>공원</b>,서울특별시 금천구 시흥동,,303285,537544,"여행,명소>근린공원",,,
1110,산장<b>공원</b>,서울특별시 금천구 시흥동,,303991,540428,"여행,명소>근린공원",,,
1111,송록<b>공원</b>,서울특별시 금천구 시흥동,,303427,540473,"여행,명소>근린공원",,,
1112,효봉어린이<b>공원</b>,서울특별시 금천구 시흥동,,303814,540408,"레져,체육시설>공원",,,
1113,별장길<b>공원</b>,서울특별시 금천구 시흥동,,303626,539013,"레져,체육시설>공원",,,
1114,효봉어린이<b>공원</b>창의놀이터,서울특별시 금천구 시흥동,,303810,540402,"레져,체육시설>공원",,,
1115,느티나무상상어린이<b>공원</b>,서울특별시 금천구 시흥동,,303466,539907,"레져,체육시설>공원",,,
1116,꾸러기<b>공원</b>,서울특별시 금천구 시흥동,,303380,538465,"레져,체육시설>공원",,,
1117,장미<b>공원</b>,서울특별시 금천구 시흥동,,303966,540499,"레져,체육시설>공원",,,
1118,단군어린이<b>공원</b>,서울특별시 금천구 시흥동,,303641,539861,"레져,체육시설>공원",,,
1119,신흥어린이<b>공원</b>,서울특별시 금천구 시흥동,,303574,540316,"레져,체육시설>공원",,,
1120,영등포<b>공원</b>,서울특별시 영등포구 영등포동,,303898,546478,"여행,명소>도시,테마공원",,,
1121,중마루<b>공원</b>,서울특별시 영등포구 영등포동2가 222,,303957,546967,"여행,명소>도시,테마공원",,,
1122,영일어린이<b>공원</b>,서울특별시 영등포구 영등포동,,303312,545898,"레져,체육시설>공원",,,
1123,중앙어린이<b>공원</b>,서울특별시 영등포구 영등포동6가,,303304,547143,"레져,체육시설>공원",,,
1124,서강어린이<b>공원</b>,서울특별시 영등포구 영등포동8가,,303491,547634,"레져,체육시설>공원",,,
1125,중마루<b>공원</b>,서울특별시 영등포구 영등포동2가 222,,303957,546967,"여행,명소>도시,테마공원",,,
1126,중앙어린이<b>공원</b>,서울특별시 영등포구 영등포동6가,,303304,547143,"레져,체육시설>공원",,,
1127,서강어린이<b>공원</b>,서울특별시 영등포구 영등포동8가,,303491,547634,"레져,체육시설>공원",,,
1128,여의도 한강<b>공원</b>,서울특별시 영등포구 여의도동 8,서울특별시 영등포구 여의동로 330 한강사업본부 여의도안내센터,306048,547663,"여행,명소>시민공원",,,http://hangang.seoul.go.kr/archives/46758
1129,여의도<b>공원</b>,서울특별시 영등포구 여의도동 2,서울특별시 영등포구 여의공원로 120 여의도지구대,304947,547654,"여행,명소>근린공원",,02-761-4079,http://parks.seoul.go.kr/yeouido
1130,여의도 한강<b>공원</b>샛강생태<b>공원</b>,서울특별시 영등포구 여의도동 49,,304966,546723,"여행,명소>자연,생태공원",,,
1131,자매<b>공원</b>,서울특별시 영등포구 여의도동 56,서울특별시 영등포구 의사당대로 166,305636,546714,"여행,명소>도시,테마공원",,,
1132,여의도한강<b>공원</b>서울색<b>공원</b>,서울특별시 영등포구 여의도동 8,서울특별시 영등포구 여의동로 330,305690,548124,"여행,명소>시민공원",,,
1133,인피니트숲,서울특별시 영등포구 여의도동,,304624,548448,"여행,명소>근린공원",,,
1134,소녀시대숲,서울특별시 영등포구 여의도동,,304661,548437,"여행,명소>근린공원",,,
1135,샤이니숲,서울특별시 영등포구 여의도동,,304443,548504,"여행,명소>근린공원",,,
1136,여의도계절광장,서울특별시 영등포구 여의도동 330,,305444,547310,"여행,명소>시민공원",,,
1137,시범아파트평화어린이<b>공원</b>,서울특별시 영등포구 여의도동,,306355,547095,"레져,체육시설>공원",,,
1138,동방신기숲,서울특별시 영등포구 여의도동,,304522,548478,"여행,명소>근린공원",,,
1139,시범아파트자유어린이<b>공원</b>,서울특별시 영등포구 여의도동,,306170,547012,"레져,체육시설>공원",,,
1140,여의도이용숲,서울특별시 영등포구 여의도동,,304467,548597,"여행,명소>근린공원",,,
1141,당산<b>공원</b>,서울특별시 영등포구 당산동3가 385,서울특별시 영등포구 당산로27길 12,302597,547631,"여행,명소>근린공원",,,
1142,새말소<b>공원</b>,서울특별시 영등포구 당산동4가,,302762,548267,"레져,체육시설>공원",,,
1143,이음소<b>공원</b>,서울특별시 영등포구 당산동4가,,303193,547821,"레져,체육시설>공원",,,
1144,당산역소<b>공원</b>,서울특별시 영등포구 당산동5가,,303035,548497,"여행,명소>근린공원",,,
1145,당산나루소<b>공원</b>,서울특별시 영등포구 당산동5가,,303025,548414,"레져,체육시설>공원",,,
1146,양화 한강<b>공원</b>,서울특별시 영등포구 당산동6가 98-1,,302617,549555,"여행,명소>시민공원",,,http://hangang.seoul.go.kr/archives/46804
1147,양화 한강<b>공원</b>,서울특별시 영등포구 당산동6가 98-1,,302617,549555,"여행,명소>시민공원",,,http://hangang.seoul.go.kr/archives/46804
1148,당산<b>공원</b>,서울특별시 영등포구 당산동3가 385,서울특별시 영등포구 당산로27길 12,302597,547631,"여행,명소>근린공원",,,
1149,당산역소<b>공원</b>,서울특별시 영등포구 당산동5가,,303035,548497,"여행,명소>근린공원",,,
1150,새말소<b>공원</b>,서울특별시 영등포구 당산동4가,,302762,548267,"레져,체육시설>공원",,,
1151,당산나루소<b>공원</b>,서울특별시 영등포구 당산동5가,,303025,548414,"레져,체육시설>공원",,,
1152,이음소<b>공원</b>,서울특별시 영등포구 당산동4가,,303193,547821,"레져,체육시설>공원",,,
1153,도림2동유수지내체육시설,서울특별시 영등포구 도림동 254,서울특별시 영등포구 도신로15길 11 영등포 스포츠클라이밍경기장,302745,545493,"지역명소>도시,테마공원",,,
1154,도리미소<b>공원</b>,서울특별시 영등포구 도림동,,303114,545821,"여행,명소>근린공원",,,
1155,고추말어린이<b>공원</b>,서울특별시 영등포구 도림동,,303586,546079,"레져,체육시설>공원",,,
1156,신길바라기<b>공원</b>,서울특별시 영등포구 도림동,,302849,545298,"여행,명소>근린공원",,,
1157,문래근린<b>공원</b>,서울특별시 영등포구 문래동3가 66,,302424,546646,"여행,명소>근린공원",,,
1158,목화마을마당,서울특별시 영등포구 문래동3가,,302083,546953,"여행,명소>근린공원",,,
1159,문래소<b>공원</b>,서울특별시 영등포구 문래동6가,,301801,546992,"여행,명소>근린공원",,,
1160,양남어린이<b>공원</b>(민관협력)창의놀이터,서울특별시 영등포구 양평동1가,,301923,547375,"레져,체육시설>공원",,,
1161,양남어린이<b>공원</b>,서울특별시 영등포구 양평동1가,,301919,547385,"레져,체육시설>공원",,,
1162,양평유수지생태<b>공원</b>,서울특별시 영등포구 양평동3가,,302111,548012,"여행,명소>자연,생태공원",,,
1163,양평어린이<b>공원</b>,서울특별시 영등포구 양평동4가,,302816,549005,"레져,체육시설>공원",,,
1164,열린마을<b>공원</b>,서울특별시 영등포구 양평동5가,,302409,549268,"여행,명소>근린공원",,,
1165,선유도<b>공원</b>,서울특별시 영등포구 양화동 95,서울특별시 영등포구 선유로 343,303004,549596,"여행,명소>근린공원",,02-2631-9368,http://parks.seoul.go.kr/seonyudo
1166,<b>신길동</b>광장<b>공원</b>,서울특별시 영등포구 신길동,,303465,544755,"여행,명소>근린공원",,,
1167,신길근린<b>공원</b>,서울특별시 영등포구 신길동,,303498,544931,"여행,명소>근린공원",,,
1168,메낙골근린<b>공원</b>,서울특별시 영등포구 신길동 4934-4,,304322,545469,"여행,명소>근린공원",,,
1169,어린이<b>공원</b>,서울특별시 영등포구 신길동,,304912,545871,"레져,체육시설>공원",,,
1170,원지<b>공원</b>,서울특별시 영등포구 대림동,,302899,544562,"여행,명소>근린공원",,,
1171,대림3동유수지내체육시설,서울특별시 영등포구 대림동,,302508,545268,"지역명소>도시,테마공원",,,
1172,대림어린이<b>공원</b>,서울특별시 영등포구 대림동,,303220,543813,"레져,체육시설>공원",,,
1173,신우어린이<b>공원</b>,서울특별시 영등포구 대림동,,302875,545144,"레져,체육시설>공원",,,
1174,두암어린이<b>공원</b>,서울특별시 영등포구 대림동,,302702,544279,"레져,체육시설>공원",,,
1175,동심어린이<b>공원</b>,서울특별시 영등포구 대림동,,302699,544618,"레져,체육시설>공원",,,
1176,다사랑어린이<b>공원</b>,서울특별시 영등포구 대림동,,302862,543990,"레져,체육시설>공원",,,
1177,산성어린이<b>공원</b>,서울특별시 영등포구 대림동,,303156,544442,"레져,체육시설>공원",,,
1178,영등포생태<b>공원</b>,서울특별시 영등포구 대림동 611,서울특별시 영등포구 도신로 1-16 영등포청소차고지,302484,545306,"여행,명소>자연,생태공원",,,
1179,양평유수지생태<b>공원</b>,서울특별시 영등포구 양평동3가,,302111,548012,"여행,명소>자연,생태공원",,,
1180,양평어린이<b>공원</b>,서울특별시 영등포구 양평동4가,,302816,549005,"레져,체육시설>공원",,,
1181,양남어린이<b>공원</b>(민관협력)창의놀이터,서울특별시 영등포구 양평동1가,,301923,547375,"레져,체육시설>공원",,,
1182,양남어린이<b>공원</b>,서울특별시 영등포구 양평동1가,,301919,547385,"레져,체육시설>공원",,,
1183,열린마을<b>공원</b>,서울특별시 영등포구 양평동5가,,302409,549268,"여행,명소>근린공원",,,
1184,사육신<b>공원</b>,서울특별시 동작구 노량진동 152-3,서울특별시 동작구 노량진로 191 사육신묘지공원,307253,546249,"여행,명소>근린공원",,02-813-2130,
1185,송학대<b>공원</b>,서울특별시 동작구 노량진동 325-2,,306819,545699,"여행,명소>근린공원",,,
1186,상도근린<b>공원</b>,서울특별시 동작구 상도동,,307485,543962,"여행,명소>근린공원",,,
1187,도화<b>공원</b>,서울특별시 동작구 상도동,,306053,544722,"여행,명소>근린공원",,,
1188,빙수골마을<b>공원</b>,서울특별시 동작구 상도동 296-6,,305782,544380,"여행,명소>근린공원",,,
1189,장승<b>공원</b>,서울특별시 동작구 상도동,,306210,545437,"여행,명소>근린공원",,,
1190,영도<b>공원</b>,서울특별시 동작구 상도동,,306587,545124,"여행,명소>근린공원",,,
1191,쌈지<b>공원</b>,서울특별시 동작구 상도동,,307262,544717,"여행,명소>근린공원",,,
1192,상도3동마을<b>공원</b>,서울특별시 동작구 상도동,,306045,543978,"여행,명소>근린공원",,,
1193,나비소<b>공원</b>,서울특별시 동작구 상도동 ,,306795,545107,"여행,명소>근린공원",,,
1194,꿈나래어린이<b>공원</b>,서울특별시 동작구 상도동 36-1,서울특별시 동작구 만양로 6,307339,545428,"여행,명소>근린공원",,,
1195,흐리목소<b>공원</b>,서울특별시 동작구 상도동,,307629,544127,"여행,명소>근린공원",,,
1196,쌈지마당,서울특별시 동작구 상도동 159-438,,307033,544954,"여행,명소>근린공원",,,
1197,쌈지<b>공원</b>,서울특별시 동작구 상도동  198-32,,306344,544705,"여행,명소>근린공원",,,
1198,백로어린이<b>공원</b>,서울특별시 동작구 상도동,,306074,545488,"레져,체육시설>공원",,,
1199,새벽어린이<b>공원</b>놀이터,서울특별시 동작구 상도동,,305606,544830,"레져,체육시설>공원",,,
1200,새벽어린이<b>공원</b>,서울특별시 동작구 상도동,,305610,544830,"레져,체육시설>공원",,,
1201,옹달샘어린이<b>공원</b>,서울특별시 동작구 상도동,,305548,544213,"레져,체육시설>공원",,,
1202,장미어린이<b>공원</b>,서울특별시 동작구 상도동 ,,306114,544041,"레져,체육시설>공원",,,
1203,상도래미안1차아파트<b>공원</b>,서울특별시 동작구 상도동,,305935,545301,"레져,체육시설>공원",,,
1204,<b>본동</b>시민<b>공원</b>,서울특별시 동작구 본동,,307587,546335,"여행,명소>시민공원",,,
1205,<b>본동</b>어린이<b>공원</b>,서울특별시 동작구 본동,,307760,545899,"레져,체육시설>공원",,,
1206,<b>본동</b>어린이<b>공원</b>창의놀이터,서울특별시 동작구 본동,,307759,545899,"레져,체육시설>공원",,,
1207,용봉정근린<b>공원</b>,서울특별시 동작구 본동,,308115,546025,"여행,명소>근린공원",,,
1208,노들나루<b>공원</b>,서울특별시 동작구 본동 258-1,서울특별시 동작구 노량진로 247 본동시민공원,307717,546243,"여행,명소>근린공원",,,
1209,고구동산,서울특별시 동작구 본동 126-449,서울특별시 동작구 매봉로6길 16 노량진근린공원,307732,545667,"여행,명소>근린공원",,,
1210,노량진근린<b>공원</b>,서울특별시 동작구 본동  486,,307865,545773,"여행,명소>근린공원",,,
1211,절고개<b>공원</b>,서울특별시 동작구 본동  489,,307387,545667,"여행,명소>근린공원",,,
1212,체력단련장,서울특별시 동작구 본동,,307757,545639,"여행,명소>근린공원",,,
1213,효사정<b>공원</b>,서울특별시 동작구 흑석동,,308489,545911,"여행,명소>자연공원",,,
1214,서달산자연<b>공원</b>,서울특별시 동작구 흑석동,,307816,545106,"여행,명소>자연,생태공원",,,
1215,고구동산,서울특별시 동작구 흑석동,,307783,545445,"여행,명소>근린공원",,,
1216,달마<b>공원</b>,서울특별시 동작구 흑석동,,308349,544572,"여행,명소>근린공원",,,
1217,서달산수목학습원,서울특별시 동작구 흑석동,,308108,544645,"여행,명소>근린공원",,,
1218,흑석소<b>공원</b>,서울특별시 동작구 흑석동  186-135,,308064,545736,"여행,명소>근린공원",,,
1219,산새어린이<b>공원</b>,서울특별시 동작구 흑석동  293-4,,308956,545166,"여행,명소>근린공원",,,
1220,동작주차근린<b>공원</b>,서울특별시 동작구 동작동,,309798,545027,"여행,명소>근린공원",,,
1221,현충근린<b>공원</b>,서울특별시 동작구 동작동,,309861,544364,"여행,명소>근린공원",,,
1222,삼일<b>공원</b>,서울특별시 동작구 사당동 산24-17,서울특별시 동작구 사당로23길 93 삼일(3~1)공원,309495,543151,"여행,명소>도시,테마공원",,02-591-9314,
1223,까치산<b>공원</b>,서울특별시 동작구 사당동,,308582,543002,"여행,명소>근린공원",,,
1224,친수<b>공원</b>,서울특별시 동작구 사당동 ,,309992,542141,"여행,명소>근린공원",,,
1225,양지<b>공원</b>,서울특별시 동작구 사당동,,309154,543159,"여행,명소>근린공원",,,
1226,마을<b>공원</b>,서울특별시 동작구 사당동,,308873,543083,"여행,명소>근린공원",,,
1227,토끼어린이<b>공원</b>,서울특별시 동작구 사당동,,309094,542261,"레져,체육시설>공원",,,
1228,까치어린이<b>공원</b>,서울특별시 동작구 사당동,,309972,542535,"레져,체육시설>공원",,,
1229,새싹어린이<b>공원</b>,서울특별시 동작구 사당동,,309383,542484,"레져,체육시설>공원",,,
1230,샛별어린이<b>공원</b>,서울특별시 동작구 사당동,,308707,543315,"레져,체육시설>공원",,,
1231,꿈틀이어린이<b>공원</b>,서울특별시 동작구 사당동,,309098,542529,"레져,체육시설>공원",,,
1232,대방<b>공원</b>,서울특별시 동작구 대방동 15-45,서울특별시 동작구 여의대방로36길 71 노량진근린공원,305413,545552,"여행,명소>근린공원",,,
1233,참새어린이<b>공원</b>,서울특별시 동작구 대방동,,304877,544550,"레져,체육시설>공원",,,
1234,제비어린이<b>공원</b>,서울특별시 동작구 대방동,,305240,545468,"레져,체육시설>공원",,,
1235,보라매<b>공원</b>,서울특별시 동작구 신대방동 395,서울특별시 동작구 여의대방로20길 33,304543,543908,"여행,명소>근린공원",,02-2181-1196,http://parks.seoul.go.kr/boramae
1236,한화불꽃정원,서울특별시 동작구 신대방동 395,서울특별시 동작구 보라매로5길 28,304389,543724,"여행,명소>근린공원",,,
1237,보라매<b>공원</b>,서울특별시 동작구 신대방동 395,서울특별시 동작구 여의대방로20길 33,304543,543908,"여행,명소>근린공원",,02-2181-1196,http://parks.seoul.go.kr/boramae
1238,청명어린이<b>공원</b>,서울특별시 동작구 신대방동,,303629,543393,"레져,체육시설>공원",,,
1239,한화불꽃정원,서울특별시 동작구 신대방동 395,서울특별시 동작구 보라매로5길 28,304389,543724,"여행,명소>근린공원",,,
1240,낙성대<b>공원</b>,서울특별시 관악구 봉천동 228,서울특별시 관악구 낙성대로 77 낙성대공원,308232,541540,"여행,명소>도시,테마공원",,,
1241,장군봉근린<b>공원</b>,서울특별시 관악구 봉천동 산149-8,,306115,542616,"여행,명소>근린공원",,,
1242,덕수<b>공원</b>,서울특별시 관악구 봉천동,,308032,541799,"여행,명소>근린공원",,,
1243,청룡산주민텃밭<b>공원</b>,서울특별시 관악구 봉천동 산174-177,,307149,542164,"여행,명소>근린공원",,,
1244,낙성대야외놀이마당,서울특별시 관악구 봉천동,,308173,541789,"여행,명소>근린공원",,,
1245,상도근린<b>공원</b>,서울특별시 관악구 봉천동 ,,306334,543883,"여행,명소>근린공원",,,
1246,성현드림숲<b>공원</b>,서울특별시 관악구 봉천동 1712-6,서울특별시 관악구 성현로 91,307553,543775,"여행,명소>근린공원",,,
1247,까치산소<b>공원</b>,서울특별시 관악구 봉천동 ,,308256,542844,"여행,명소>근린공원",,,
1248,상도근린<b>공원</b>,서울특별시 관악구 봉천동,,306618,543796,"여행,명소>근린공원",,,
1249,청림어울림마당,서울특별시 관악구 봉천동  1717-9,,308395,543449,"여행,명소>근린공원",,,
1250,관악산도시자연<b>공원</b>,서울특별시 관악구 봉천동  285,,308167,541805,"여행,명소>자연공원",,,
1251,모래내어린이<b>공원</b>,서울특별시 관악구 봉천동,,307823,542258,"레져,체육시설>공원",,,
1252,까치어린이<b>공원</b>,서울특별시 관악구 봉천동,,308157,542481,"레져,체육시설>공원",,02-879-6500,http://www.gwanak.go.kr/
1253,송학어린이<b>공원</b>,서울특별시 관악구 봉천동,,307271,542546,"레져,체육시설>공원",,,
1254,일선어린이<b>공원</b>,서울특별시 관악구 봉천동,,307282,542282,"레져,체육시설>공원",,,
1255,새싹어린이<b>공원</b>,서울특별시 관악구 봉천동,,307298,543009,"레져,체육시설>공원",,,
1256,원당어린이<b>공원</b>,서울특별시 관악구 봉천동,,308537,541908,"레져,체육시설>공원",,,
1257,국회단지어린이<b>공원</b>,서울특별시 관악구 봉천동,,306730,543653,"레져,체육시설>공원",,,
1258,백설어린이<b>공원</b>,서울특별시 관악구 봉천동,,307650,542065,"레져,체육시설>공원",,,
1259,장미어린이<b>공원</b>,서울특별시 관악구 봉천동,,308423,542394,"레져,체육시설>공원",,,
1260,비안어린이<b>공원</b>창의놀이터,서울특별시 관악구 봉천동,,306464,542606,"레져,체육시설>공원",,,
1261,비안어린이<b>공원</b>,서울특별시 관악구 봉천동,,306475,542620,"레져,체육시설>공원",,,
1262,중앙어린이<b>공원</b>,서울특별시 관악구 봉천동,,307188,542992,"레져,체육시설>공원",,,
1263,중앙어린이<b>공원</b>창의놀이터,서울특별시 관악구 봉천동,,307189,542989,"레져,체육시설>공원",,,
1264,교체어린이<b>공원</b>,서울특별시 관악구 봉천동 ,,308562,541749,"레져,체육시설>공원",,,
1265,탑골어린이<b>공원</b>,서울특별시 관악구 봉천동,,308301,541868,"레져,체육시설>공원",,,
1266,선봉어린이<b>공원</b>,서울특별시 관악구 봉천동,,306413,543096,"레져,체육시설>공원",,,
1267,장미어린이<b>공원</b>창의놀이터,서울특별시 관악구 봉천동,,308430,542401,"레져,체육시설>공원",,,
1268,선봉어린이<b>공원</b>창의놀이터,서울특별시 관악구 봉천동,,306420,543094,"레져,체육시설>공원",,,
1269,으뜸어린이<b>공원</b>,서울특별시 관악구 봉천동,,306573,542371,"레져,체육시설>공원",,,
1270,국사봉어린이<b>공원</b>,서울특별시 관악구 봉천동,,305935,543638,"레져,체육시설>공원",,,
1271,영락어린이<b>공원</b>,서울특별시 관악구 봉천동,,306780,542164,"레져,체육시설>공원",,,
1272,신림근린<b>공원</b>,서울특별시 관악구 신림동,,304458,542711,"여행,명소>근린공원",,,
1273,관악산샘말<b>공원</b>,서울특별시 관악구 신림동  산63-1,서울특별시 관악구 대학20길 9,306293,540808,"여행,명소>근린공원",,,
1274,관악산난향<b>공원</b>,서울특별시 관악구 신림동,,304399,541005,"여행,명소>근린공원",,,
1275,난우<b>공원</b>,서울특별시 관악구 신림동 산124-45,,304926,542266,"여행,명소>근린공원",,,
1276,봉림교가로녹지,서울특별시 관악구 신림동,,305205,543009,"여행,명소>근린공원",,,
1277,소락정마을마당<b>공원</b>,서울특별시 관악구 신림동  597-1,서울특별시 관악구 난우10가길 2 미성동제4공영주차장,304645,542140,"여행,명소>근린공원",,,
1278,나들목<b>공원</b>,서울특별시 관악구 신림동  217,,306830,541311,"여행,명소>근린공원",,,
1279,관악산생태<b>공원</b>,서울특별시 관악구 신림동 산117-3,,304080,541291,"여행,명소>자연,생태공원",,,
1280,관악산자연<b>공원</b>,서울특별시 관악구 신림동 산27-1,,306956,541035,"여행,명소>자연,생태공원",,,
1281,해태어린이<b>공원</b>,서울특별시 관악구 신림동,,306489,541689,"레져,체육시설>공원",,,
1282,무궁화어린이<b>공원</b>,서울특별시 관악구 신림동,,304982,541388,"레져,체육시설>공원",,,
1283,선우<b>공원</b>유아숲체험원,서울특별시 관악구 신림동,,303905,541369,"레져,체육시설>공원",,02-866-8854,
1284,새숲어린이<b>공원</b>,서울특별시 관악구 신림동,,304065,542814,"레져,체육시설>공원",,,
1285,남부창의어린이<b>공원</b>,서울특별시 관악구 신림동,,304732,543088,"레져,체육시설>공원",,,
1286,색동어린이<b>공원</b>,서울특별시 관악구 신림동,,305805,543246,"레져,체육시설>공원",,,
1287,문성어린이<b>공원</b>,서울특별시 관악구 신림동,,303181,542762,"레져,체육시설>공원",,,
1288,문성어린이<b>공원</b>창의놀이터,서울특별시 관악구 신림동,,303186,542759,"레져,체육시설>공원",,,
1289,새들어린이<b>공원</b>창의놀이터,서울특별시 관악구 신림동,,305198,543490,"레져,체육시설>공원",,,
1290,서원어린이<b>공원</b>,서울특별시 관악구 신림동,,305864,542163,"레져,체육시설>공원",,,
1291,새들어린이<b>공원</b>,서울특별시 관악구 신림동,,305190,543489,"레져,체육시설>공원",,,
1292,난곡어린이<b>공원</b>창의놀이터,서울특별시 관악구 신림동 ,,304256,541888,"레져,체육시설>공원",,,
1293,도덕소<b>공원</b>,서울특별시 관악구 신림동,,306274,541340,"레져,체육시설>공원",,,
1294,미성동난우어린이<b>공원</b>창의놀이터,서울특별시 관악구 신림동,,304152,542580,"레져,체육시설>공원",,,
1295,쑥고개어린이<b>공원</b>,서울특별시 관악구 신림동,,306526,542062,"레져,체육시설>공원",,,
1296,호박골어린이<b>공원</b>,서울특별시 관악구 신림동,,305027,542749,"레져,체육시설>공원",,,
1297,보명어린이<b>공원</b>,서울특별시 관악구 신림동,,305176,542044,"레져,체육시설>공원",,,
1298,서원어린이<b>공원</b>창의놀이터,서울특별시 관악구 신림동,,305844,542180,"레져,체육시설>공원",,,
1299,미성어린이<b>공원</b>,서울특별시 관악구 신림동,,304124,542228,"레져,체육시설>공원",,,
1300,미림어린이<b>공원</b>창의놀이터,서울특별시 관악구 신림동,,306016,541030,"레져,체육시설>공원",,,
1301,난우어린이<b>공원</b>창의놀이터,서울특별시 관악구 신림동,,304821,541039,"레져,체육시설>공원",,,
1302,미림어린이<b>공원</b>,서울특별시 관악구 신림동 ,,306017,541034,"레져,체육시설>공원",,,
1303,미도어린이<b>공원</b>,서울특별시 관악구 신림동,,304241,540639,"레져,체육시설>공원",,,
1304,합실어린이<b>공원</b>,서울특별시 관악구 신림동,,305274,540863,"레져,체육시설>공원",,,
1305,난우어린이<b>공원</b>,서울특별시 관악구 신림동,,304832,541036,"레져,체육시설>공원",,,
1306,신화어린이<b>공원</b>,서울특별시 관악구 신림동,,306057,542158,"레져,체육시설>공원",,,
1307,목화어린이<b>공원</b>,서울특별시 관악구 신림동,,306629,541179,"레져,체육시설>공원",,,
1308,약수암어린이<b>공원</b>,서울특별시 관악구 신림동,,305798,540237,"레져,체육시설>공원",,,
1309,삼성산주공아파트<b>공원</b>,서울특별시 관악구 신림동,,305115,540612,"레져,체육시설>공원",,,
1310,대협어린이<b>공원</b>,서울특별시 관악구 신림동,,304084,541974,"레져,체육시설>공원",,,
1311,한라어린이<b>공원</b>,서울특별시 관악구 신림동,,304214,542062,"레져,체육시설>공원",,,
1312,신라어린이<b>공원</b>,서울특별시 관악구 신림동,,304015,541830,"레져,체육시설>공원",,,
1313,예촌어린이<b>공원</b>,서울특별시 관악구 남현동,,309687,541882,"레져,체육시설>공원",,,
1314,남현예술정원,서울특별시 관악구 남현동,,310021,542078,"레져,체육시설>공원",,,
1315,상록어린이<b>공원</b>,서울특별시 관악구 남현동,,310007,541689,"레져,체육시설>공원",,,
1316,군아파트어린이<b>공원</b>,서울특별시 관악구 남현동,,309886,541570,"레져,체육시설>공원",,,
1317,뒷벌어린이<b>공원</b>,서울특별시 서초구 방배동 821-1,서울특별시 서초구 방배중앙로 131,310605,543626,"여행,명소>근린공원",,,
1318,도구머리<b>공원</b>,서울특별시 서초구 방배동,,310767,542442,"여행,명소>근린공원",,,
1319,방배근린<b>공원</b>,서울특별시 서초구 방배동,,311353,542341,"여행,명소>근린공원",,,
1320,방배체육<b>공원</b>,서울특별시 서초구 방배동,,311095,541644,"지역명소>도시,테마공원",,,
1321,방배<b>공원</b>,서울특별시 서초구 방배동  24-2,,311749,542757,"여행,명소>근린공원",,,
1322,방배동마을마당,서울특별시 서초구 방배동,,310713,541128,"여행,명소>근린공원",,,
1323,우면산도시자연<b>공원</b>,서울특별시 서초구 방배동,,312058,541742,"여행,명소>자연,생태공원",,,
1324,청두어린이<b>공원</b>,서울특별시 서초구 방배동,,310435,542544,"레져,체육시설>공원",,,
1325,남태령어린이<b>공원</b>,서울특별시 서초구 방배동,,310737,540945,"레져,체육시설>공원",,,
1326,너른골어린이<b>공원</b>,서울특별시 서초구 방배동,,311314,543290,"레져,체육시설>공원",,,
1327,방현어린이<b>공원</b>,서울특별시 서초구 방배동,,311011,542296,"레져,체육시설>공원",,,
1328,햇님어린이<b>공원</b>,서울특별시 서초구 방배동,,310443,542800,"레져,체육시설>공원",,,
1329,정문어린이<b>공원</b>,서울특별시 서초구 방배동,,311724,542585,"레져,체육시설>공원",,,
1330,새말어린이<b>공원</b>,서울특별시 서초구 방배동,,310766,543950,"레져,체육시설>공원",,,
1331,가꿀어린이<b>공원</b>,서울특별시 서초구 방배동,,310665,543357,"레져,체육시설>공원",,,
1332,안산어린이<b>공원</b>,서울특별시 서초구 방배동,,311093,542478,"레져,체육시설>공원",,,
1333,까치어린이<b>공원</b>,서울특별시 서초구 방배동,,310900,542894,"레져,체육시설>공원",,,
1334,양재시민의숲,서울특별시 서초구 양재동 236,서울특별시 서초구 매헌로 99,314843,541453,"여행,명소>자연공원",,02-575-3895,http://parks.seoul.go.kr/citizen
1335,서초문화예술<b>공원</b>,서울특별시 서초구 양재동 200,서울특별시 서초구 바우뫼로12길 40 서초문화예술공원,314439,541061,"여행,명소>도시,테마공원",,02-2155-6860,
1336,양재근린<b>공원</b>,서울특별시 서초구 양재동 311,,315520,541469,"여행,명소>근린공원",,,
1337,양재천근린<b>공원</b>,서울특별시 서초구 양재동,,315458,542064,"여행,명소>근린공원",,,
1338,말죽거리<b>공원</b>,서울특별시 서초구 양재동,,314682,542087,"여행,명소>근린공원",,,
1339,방아다리근린<b>공원</b>,서울특별시 서초구 양재동,,314861,542227,"여행,명소>근린공원",,,
1340,고인돌근린<b>공원</b>,서울특별시 서초구 양재동 390,,315877,541443,"여행,명소>근린공원",,,
1341,바우뫼<b>공원</b>,서울특별시 서초구 양재동,,314788,541843,"여행,명소>근린공원",,,
1342,양재어린이<b>공원</b>,서울특별시 서초구 양재동,,315233,542800,"레져,체육시설>공원",,,
1343,동산어린이<b>공원</b>,서울특별시 서초구 양재동,,315741,541436,"레져,체육시설>공원",,,
1344,잔디어린이<b>공원</b>,서울특별시 서초구 양재동,,314892,540905,"레져,체육시설>공원",,,
1345,횃불어린이<b>공원</b>,서울특별시 서초구 양재동,,315071,542243,"레져,체육시설>공원",,,
1346,버들어린이<b>공원</b>,서울특별시 서초구 양재동,,315783,541725,"레져,체육시설>공원",,,
1347,비석어린이<b>공원</b>,서울특별시 서초구 양재동,,315373,542275,"레져,체육시설>공원",,,
1348,개뜰어린이<b>공원</b>,서울특별시 서초구 양재동,,315386,541748,"레져,체육시설>공원",,,
1349,두둑재어린이<b>공원</b>,서울특별시 서초구 양재동,,315625,541093,"레져,체육시설>공원",,,
1350,용말어린이<b>공원</b>,서울특별시 서초구 양재동,,314816,540545,"레져,체육시설>공원",,,
1351,구룡어린이<b>공원</b>,서울특별시 서초구 양재동,,316057,541478,"레져,체육시설>공원",,,
1352,게리어린이<b>공원</b>,서울특별시 서초구 양재동,,315331,541272,"레져,체육시설>공원",,,
1353,종열어린이<b>공원</b>,서울특별시 서초구 양재동,,314736,541767,"레져,체육시설>공원",,,
1354,양재어린이<b>공원</b>창의놀이터,서울특별시 서초구 양재동,,315232,542792,"레져,체육시설>공원",,,
1355,송동근린<b>공원</b>,서울특별시 서초구 우면동,,313486,540111,"여행,명소>근린공원",,,
1356,우면산자연생태<b>공원</b>,서울특별시 서초구 우면동 산34-1,,313328,541265,"여행,명소>자연,생태공원",,,
1357,태봉산<b>공원</b>,서울특별시 서초구 우면동,,313729,540652,"여행,명소>근린공원",,,
1358,망루근린<b>공원</b>,서울특별시 서초구 우면동,,313670,540460,"여행,명소>근린공원",,,
1359,우면지구근린<b>공원</b>,서울특별시 서초구 우면동 71,,314300,541680,"여행,명소>근린공원",,,
1360,큰마을소<b>공원</b>,서울특별시 서초구 우면동,,313621,540989,"여행,명소>근린공원",,,
1361,효자어린이<b>공원</b>,서울특별시 서초구 우면동,,313908,541703,"레져,체육시설>공원",,,
1362,잿말어린이<b>공원</b>,서울특별시 서초구 우면동,,313503,540926,"레져,체육시설>공원",,,
1363,송동어린이<b>공원</b>,서울특별시 서초구 우면동,,313111,540349,"레져,체육시설>공원",,,
1364,식유촌어린이<b>공원</b>,서울특별시 서초구 우면동,,312942,540027,"레져,체육시설>공원",,,
1365,동문어린이<b>공원</b>,서울특별시 서초구 우면동,,314091,541631,"레져,체육시설>공원",,,
1366,잠원 한강<b>공원</b>,서울특별시 서초구 잠원동,,312905,547115,"여행,명소>시민공원",,,http://hangang.seoul.go.kr/archives/46678
1367,그라스정원,서울특별시 서초구 잠원동 121,서울특별시 서초구 잠원로 221-124,312296,546507,"여행,명소>도시,테마공원",,,
1368,신동근린<b>공원</b>,서울특별시 서초구 잠원동,,313070,546223,"여행,명소>근린공원",,,
1369,명주근린<b>공원</b>,서울특별시 서초구 잠원동,,313123,546581,"여행,명소>근린공원",,,
1370,싸리재<b>공원</b>,서울특별시 서초구 잠원동,,313401,546137,"여행,명소>근린공원",,,
1371,잠원근린<b>공원</b>,서울특별시 서초구 잠원동,,312697,546078,"여행,명소>근린공원",,,
1372,사평리<b>공원</b>,서울특별시 서초구 잠원동,,313155,546911,"여행,명소>근린공원",,,
1373,뽕나무<b>공원</b>,서울특별시 서초구 잠원동 ,,313134,546964,"여행,명소>근린공원",,,
1374,주흥어린이<b>공원</b>,서울특별시 서초구 잠원동,,313269,546016,"레져,체육시설>공원",,,
1375,한신4차아파트<b>공원</b>,서울특별시 서초구 잠원동,,312391,545570,"레져,체육시설>공원",,,
1376,코아어린이<b>공원</b>,서울특별시 서초구 잠원동,,312152,545678,"레져,체육시설>공원",,,
1377,잠원롯데캐슬2차아파트<b>공원</b>,서울특별시 서초구 잠원동,,313257,546785,"레져,체육시설>공원",,,
1378,반포 한강<b>공원</b>,서울특별시 서초구 반포동 115-5,서울특별시 서초구 신반포로11길 40 한강공원 반포 안내센터,311350,545794,"여행,명소>시민공원",,02-591-5943,http://hangang.seoul.go.kr/archives/46727
1379,몽마르뜨<b>공원</b>,서울특별시 서초구 반포동,,312099,544121,"여행,명소>도시,테마공원",,02-2155-6860,
1380,서리풀<b>공원</b>,서울특별시 서초구 반포동 산27-4,,312436,544421,"여행,명소>자연,생태공원","<b>서울특별시 서초구 반포동</b> 위치, <b>공원</b>.",02-2155-6860,
1381,장미<b>공원</b>,서울특별시 서초구 반포동 915,서울특별시 서초구 신반포로 45,311010,545242,"여행,명소>도시,테마공원",,,
1382,서래<b>공원</b>,서울특별시 서초구 반포동 63-6,,312050,544826,"여행,명소>근린공원",,,
1383,파리15구<b>공원</b>,서울특별시 서초구 반포동,,311712,544627,"여행,명소>근린공원",,,
1384,신반포<b>공원</b>,서울특별시 서초구 반포동,,311704,544824,"여행,명소>근린공원",,,
1385,나리<b>공원</b>,서울특별시 서초구 반포동,,310662,545162,"여행,명소>근린공원",,,
1386,언구비<b>공원</b>,서울특별시 서초구 반포동,,313579,545652,"여행,명소>근린공원",,,
1387,반포<b>공원</b>,서울특별시 서초구 반포동 114-3,서울특별시 서초구 사평대로 55,310996,544544,"여행,명소>근린공원",,,
1388,한수<b>공원</b>,서울특별시 서초구 반포동,,310287,545054,"여행,명소>근린공원",,,
1389,청룡어린이<b>공원</b>,서울특별시 서초구 반포동,,311750,544221,"레져,체육시설>공원",,,
1390,파랑새어린이<b>공원</b>,서울특별시 서초구 반포동,,311355,545260,"레져,체육시설>공원",,,
1391,푸른어린이<b>공원</b>,서울특별시 서초구 반포동,,310862,544799,"레져,체육시설>공원",,,
1392,미도어린이<b>공원</b>,서울특별시 서초구 반포동,,312734,544855,"레져,체육시설>공원",,,
1393,고무래어린이<b>공원</b>,서울특별시 서초구 반포동,,313155,545059,"레져,체육시설>공원",,,
1394,초롱어린이<b>공원</b>,서울특별시 서초구 반포동,,310667,544655,"레져,체육시설>공원",,,
1395,반포자이아파트<b>공원</b>,서울특별시 서초구 반포동,,312872,545252,"레져,체육시설>공원",,,
1396,서리풀<b>공원</b>,서울특별시 서초구 서초동 산165-4,,311936,543354,"여행,명소>근린공원",,02-2155-6861,
1397,용허리근린<b>공원</b>,서울특별시 서초구 서초동 1324-1,,313849,544017,"여행,명소>근린공원",,,
1398,명달<b>공원</b>,서울특별시 서초구 서초동,,313658,544492,"여행,명소>근린공원",,,
1399,꽃마을1소<b>공원</b>,서울특별시 서초구 서초동  1500-6,,312388,543608,"여행,명소>근린공원",,,
1400,명달가로<b>공원</b>,서울특별시 서초구 서초동,,312126,543347,"여행,명소>근린공원",,,
1401,장안어린이<b>공원</b>,서울특별시 서초구 서초동,,312775,543750,"레져,체육시설>공원",,,
1402,신중어린이<b>공원</b>,서울특별시 서초구 서초동,,312708,542704,"레져,체육시설>공원",,,
1403,예술어린이<b>공원</b>,서울특별시 서초구 서초동,,313051,542801,"레져,체육시설>공원",,,
1404,사도감어린이<b>공원</b>,서울특별시 서초구 서초동,,314524,543070,"레져,체육시설>공원",,,
1405,당골어린이<b>공원</b>,서울특별시 서초구 서초동,,313764,543058,"레져,체육시설>공원",,,
1406,하명달어린이<b>공원</b>,서울특별시 서초구 서초동,,312245,543102,"레져,체육시설>공원",,,
1407,궁현어린이<b>공원</b>,서울특별시 서초구 서초동,,312682,543382,"레져,체육시설>공원",,,
1408,분토골<b>공원</b>,서울특별시 서초구 서초동,,313314,543377,"레져,체육시설>공원",,,
1409,상명달어린이<b>공원</b>,서울특별시 서초구 서초동,,312258,542689,"레져,체육시설>공원",,,
1410,마산말어린이<b>공원</b>,서울특별시 서초구 서초동,,314127,543225,"레져,체육시설>공원",,,
1411,헌인릉 생태경관보전지역,서울특별시 서초구 내곡동,,318974,540845,"여행,명소>자연,생태공원",,02-445-0347,
1412,윗샘어린이<b>공원</b>,서울특별시 서초구 내곡동,,318070,540000,"레져,체육시설>공원",,,
1413,아랫샘어린이<b>공원</b>,서울특별시 서초구 내곡동,,318109,540246,"레져,체육시설>공원",,,
1414,홍씨마을어린이<b>공원</b>,서울특별시 서초구 내곡동,,317548,539396,"레져,체육시설>공원",,,
1415,능안어린이<b>공원</b>,서울특별시 서초구 내곡동,,317534,539559,"레져,체육시설>공원",,,
1416,안골어린이<b>공원</b>창의놀이터,서울특별시 서초구 내곡동,,317326,539764,"레져,체육시설>공원",,,
1417,염곡어린이<b>공원</b>,서울특별시 서초구 염곡동,,316535,540536,"레져,체육시설>공원",,,
1418,느티나무소<b>공원</b>,서울특별시 서초구 염곡동,,316563,540620,"레져,체육시설>공원",,,
1419,청계숲어린이<b>공원</b>,서울특별시 서초구 신원동,,316844,538819,"레져,체육시설>공원",,,
1420,세원어린이<b>공원</b>,서울특별시 서초구 신원동,,316156,539735,"레져,체육시설>공원",,,
1421,세원어린이<b>공원</b>창의놀이터,서울특별시 서초구 신원동,,316159,539734,"레져,체육시설>공원",,,
1422,본마을어린이<b>공원</b>,서울특별시 서초구 신원동,,316419,539601,"레져,체육시설>공원",,,
1423,새쟁이어린이<b>공원</b>,서울특별시 서초구 신원동,,317779,537468,"레져,체육시설>공원",,,
1424,새쟁이어린이<b>공원</b>창의놀이터,서울특별시 서초구 신원동,,317783,537468,"레져,체육시설>공원",,,
1425,역삼<b>공원</b>,서울특별시 강남구 역삼동 635-1,서울특별시 강남구 테헤란로7길 21 국립어린이청소년도서관,314455,544803,"여행,명소>도시,테마공원",,,
1426,역삼까치<b>공원</b>,서울특별시 강남구 역삼동,,314494,544344,"여행,명소>근린공원",,,
1427,역삼개나리<b>공원</b>,서울특별시 강남구 역삼동,,314976,544388,"여행,명소>근린공원",,,
1428,은행나무<b>공원</b>,서울특별시 강남구 역삼동 611,,314562,545253,"여행,명소>근린공원",,,
1429,역삼장미<b>공원</b>,서울특별시 강남구 역삼동,,315738,544126,"여행,명소>근린공원",,,
1430,충현1<b>공원</b>,서울특별시 강남구 역삼동,,315021,545149,"여행,명소>근린공원",,,
1431,역삼무궁화<b>공원</b>,서울특별시 강남구 역삼동,,314627,543989,"여행,명소>근린공원",,,
1432,역삼소나무<b>공원</b>,서울특별시 강남구 역삼동,,314750,543646,"여행,명소>근린공원",,,
1433,길섶근린<b>공원</b>,서울특별시 강남구 역삼동,,316094,544374,"여행,명소>근린공원",,,
1434,송운근린<b>공원</b>,서울특별시 강남구 역삼동,,316118,544557,"여행,명소>근린공원",,,
1435,역삼미소<b>공원</b>,서울특별시 강남구 역삼동  711-5,,315671,544796,"여행,명소>근린공원",,,
1436,새뜰근린<b>공원</b>,서울특별시 강남구 역삼동,,316286,544255,"여행,명소>근린공원",,,
1437,충현2<b>공원</b>,서울특별시 강남구 역삼동,,315174,545243,"여행,명소>근린공원",,,
1438,영동근린<b>공원</b>,서울특별시 강남구 역삼동,,316078,544412,"여행,명소>근린공원",,,
1439,보은근린<b>공원</b>,서울특별시 강남구 역삼동,,316045,544403,"여행,명소>근린공원",,,
1440,다솜소<b>공원</b>,서울특별시 강남구 역삼동,,316007,544164,"여행,명소>근린공원",,,
1441,역삼나들이<b>공원</b>,서울특별시 강남구 역삼동  716-5,,316238,544716,"여행,명소>근린공원",,,
1442,도성근린<b>공원</b>,서울특별시 강남구 역삼동 713-15,,316097,544668,"여행,명소>근린공원",,02-2356-7428,
1443,개나리래미안아파트<b>공원</b>,서울특별시 강남구 역삼동,,315983,544496,"레져,체육시설>공원",,,
1444,<b>개포동</b>근린<b>공원</b>,서울특별시 강남구 개포동 182-1,서울특별시 강남구 개포로 509,317799,543479,"여행,명소>근린공원",,,
1445,양준혁의레전드야구교실,서울특별시 강남구 개포동 1197-2,서울특별시 강남구 논현로10길 29 친환경식품유통센터,316206,541894,"여행,명소>근린공원",,02-572-0101,
1446,대진<b>공원</b>,서울특별시 강남구 개포동,,318730,544120,"여행,명소>근린공원",,,
1447,달터근린<b>공원</b>,서울특별시 강남구 개포동,,317111,543010,"여행,명소>근린공원",,,
1448,개포<b>공원</b>,서울특별시 강남구 개포동,,317580,542702,"여행,명소>근린공원",,,
1449,달터<b>공원</b>,서울특별시 강남구 개포동,,316366,542144,"여행,명소>근린공원",,,
1450,포이근린<b>공원</b>,서울특별시 강남구 개포동,,315892,542293,"여행,명소>근린공원",,,
1451,청룡근린<b>공원</b>,서울특별시 강남구 개포동,,316678,543147,"여행,명소>근린공원",,,
1452,신화숲,서울특별시 강남구 개포동,,316299,542355,"여행,명소>근린공원",,,
1453,출발마당,서울특별시 강남구 개포동,,316140,542685,"여행,명소>근린공원",,,
1454,개포서근린<b>공원</b>,서울특별시 강남구 개포동,,317417,543389,"여행,명소>근린공원",,,
1455,개포은행나무<b>공원</b>,서울특별시 강남구 개포동,,316085,541977,"여행,명소>근린공원",,,
1456,한마음어린이<b>공원</b>,서울특별시 강남구 개포동,,318471,544174,"레져,체육시설>공원",,,
1457,개포목련어린이<b>공원</b>,서울특별시 강남구 개포동,,316386,541782,"레져,체육시설>공원",,,
1458,예지<b>공원</b>,서울특별시 강남구 개포동,,318241,543720,"여행,명소>근린공원",,,
1459,개포까치<b>공원</b>,서울특별시 강남구 개포동,,317165,542825,"여행,명소>근린공원",,,
1460,청담근린<b>공원</b>,서울특별시 강남구 청담동 66,,316440,546997,"여행,명소>근린공원",,02-3423-6245,
1461,청수근린<b>공원</b>,서울특별시 강남구 청담동,,316973,547209,"여행,명소>근린공원",,,
1462,홍토피아앤,서울특별시 강남구 청담동 108,서울특별시 강남구 도산대로89길 49 건영 아파트101동,316434,547671,"여행,명소>테마공원","테마<b>공원</b>, 사업개요, 추진개획, 뉴스정보, 사진 등 수록.",,
1463,청담은행나무어린이<b>공원</b>,서울특별시 강남구 청담동,,315693,547433,"레져,체육시설>공원",,,
1464,청담목련어린이<b>공원</b>,서울특별시 강남구 청담동,,316207,547182,"레져,체육시설>공원",,,
1465,청담배수지<b>공원</b>,서울특별시 강남구 삼성동 79-1,,317292,546813,"여행,명소>근린공원",,,
1466,청담도로<b>공원</b>,서울특별시 강남구 삼성동,,317323,546994,"여행,명소>근린공원",,,
1467,반달근린<b>공원</b>,서울특별시 강남구 삼성동,,315587,546440,"여행,명소>근린공원",,,
1468,봉은<b>공원</b>,서울특별시 강남구 삼성동,,316700,546171,"여행,명소>근린공원",,,
1469,삼성까치<b>공원</b>,서울특별시 강남구 삼성동,,317152,546652,"여행,명소>근린공원",,,
1470,학봉<b>공원</b>,서울특별시 강남구 삼성동,,316378,546064,"여행,명소>근린공원",,,
1471,샘터근린<b>공원</b>,서울특별시 강남구 삼성동,,315994,546342,"여행,명소>근린공원",,,
1472,삼성은행나무<b>공원</b>,서울특별시 강남구 삼성동,,315846,546475,"여행,명소>근린공원",,,
1473,배꽃근린<b>공원</b>,서울특별시 강남구 삼성동,,315739,546446,"여행,명소>근린공원",,,
1474,삼성목련<b>공원</b>,서울특별시 강남구 삼성동,,316556,546696,"여행,명소>근린공원",,,
1475,늘벗<b>공원</b>,서울특별시 강남구 대치동,,316810,543463,"여행,명소>근린공원",,,
1476,대치근린<b>공원</b>,서울특별시 강남구 대치동 512,,317951,544079,"여행,명소>근린공원",,,
1477,한티근린<b>공원</b>,서울특별시 강남구 대치동,,317257,544121,"여행,명소>근린공원",,,
1478,대치유수지체육<b>공원</b>,서울특별시 강남구 대치동,,317886,544885,"지역명소>도시,테마공원",,,
1479,대치목련<b>공원</b>,서울특별시 강남구 대치동,,316942,544596,"여행,명소>근린공원",,,
1480,소지섭무궁화길,서울특별시 강남구 대치동 513-3,,318028,543847,"여행,명소>도시,테마공원",,,
1481,큰골근린<b>공원</b>,서울특별시 강남구 대치동,,316603,543948,"여행,명소>근린공원",,,
1482,우리동네숲4호,서울특별시 강남구 대치동,,317299,544909,"여행,명소>근린공원",,,
1483,준케이숲,서울특별시 강남구 대치동,,316842,543527,"여행,명소>근린공원",,,
1484,까치<b>공원</b>,서울특별시 강남구 대치동,,317011,544291,"레져,체육시설>공원",,,
1485,도산<b>공원</b>,서울특별시 강남구 신사동 649-9,서울특별시 강남구 도산대로45길 20 도산전시관,314903,547385,"여행,명소>테마공원",,,
1486,홀리랜드익스피어리언스,서울특별시 강남구 신사동 634 육삼사빌딩 4층,서울특별시 강남구 언주로 852 육삼사빌딩,314789,547582,"여행,명소>테마공원",,02-515-6314,http://www.holylandexperience.co.kr/
1487,신사까치<b>공원</b>,서울특별시 강남구 신사동,,314388,547259,"여행,명소>근린공원",,,
1488,신사개나리<b>공원</b>,서울특별시 강남구 신사동 609-2,,314409,547499,"여행,명소>근린공원",,,
1489,신사은행나무<b>공원</b>,서울특별시 강남구 신사동 558,,314104,546931,"여행,명소>근린공원",,,
1490,신사목련<b>공원</b>,서울특별시 강남구 신사동,,314086,547199,"여행,명소>근린공원",,,
1491,신사무궁화<b>공원</b>,서울특별시 강남구 신사동  625-5,,314632,547335,"여행,명소>근린공원",,,
1492,학동<b>공원</b>,서울특별시 강남구 논현동,,314086,546435,"여행,명소>도시,테마공원",,,
1493,논현까치<b>공원</b>,서울특별시 강남구 논현동,,314006,545600,"여행,명소>근린공원",,,
1494,논현은행나무<b>공원</b>,서울특별시 강남구 논현동,,313772,546065,"여행,명소>근린공원",,,
1495,논현소나무<b>공원</b>,서울특별시 강남구 논현동,,315096,546394,"여행,명소>근린공원",,,
1496,논현목련<b>공원</b>,서울특별시 강남구 논현동,,314156,545858,"여행,명소>근린공원",,,
1497,개나리<b>공원</b>,서울특별시 강남구 논현동,,314442,545912,"여행,명소>근린공원",,,
1498,무궁화<b>공원</b>,서울특별시 강남구 논현동,,314487,545387,"여행,명소>근린공원",,,
1499,신사<b>공원</b>,서울특별시 강남구 압구정동,,313705,547621,"여행,명소>근린공원",,,
1500,갈매기근린<b>공원</b>,서울특별시 강남구 압구정동,,314876,548179,"여행,명소>근린공원",,,
1501,압구정은행<b>공원</b>,서울특별시 강남구 압구정동,,314600,548059,"여행,명소>근린공원",,,
1502,현대백화점 압구정본점하늘<b>공원</b>,서울특별시 강남구 압구정동,,314222,547672,"레져,체육시설>공원",,,
1503,압구정현대3차아파트<b>공원</b>,서울특별시 강남구 압구정동,,314804,548211,"레져,체육시설>공원",,,
1504,은곡마을<b>공원</b>,서울특별시 강남구 세곡동,,320631,541035,"여행,명소>근린공원",,,
1505,세곡시<b>공원</b>,서울특별시 강남구 세곡동 산50-10,,320378,541268,"여행,명소>근린공원",,,
1506,반고개마을마당,서울특별시 강남구 세곡동,,321431,540762,"여행,명소>근린공원",,,
1507,대왕어린이<b>공원</b>,서울특별시 강남구 세곡동,,320985,540412,"레져,체육시설>공원",,,
1508,행복어린이<b>공원</b>,서울특별시 강남구 세곡동,,320336,540965,"레져,체육시설>공원",,,
1509,도담어린이<b>공원</b>,서울특별시 강남구 세곡동,,320457,540964,"레져,체육시설>공원",,,
1510,아랫반고개어린이<b>공원</b>,서울특별시 강남구 세곡동,,321207,540580,"레져,체육시설>공원",,,
1511,윗반고개어린이<b>공원</b>,서울특별시 강남구 세곡동,,321409,540805,"레져,체육시설>공원",,,
1512,세곡천어린이<b>공원</b>,서울특별시 강남구 세곡동,,320693,540508,"레져,체육시설>공원",,,
1513,쉼표소<b>공원</b>,서울특별시 강남구 세곡동,,320567,540993,"레져,체육시설>공원",,,
1514,못골어린이<b>공원</b>,서울특별시 강남구 자곡동,,320603,541668,"레져,체육시설>공원",,,
1515,쟁골어린이<b>공원</b>,서울특별시 강남구 자곡동,,320797,542575,"레져,체육시설>공원",,,
1516,율현<b>공원</b>,서울특별시 강남구 율현동 77-2,,321940,541526,"여행,명소>근린공원",,,
1517,아래방죽마을<b>공원</b>,서울특별시 강남구 율현동 194-5,서울특별시 강남구 밤고개로23길 12,321312,541609,"여행,명소>근린공원",,,
1518,율현<b>공원</b>,서울특별시 강남구 율현동  55-1,,321932,541831,"여행,명소>근린공원",,,
1519,솔밭소<b>공원</b>,서울특별시 강남구 율현동,,321318,541674,"레져,체육시설>공원",,,
1520,방죽소<b>공원</b>,서울특별시 강남구 율현동,,321174,541537,"레져,체육시설>공원",,,
1521,윗방죽마을<b>공원</b>,서울특별시 강남구 율현동,,320989,541297,"레져,체육시설>공원",,,
1522,마루<b>공원</b>,서울특별시 강남구 일원동,,318922,544194,"지역명소>도시,테마공원",,,
1523,대청<b>공원</b>,서울특별시 강남구 일원동,,319069,543772,"여행,명소>근린공원",,,
1524,한솔<b>공원</b>,서울특별시 강남구 일원동,,318646,542486,"여행,명소>근린공원",,,
1525,목련<b>공원</b>,서울특별시 강남구 일원동,,319330,543655,"여행,명소>근린공원",,,
1526,늘푸른<b>공원</b>,서울특별시 강남구 일원동,,318625,543475,"여행,명소>근린공원",,,
1527,일원진달래<b>공원</b>,서울특별시 강남구 일원동 716-1,,319243,542916,"여행,명소>근린공원",,,
1528,일원비둘기<b>공원</b>,서울특별시 강남구 일원동 735-1,,319365,542745,"여행,명소>근린공원",,,
1529,일원은행나무<b>공원</b>,서울특별시 강남구 일원동,,318568,543725,"여행,명소>근린공원",,,
1530,일원에코파크,서울특별시 강남구 일원동 580,서울특별시 강남구 개포로 625,319068,544358,"여행,명소>자연공원",,,
1531,대모산도시자연<b>공원</b>,서울특별시 강남구 일원동,,318915,542347,"여행,명소>자연공원",,02-2104-1912,
1532,목련<b>공원</b>놀이터,서울특별시 강남구 일원동,,319337,543654,"레져,체육시설>공원",,,
1533,일원까치어린이<b>공원</b>,서울특별시 강남구 일원동  ,,319565,543724,"레져,체육시설>공원",,,
1534,탄천근린<b>공원</b>,서울특별시 강남구 수서동,,321167,543215,"여행,명소>근린공원",,,
1535,궁마을어린이<b>공원</b>,서울특별시 강남구 수서동,,320548,542914,"레져,체육시설>공원",,,
1536,수서개나리어린이<b>공원</b>,서울특별시 강남구 수서동,,321093,543197,"레져,체육시설>공원",,,
1537,수서목련어린이<b>공원</b>,서울특별시 강남구 수서동,,320943,543544,"레져,체육시설>공원",,,
1538,수서은행나무어린이<b>공원</b>,서울특별시 강남구 수서동,,320590,543615,"레져,체육시설>공원",,,
1539,싸리고개<b>공원</b>,서울특별시 강남구 도곡동,,314925,543481,"여행,명소>근린공원",,,
1540,도곡<b>공원</b>,서울특별시 강남구 도곡동,,315749,543562,"여행,명소>근린공원",,,
1541,독골<b>공원</b>,서울특별시 강남구 도곡동,,315915,542966,"여행,명소>근린공원",,,
1542,도곡까치<b>공원</b>,서울특별시 강남구 도곡동,,315757,542779,"여행,명소>근린공원",,,
1543,목련<b>공원</b>,서울특별시 강남구 도곡동 415-3,,315678,542974,"여행,명소>근린공원",,,
1544,개포근린<b>공원</b>,서울특별시 강남구 도곡동,,315905,542979,"여행,명소>근린공원",,,
1545,도곡햇살<b>공원</b>,서울특별시 강남구 도곡동 538-4,,316420,544154,"여행,명소>근린공원",,,
1546,도곡단비소<b>공원</b>,서울특별시 강남구 도곡동,,315943,543958,"여행,명소>근린공원",,,
1547,잠실 한강<b>공원</b>,서울특별시 송파구 잠실동 1-1,서울특별시 송파구 한가람로 65 한강사업본부 잠실안내센터,319758,546694,"여행,명소>시민공원",,,http://hangang.seoul.go.kr/archives/46639
1548,아시아<b>공원</b>,서울특별시 송파구 잠실동 84,서울특별시 송파구 올림픽로 44,318550,545743,"여행,명소>근린공원",,02-412-0270,
1549,송파나루<b>공원</b>,서울특별시 송파구 잠실동 47,서울특별시 송파구 잠실로 148,320905,545601,"여행,명소>근린공원",,02-2147-3380,
1550,RM 숲 1호,서울특별시 송파구 잠실동 1-1,서울특별시 송파구 한가람로 65,319269,546518,"여행,명소>근린공원",,,
1551,잠실<b>공원</b>,서울특별시 송파구 잠실동 230,서울특별시 송파구 백제고분로15길 7 잠전경로당,319163,545285,"여행,명소>근린공원",,,
1552,부리근린<b>공원</b>,서울특별시 송파구 잠실동,,319474,546159,"여행,명소>근린공원",,,
1553,매미근린<b>공원</b>,서울특별시 송파구 잠실동,,319643,545649,"여행,명소>근린공원",,,
1554,잠실유수지<b>공원</b>,서울특별시 송파구 잠실동 306,,318720,544955,"여행,명소>도시,테마공원",,,
1555,개나리<b>공원</b>,서울특별시 송파구 잠실동 44-6,,320114,545455,"여행,명소>근린공원",,,
1556,뽕나무근린<b>공원</b>,서울특별시 송파구 잠실동,,319022,546162,"여행,명소>근린공원",,,
1557,새마을어린이<b>공원</b>,서울특별시 송파구 잠실동,,319443,545514,"레져,체육시설>공원",,,
1558,부렴어린이<b>공원</b>창의놀이터,서울특별시 송파구 잠실동,,318792,545234,"레져,체육시설>공원",,,
1559,부렴어린이<b>공원</b>,서울특별시 송파구 잠실동,,318797,545239,"레져,체육시설>공원",,,
1560,진달래어린이<b>공원</b>,서울특별시 송파구 잠실동,,319411,545015,"레져,체육시설>공원",,,
1561,쌀섬어린이<b>공원</b>,서울특별시 송파구 잠실동,,319072,545061,"레져,체육시설>공원",,,
1562,뽕밭어린이<b>공원</b>,서울특별시 송파구 잠실동,,318952,545474,"레져,체육시설>공원",,,
1563,신천어린이교통<b>공원</b>,서울특별시 송파구 신천동,,320821,546353,"레져,체육시설>공원",,02-413-0004,
1564,생태화<b>공원</b>,서울특별시 송파구 신천동,,320524,547137,"여행,명소>자연,생태공원",,,
1565,광나루한강<b>공원</b>,서울특별시 송파구 신천동 ,,321031,547544,"여행,명소>자연공원",,,
1566,잠실6동<b>공원</b>,서울특별시 송파구 신천동,,320766,546623,"여행,명소>근린공원",,,
1567,하늘가람근린<b>공원</b>,서울특별시 송파구 신천동,,321230,546745,"여행,명소>근린공원",,,
1568,장미마을마당,서울특별시 송파구 신천동,,320872,546618,"여행,명소>근린공원",,,
1569,온조마루근린<b>공원</b>,서울특별시 송파구 신천동,,321533,546796,"여행,명소>근린공원",,,
1570,새내근린<b>공원</b>,서울특별시 송파구 신천동 ,,321005,546905,"여행,명소>근린공원",,,
1571,풍납백제문화<b>공원</b>,서울특별시 송파구 풍납동,,321920,548544,"여행,명소>근린공원",,,
1572,풍납근린<b>공원</b>,서울특별시 송파구 풍납동,,322586,548811,"여행,명소>근린공원",,,
1573,풍납토성경당지구,서울특별시 송파구 풍납동,,322167,548589,"여행,명소>근린공원",,,
1574,풍납타이어<b>공원</b>,서울특별시 송파구 풍납동,,322566,548566,"여행,명소>근린공원",,,
1575,풍납마을마당<b>공원</b>,서울특별시 송파구 풍납동,,321846,547624,"여행,명소>근린공원",,,
1576,태양근린<b>공원</b>,서울특별시 송파구 풍납동,,322004,547342,"여행,명소>근린공원",,,
1577,윗바람어린이<b>공원</b>,서울특별시 송파구 풍납동,,321726,548388,"레져,체육시설>공원",,,
1578,송이<b>공원</b>,서울특별시 송파구 송파동 169,,322286,544678,"여행,명소>도시,테마공원",,02-2147-3380,
1579,송파근린<b>공원</b>,서울특별시 송파구 송파동,,321507,545296,"여행,명소>근린공원",,,
1580,한양<b>공원</b>,서울특별시 송파구 송파동,,322015,545009,"여행,명소>근린공원",,,
1581,배밭어린이<b>공원</b>,서울특별시 송파구 송파동,,321978,544744,"레져,체육시설>공원",,,
1582,새싹<b>공원</b>,서울특별시 송파구 송파동,,321769,545136,"여행,명소>근린공원",,,
1583,중대어린이<b>공원</b>,서울특별시 송파구 송파동,,321989,544551,"레져,체육시설>공원",,,
1584,동호수어린이<b>공원</b>,서울특별시 송파구 송파동,,321255,545665,"레져,체육시설>공원",,,
1585,가락골어린이<b>공원</b>,서울특별시 송파구 송파동,,321776,545397,"레져,체육시설>공원",,,
1586,어사어린이<b>공원</b>,서울특별시 송파구 송파동,,321761,545290,"레져,체육시설>공원",,,
1587,마을마당<b>공원</b>,서울특별시 송파구 송파동,,321588,544937,"여행,명소>근린공원",,,
1588,동산근린<b>공원</b>,서울특별시 송파구 송파동,,321919,545264,"여행,명소>근린공원",,,
1589,석촌상상어린이<b>공원</b>,서울특별시 송파구 석촌동,,320603,545249,"레져,체육시설>공원",,,
1590,돌마리어린이<b>공원</b>,서울특별시 송파구 석촌동,,320924,544640,"레져,체육시설>공원",,,
1591,아름어린이<b>공원</b>,서울특별시 송파구 석촌동,,321249,544957,"레져,체육시설>공원",,,
1592,오봉산어린이<b>공원</b>,서울특별시 송파구 석촌동,,320846,545283,"레져,체육시설>공원",,,
1593,삼학사어린이<b>공원</b>,서울특별시 송파구 삼전동,,320230,545277,"레져,체육시설>공원",,,
1594,삼밭나루어린이<b>공원</b>,서울특별시 송파구 삼전동,,319896,545168,"레져,체육시설>공원",,,
1595,삼밭어린이<b>공원</b>,서울특별시 송파구 삼전동,,319984,544550,"레져,체육시설>공원",,,
1596,삼전어린이<b>공원</b>,서울특별시 송파구 삼전동,,319759,544800,"레져,체육시설>공원",,,
1597,삼전<b>공원</b>,서울특별시 송파구 삼전동,,319970,544876,"여행,명소>근린공원",,,
1598,삼학사어린이<b>공원</b>창의놀이터,서울특별시 송파구 삼전동,,320230,545278,"레져,체육시설>공원",,,
1599,가락근린<b>공원</b>,서울특별시 송파구 가락동 37,서울특별시 송파구 양재대로64길 42 가락근린공원,322766,544371,"여행,명소>근린공원",,02-2147-3380,
1600,비석거리<b>공원</b>,서울특별시 송파구 가락동 96-15,,322164,543967,"여행,명소>도시,테마공원",,02-2147-3380,
1601,건너말<b>공원</b>,서울특별시 송파구 가락동 110,서울특별시 송파구 중대로10길 29 건너말공원 경로당,322723,543677,"여행,명소>근린공원",,,
1602,개롱근린<b>공원</b>,서울특별시 송파구 가락동,,323357,543861,"여행,명소>근린공원",,,
1603,웃말<b>공원</b>,서울특별시 송파구 가락동,,322635,544819,"여행,명소>근린공원",,,
1604,투구봉어린이<b>공원</b>,서울특별시 송파구 가락동,,323739,543899,"레져,체육시설>공원",,,
1605,홍이어린이<b>공원</b>,서울특별시 송파구 가락동,,322833,544697,"레져,체육시설>공원",,,
1606,방죽<b>공원</b>,서울특별시 송파구 가락동,,322632,544650,"여행,명소>근린공원",,,
1607,팔각정어린이<b>공원</b>,서울특별시 송파구 가락동,,322744,543756,"레져,체육시설>공원",,,
1608,안산골어린이<b>공원</b>,서울특별시 송파구 가락동,,322976,544306,"레져,체육시설>공원",,,
1609,샛별어린이<b>공원</b>,서울특별시 송파구 가락동,,322550,544350,"레져,체육시설>공원",,,
1610,샛팽이어린이<b>공원</b>,서울특별시 송파구 가락동,,323629,544209,"레져,체육시설>공원",,,
1611,봉우리어린이<b>공원</b>,서울특별시 송파구 가락동,,322317,544189,"레져,체육시설>공원",,,
1612,새말어린이<b>공원</b>,서울특별시 송파구 가락동,,322889,543965,"레져,체육시설>공원",,,
1613,능골어린이<b>공원</b>창의놀이터,서울특별시 송파구 가락동,,323534,543802,"레져,체육시설>공원",,,
1614,장지<b>공원</b>,서울특별시 송파구 가락동,,324037,544081,"여행,명소>근린공원",,,
1615,샛별어린이<b>공원</b>창의놀이터,서울특별시 송파구 가락동,,322545,544350,"레져,체육시설>공원",,,
1616,무궁화어린이<b>공원</b>,서울특별시 송파구 가락동,,323006,543806,"레져,체육시설>공원",,,
1617,어린이<b>공원</b>,서울특별시 송파구 가락동,,323535,543807,"레져,체육시설>공원",,,
1618,연화근린<b>공원</b>,서울특별시 송파구 문정동,,323160,542925,"여행,명소>근린공원",,,
1619,문정근린<b>공원</b>,서울특별시 송파구 문정동,,323045,543037,"여행,명소>근린공원",,,
1620,소리<b>공원</b>,서울특별시 송파구 문정동  361-3,,322351,542539,"여행,명소>근린공원",,,
1621,글샘<b>공원</b>,서울특별시 송파구 문정동,,322530,542216,"여행,명소>근린공원",,,
1622,한우물근린<b>공원</b>,서울특별시 송파구 문정동,,322837,542211,"여행,명소>근린공원",,,
1623,문정근린<b>공원</b>,서울특별시 송파구 문정동,,323446,543336,"여행,명소>근린공원",,,
1624,훼밀리근린<b>공원</b>,서울특별시 송파구 문정동,,321810,543531,"여행,명소>근린공원",,,
1625,두댐이<b>공원</b>,서울특별시 송파구 문정동  2,,323473,543475,"여행,명소>근린공원",,,
1626,숯내<b>공원</b>,서울특별시 송파구 문정동,,321505,543405,"여행,명소>근린공원",,,
1627,근린<b>공원</b>,서울특별시 송파구 문정동,,322741,542252,"여행,명소>근린공원",,,
1628,호돌이<b>공원</b>,서울특별시 송파구 문정동,,321804,543192,"여행,명소>근린공원",,,
1629,한샘어린이<b>공원</b>,서울특별시 송파구 문정동,,322819,542873,"레져,체육시설>공원",,,
1630,개나리어린이<b>공원</b>,서울특별시 송파구 문정동,,323111,542608,"레져,체육시설>공원",,,
1631,반딧불어린이<b>공원</b>,서울특별시 송파구 문정동,,322737,543216,"레져,체육시설>공원",,,
1632,수정어린이<b>공원</b>,서울특별시 송파구 문정동,,322931,543349,"레져,체육시설>공원",,,
1633,늘봄어린이<b>공원</b>,서울특별시 송파구 문정동,,323609,543191,"레져,체육시설>공원",,,
1634,희망어린이<b>공원</b>,서울특별시 송파구 문정동,,323344,542991,"레져,체육시설>공원",,,
1635,희망어린이<b>공원</b>창의놀이터,서울특별시 송파구 문정동,,323348,542990,"레져,체육시설>공원",,,
1636,장지<b>공원</b>,서울특별시 송파구 장지동,,323845,543479,"여행,명소>근린공원",,,
1637,송파구자원순환<b>공원</b>,서울특별시 송파구 장지동 695-2,,322741,541404,"여행,명소>근린공원",,,
1638,장수<b>공원</b>,서울특별시 송파구 장지동,,323317,542477,"여행,명소>근린공원",,,
1639,문현<b>공원</b>,서울특별시 송파구 장지동,,323090,542480,"여행,명소>근린공원",,,
1640,버들<b>공원</b>,서울특별시 송파구 장지동,,323574,542211,"여행,명소>근린공원",,,
1641,한림어린이<b>공원</b>,서울특별시 송파구 장지동,,323507,542955,"레져,체육시설>공원",,,
1642,올림픽<b>공원</b>,서울특별시 송파구 방이동 88,서울특별시 송파구 올림픽로 424,322672,546893,"여행,명소>도시,테마공원",,,http://www.olympicpark.co.kr/
1643,올림픽<b>공원</b> 들꽃마루,서울특별시 송파구 방이동 88,서울특별시 송파구 올림픽로 424 올림픽공원,322890,546072,"여행,명소>도시,테마공원",,,
1644,방이동 보전지역,서울특별시 송파구 방이동 443-15,서울특별시 송파구 동남로 397 방이동생태학습관,324170,545815,"여행,명소>자연,생태공원",,02-2147-3380,
1645,성내유수지체육<b>공원</b>,서울특별시 송파구 방이동 88-13,,322400,547509,"지역명소>도시,테마공원",,,
1646,올림픽<b>공원</b> 조각<b>공원</b>,서울특별시 송파구 방이동 88,서울특별시 송파구 올림픽로 448,322329,546329,"여행,명소>테마공원",,,
1647,올림픽광장,서울특별시 송파구 방이동,,323461,546376,"여행,명소>근린공원",,,
1648,송파방이<b>공원</b>,서울특별시 송파구 방이동,,321863,546146,"여행,명소>근린공원",,,
1649,몽촌<b>공원</b>,서울특별시 송파구 방이동,,321950,546013,"여행,명소>근린공원",,,
1650,방잇골어린이<b>공원</b>,서울특별시 송파구 방이동,,321548,546072,"레져,체육시설>공원",,,
1651,비둘기어린이<b>공원</b>,서울특별시 송파구 방이동,,322705,545989,"레져,체육시설>공원",,,
1652,임금샘어린이<b>공원</b>,서울특별시 송파구 방이동,,322843,545795,"레져,체육시설>공원",,,
1653,평화소<b>공원</b>,서울특별시 송파구 방이동,,321704,546395,"레져,체육시설>공원",,,
1654,곰말어린이<b>공원</b>,서울특별시 송파구 방이동,,322210,545879,"레져,체육시설>공원",,,
1655,옛동산어린이<b>공원</b>,서울특별시 송파구 방이동,,322040,545636,"레져,체육시설>공원",,,
1656,솔밭어린이<b>공원</b>,서울특별시 송파구 방이동,,322722,545578,"레져,체육시설>공원",,,
1657,오금<b>공원</b>,서울특별시 송파구 오금동 51,서울특별시 송파구 오금로 363 오금근린공원,323488,544992,"여행,명소>도시,테마공원",,02-2147-3380,
1658,누에머리<b>공원</b>,서울특별시 송파구 오금동 110,서울특별시 송파구 문정로 271 누에머리경로당,324379,544888,"여행,명소>도시,테마공원",,02-2147-3380,
1659,성내천물빛광장,서울특별시 송파구 오금동 75-4,,323911,544727,"여행,명소>근린공원",,,
1660,목련<b>공원</b>,서울특별시 송파구 오금동,,324084,544449,"여행,명소>근린공원",,,
1661,벌말어린이<b>공원</b>,서울특별시 송파구 오금동,,324163,544757,"레져,체육시설>공원",,,
1662,백토<b>공원</b>,서울특별시 송파구 오금동,,323513,545487,"여행,명소>근린공원",,,
1663,오동나무어린이<b>공원</b>,서울특별시 송파구 오금동,,323626,545257,"레져,체육시설>공원",,,
1664,벌말어린이<b>공원</b>창의놀이터,서울특별시 송파구 오금동,,324162,544759,"레져,체육시설>공원",,,
1665,큰솔어린이<b>공원</b>,서울특별시 송파구 오금동,,323083,545026,"레져,체육시설>공원",,,
1666,가야금어린이<b>공원</b>,서울특별시 송파구 오금동,,323226,545527,"레져,체육시설>공원",,,
1667,꿈나무어린이<b>공원</b>,서울특별시 송파구 오금동,,324259,544915,"레져,체육시설>공원",,,
1668,복숭아어린이<b>공원</b>,서울특별시 송파구 오금동,,323399,545323,"레져,체육시설>공원",,,
1669,아랫말어린이<b>공원</b>,서울특별시 송파구 오금동,,323918,545089,"레져,체육시설>공원",,,
1670,안골어린이<b>공원</b>,서울특별시 송파구 오금동,,323745,544881,"레져,체육시설>공원",,,
1671,거여<b>공원</b>,서울특별시 송파구 거여동,,324326,544194,"여행,명소>근린공원",,,
1672,체육동산,서울특별시 송파구 거여동,,324093,544032,"지역명소>도시,테마공원",,,
1673,개미동산,서울특별시 송파구 거여동,,324118,543842,"여행,명소>근린공원",,,
1674,능안<b>공원</b>,서울특별시 송파구 거여동,,324499,543271,"여행,명소>근린공원",,,
1675,큰바위어린이<b>공원</b>,서울특별시 송파구 거여동,,324380,544341,"레져,체육시설>공원",,,
1676,거여어린이<b>공원</b>,서울특별시 송파구 거여동,,324391,543755,"레져,체육시설>공원",,,
1677,배미골상상어린이<b>공원</b>,서울특별시 송파구 거여동,,324780,543540,"레져,체육시설>공원",,,
1678,개미어린이<b>공원</b>,서울특별시 송파구 거여동,,324729,543706,"레져,체육시설>공원",,,
1679,영풍어린이<b>공원</b>,서울특별시 송파구 거여동,,324379,544010,"레져,체육시설>공원",,,
1680,향나무어린이<b>공원</b>,서울특별시 송파구 거여동,,324524,543411,"레져,체육시설>공원",,,
1681,모슬어린이<b>공원</b>,서울특별시 송파구 거여동,,324638,543707,"레져,체육시설>공원",,,
1682,잔버들어린이<b>공원</b>,서울특별시 송파구 거여동,,324536,544267,"레져,체육시설>공원",,,
1683,천마근린<b>공원</b>,서울특별시 송파구 마천동,,325620,544465,"여행,명소>근린공원",,,
1684,마천<b>공원</b>,서울특별시 송파구 마천동,,324678,544761,"여행,명소>근린공원",,,
1685,섬굴<b>공원</b>,서울특별시 송파구 마천동,,324965,544202,"여행,명소>근린공원",,,
1686,널문근린<b>공원</b>,서울특별시 송파구 마천동  598,,325811,544287,"여행,명소>근린공원",,,
1687,송파파크데일2단지아파트<b>공원</b>,서울특별시 송파구 마천동,,325874,543916,"여행,명소>근린공원",,,
1688,초록<b>공원</b>,서울특별시 송파구 마천동,,325651,544062,"여행,명소>근린공원",,,
1689,마천2<b>공원</b>,서울특별시 송파구 마천동,,325744,543602,"여행,명소>근린공원",,,
1690,남천어린이<b>공원</b>,서울특별시 송파구 마천동,,325282,544694,"레져,체육시설>공원",,,
1691,도담<b>공원</b>,서울특별시 송파구 마천동,,325875,544487,"레져,체육시설>공원",,,
1692,돌무데기어린이놀이터,서울특별시 송파구 마천동,,325672,543662,"레져,체육시설>공원",,,
1693,마천근린<b>공원</b>놀이터,서울특별시 송파구 마천동,,325429,544769,"레져,체육시설>공원",,,
1694,돌무데기<b>공원</b>,서울특별시 송파구 마천동,,325483,543659,"레져,체육시설>공원",,,
1695,샛마을<b>공원</b>,서울특별시 강동구 명일동 288,,324841,550153,"여행,명소>근린공원",,02-441-2770,
1696,강동아름숲,서울특별시 강동구 명일동,,326000,549480,"여행,명소>근린공원",,,
1697,원터근린<b>공원</b>,서울특별시 강동구 명일동,,325137,550456,"여행,명소>근린공원",,,
1698,방아다리어린이<b>공원</b>,서울특별시 강동구 명일동,,325416,549867,"레져,체육시설>공원",,,
1699,명우어린이<b>공원</b>,서울특별시 강동구 명일동,,324338,550275,"레져,체육시설>공원",,,
1700,진달래어린이<b>공원</b>,서울특별시 강동구 명일동,,325232,550241,"레져,체육시설>공원",,,
1701,염주골어린이<b>공원</b>,서울특별시 강동구 명일동,,324709,550073,"레져,체육시설>공원",,,
1702,고명어린이<b>공원</b>,서울특별시 강동구 명일동,,324506,550379,"레져,체육시설>공원",,,
1703,샘물어린이<b>공원</b>,서울특별시 강동구 명일동 ,,324633,549609,"레져,체육시설>공원",,,
1704,은하수어린이<b>공원</b>,서울특별시 강동구 명일동,,325503,550146,"레져,체육시설>공원",,,
1705,두레근린<b>공원</b>,서울특별시 강동구 고덕동,,325285,550995,"여행,명소>근린공원",,,
1706,샘터<b>공원</b>,서울특별시 강동구 고덕동,,325937,551384,"여행,명소>근린공원",,,
1707,동명근린<b>공원</b>,서울특별시 강동구 고덕동,,326431,551357,"여행,명소>근린공원",,,
1708,방죽근린<b>공원</b>,서울특별시 강동구 고덕동,,325802,550892,"여행,명소>근린공원",,,
1709,동자근린<b>공원</b>,서울특별시 강동구 고덕동,,325321,551176,"여행,명소>근린공원",,,
1710,동명근린<b>공원</b>,서울특별시 강동구 고덕동 229,,326662,551175,"여행,명소>도시,테마공원",,,
1711,까치근린<b>공원</b>,서울특별시 강동구 고덕동,,325070,550863,"여행,명소>근린공원",,,
1712,송림근린<b>공원</b>,서울특별시 강동구 고덕동,,325439,550703,"여행,명소>근린공원",,,
1713,고덕수변생태<b>공원</b>,서울특별시 강동구 고덕동 379-3,,325607,552312,"여행,명소>자연,생태공원",,,
1714,고덕동 보전지역,서울특별시 강동구 고덕동 396,,325041,551978,"여행,명소>자연,생태공원",,02-426-0755,
1715,한우물어린이<b>공원</b>,서울특별시 강동구 고덕동,,326223,551356,"레져,체육시설>공원",,,
1716,말우물어린이<b>공원</b>,서울특별시 강동구 고덕동,,326833,551171,"레져,체육시설>공원",,,
1717,꿈나래어린이<b>공원</b>,서울특별시 강동구 고덕동,,325453,551299,"레져,체육시설>공원",,,
1718,곰돌이어린이<b>공원</b>,서울특별시 강동구 고덕동,,325537,550783,"레져,체육시설>공원",,,
1719,게내어린이<b>공원</b>,서울특별시 강동구 상일동,,327012,549983,"레져,체육시설>공원",,,
1720,하늬어린이<b>공원</b>,서울특별시 강동구 상일동,,325949,549656,"레져,체육시설>공원",,,
1721,동자<b>공원</b>,서울특별시 강동구 상일동,,326610,550346,"레져,체육시설>공원",,,
1722,상일동산,서울특별시 강동구 상일동,,326384,550004,"여행,명소>근린공원",,,
1723,명일근린<b>공원</b>,서울특별시 강동구 상일동,,326190,549922,"여행,명소>근린공원",,,
1724,강동그린웨이명일근린<b>공원</b>,서울특별시 강동구 상일동,,326099,550500,"여행,명소>근린공원",,,
1725,상일근린<b>공원</b>,서울특별시 강동구 상일동,,326692,549797,"여행,명소>근린공원",,,
1726,명일원터가로<b>공원</b>,서울특별시 강동구 상일동,,325643,549758,"여행,명소>근린공원",,,
1727,<b>길동공원</b>,서울특별시 강동구 길동,,325204,549452,"여행,명소>근린공원",,,
1728,<b>길동</b>자연생태<b>공원</b>,서울특별시 강동구 길동 476,서울특별시 강동구 천호대로 1291,325504,549027,"여행,명소>자연,생태공원",,02-472-2770,http://parks.seoul.go.kr/gildong
1729,희망어린이<b>공원</b>,서울특별시 강동구 길동,,324400,548893,"레져,체육시설>공원",,,
1730,무궁화어린이<b>공원</b>,서울특별시 강동구 길동,,324676,549236,"레져,체육시설>공원",,,
1731,일자산허브천문<b>공원</b>,서울특별시 강동구 둔촌동 산94,,325378,548682,"여행,명소>테마공원",,,http://cafe.daum.net/herbparks/
1732,일자산자연<b>공원</b>,서울특별시 강동구 둔촌동 산140,서울특별시 강동구 동남로 660 일자산자연공원제1체육관,325140,548121,"여행,명소>도시,테마공원",,,
1733,일자산도시자연<b>공원</b>,서울특별시 강동구 둔촌동 산125,,325209,548105,"여행,명소>도시,테마공원",,,
1734,강동구도시농업<b>공원</b>,서울특별시 강동구 둔촌동 산119,,325238,548382,"여행,명소>근린공원",,,
1735,둔촌어린이<b>공원</b>,서울특별시 강동구 둔촌동,,324489,548048,"레져,체육시설>공원",,,
1736,구암어린이<b>공원</b>,서울특별시 강동구 암사동,,324004,550838,"레져,체육시설>공원",,,
1737,새장터어린이<b>공원</b>,서울특별시 강동구 암사동,,323410,550337,"레져,체육시설>공원",,,
1738,볕우물어린이<b>공원</b>,서울특별시 강동구 암사동,,323847,550503,"레져,체육시설>공원",,,
1739,선사어린이<b>공원</b>,서울특별시 강동구 암사동,,323396,550771,"레져,체육시설>공원",,,
1740,암사어린이<b>공원</b>,서울특별시 강동구 암사동,,324035,550424,"레져,체육시설>공원",,,
1741,광나루 한강<b>공원</b>,서울특별시 강동구 암사동 637-6,서울특별시 강동구 선사로 83-66 한강사업본부 광나루안내센터,322853,551043,"여행,명소>시민공원",,,http://hangang.seoul.go.kr/archives/46585
1742,광나루한강<b>공원</b>암사생태<b>공원</b>,서울특별시 강동구 암사동 616-1,,322617,550604,"여행,명소>자연,생태공원",,,
1743,암사역사<b>공원</b>(2021년12월예정),서울특별시 강동구 암사동  136-1,서울특별시 강동구 아리수로25길 152,323520,551214,"여행,명소>근린공원",,,
1744,광나루<b>공원</b>,서울특별시 강동구 암사동,,322911,550139,"여행,명소>근린공원",,,
1745,암사근린<b>공원</b>,서울특별시 강동구 암사동,,324364,550838,"여행,명소>근린공원",,,
1746,솜다래근린<b>공원</b>,서울특별시 강동구 암사동,,324325,550547,"여행,명소>근린공원",,,
1747,솔말소근린<b>공원</b>,서울특별시 강동구 암사동,,324134,550834,"여행,명소>근린공원",,,
1748,선사현대아이파크아파트<b>공원</b>,서울특별시 강동구 암사동,,323057,550497,"레져,체육시설>공원",,,
1749,성내하니<b>공원</b>,서울특별시 강동구 성내동,,323015,547863,"여행,명소>근린공원",,,
1750,안말어린이<b>공원</b>,서울특별시 강동구 성내동,,323306,548082,"레져,체육시설>공원",,,
1751,성내천어린이<b>공원</b>,서울특별시 강동구 성내동,,322758,547546,"레져,체육시설>공원",,,
1752,성안어린이<b>공원</b>,서울특별시 강동구 성내동,,323747,548050,"레져,체육시설>공원",,,
1753,보람어린이<b>공원</b>,서울특별시 강동구 성내동,,323419,547330,"레져,체육시설>공원",,,
1754,샛별어린이<b>공원</b>,서울특별시 강동구 성내동,,323039,547567,"레져,체육시설>공원",,,
1755,선린<b>공원</b>,서울특별시 강동구 성내동,,323549,547708,"여행,명소>근린공원",,,
1756,보람어린이<b>공원</b>창의놀이터,서울특별시 강동구 성내동,,323419,547326,"레져,체육시설>공원",,,
1757,샛별어린이<b>공원</b>창의놀이터,서울특별시 강동구 성내동,,323041,547565,"레져,체육시설>공원",,,
1758,천호<b>공원</b>,서울특별시 강동구 천호동 360,서울특별시 강동구 올림픽로 702 해공도서관,323004,549495,"여행,명소>근린공원",,02-489-2776,http://parks.seoul.go.kr/cheonho
1759,광나루자전거<b>공원</b>,서울특별시 강동구 천호동 483-8,,322293,549597,"여행,명소>근린공원",,02-120,
1760,광나루한강<b>공원</b>,서울특별시 강동구 천호동,,322355,549682,"여행,명소>자연공원",,,
1761,한강<b>공원</b> 광나루모형비행장,서울특별시 강동구 천호동 351-1,,322446,549588,"여행,명소>테마공원",,,
1762,당말<b>공원</b>,서울특별시 강동구 천호동,,323597,548879,"여행,명소>근린공원",,,
1763,동산어린이<b>공원</b>,서울특별시 강동구 천호동,,323294,549800,"레져,체육시설>공원",,,
1764,천일어린이<b>공원</b>,서울특별시 강동구 천호동,,323877,549552,"레져,체육시설>공원",,,
1765,광진어린이<b>공원</b>,서울특별시 강동구 천호동,,322668,549371,"레져,체육시설>공원",,,
1766,천사어린이<b>공원</b>,서울특별시 강동구 천호동,,323181,549455,"레져,체육시설>공원",,,
1767,혜림어린이<b>공원</b>,서울특별시 강동구 천호동,,324201,549494,"레져,체육시설>공원",,,
1768,천호삼거리<b>공원</b>,서울특별시 강동구 천호동,,324068,549609,"여행,명소>근린공원",,,
1769,고분다리어린이<b>공원</b>,서울특별시 강동구 천호동,,323470,549615,"레져,체육시설>공원",,,
1770,천호큰골목<b>공원</b>,서울특별시 강동구 천호동,,324075,549556,"여행,명소>근린공원",,,
1771,천사어린이<b>공원</b>창의놀이터,서울특별시 강동구 천호동,,323184,549451,"레져,체육시설>공원",,,
1772,천암<b>공원</b>,서울특별시 강동구 천호동,,323930,549866,"여행,명소>근린공원",,,
1773,화랑어린이<b>공원</b>,서울특별시 강동구 천호동 431-2,,322718,549013,"여행,명소>군립,시립공원",,,
1774,천일골목<b>공원</b>,서울특별시 강동구 천호동,,324044,549613,"여행,명소>근린공원",,,
1775,벌말근린<b>공원</b>,서울특별시 강동구 강일동,,327469,551160,"여행,명소>근린공원",,,
1776,능골근린<b>공원</b>,서울특별시 강동구 강일동,,327240,550805,"여행,명소>근린공원",,,
1777,근린<b>공원</b>,서울특별시 강동구 강일동 343-3,,327542,552344,"여행,명소>근린공원",,,
1778,강일<b>공원</b>,서울특별시 강동구 강일동,,327256,552241,"여행,명소>근린공원",,,
